{
"type": "FeatureCollection",
"name": "linear_density_enhance_full",
"crs": { "type": "name", "properties": { "name": "urn:ogc:def:crs:EPSG::3857" } },
"features": [
{ "type": "Feature", "properties": { "id": 9000, "street_cells": 431.42663938472981, "yard_cells": 4995.3746715120642, "utility": 0.19459729138589449, "num_areas": 0.0 }, "geometry": { "type": "MultiPolygon", "coordinates": [ [ [ [ 1259149.034566706512123, 5541981.343784033320844 ], [ 1259249.034566706512123, 5541981.343784033320844 ], [ 1259249.034566706512123, 5541881.343784033320844 ], [ 1259149.034566706512123, 5541881.343784033320844 ], [ 1259149.034566706512123, 5541981.343784033320844 ] ] ] ] } },
{ "type": "Feature", "properties": { "id": 9314, "street_cells": 256.3281202796847, "yard_cells": 4613.0571067452111, "utility": 0.2128584052877035, "num_areas": 1.0 }, "geometry": { "type": "MultiPolygon", "coordinates": [ [ [ [ 1259349.034566706512123, 5542381.343784033320844 ], [ 1259449.034566706512123, 5542381.343784033320844 ], [ 1259449.034566706512123, 5542281.343784033320844 ], [ 1259349.034566706512123, 5542281.343784033320844 ], [ 1259349.034566706512123, 5542381.343784033320844 ] ] ] ] } },
{ "type": "Feature", "properties": { "id": 9741, "street_cells": 2.3759009083732958, "yard_cells": 4828.3026421926916, "utility": 0.040696915029263592, "num_areas": 4.0 }, "geometry": { "type": "MultiPolygon", "coordinates": [ [ [ [ 1259649.278317219344899, 5547362.869409847073257 ], [ 1259670.590352218830958, 5547375.012775938026607 ], [ 1259681.98935675015673, 5547381.343784033320844 ], [ 1259749.034566706512123, 5547381.343784033320844 ], [ 1259749.034566706512123, 5547281.343784033320844 ], [ 1259649.034566706512123, 5547281.343784033320844 ], [ 1259649.034566706512123, 5547362.725936091504991 ], [ 1259649.278317219344899, 5547362.869409847073257 ] ] ] ] } },
{ "type": "Feature", "properties": { "id": 10276, "street_cells": 208.80996038094159, "yard_cells": 4386.9847510553427, "utility": 0.3013885123845112, "num_areas": 0.0 }, "geometry": { "type": "MultiPolygon", "coordinates": [ [ [ [ 1259949.034566706512123, 5541581.343784033320844 ], [ 1260049.034566706512123, 5541581.343784033320844 ], [ 1260049.034566706512123, 5541481.343784033320844 ], [ 1259949.034566706512123, 5541481.343784033320844 ], [ 1259949.034566706512123, 5541581.343784033320844 ] ] ] ] } },
{ "type": "Feature", "properties": { "id": 14233, "street_cells": 360.0273892251775, "yard_cells": 4623.4276258559621, "utility": 0.2466453235186328, "num_areas": 1.0 }, "geometry": { "type": "MultiPolygon", "coordinates": [ [ [ [ 1262449.034566706512123, 5543381.343784033320844 ], [ 1262549.034566706512123, 5543381.343784033320844 ], [ 1262549.034566706512123, 5543281.343784033320844 ], [ 1262449.034566706512123, 5543281.343784033320844 ], [ 1262449.034566706512123, 5543381.343784033320844 ] ] ] ] } },
{ "type": "Feature", "properties": { "id": 15978, "street_cells": 0.0, "yard_cells": 5603.4457935541868, "utility": 0.31807008776034201, "num_areas": 0.0 }, "geometry": { "type": "MultiPolygon", "coordinates": [ [ [ [ 1263549.034566706512123, 5543781.343784033320844 ], [ 1263649.034566706512123, 5543781.343784033320844 ], [ 1263649.034566706512123, 5543681.343784033320844 ], [ 1263549.034566706512123, 5543681.343784033320844 ], [ 1263549.034566706512123, 5543781.343784033320844 ] ] ] ] } },
{ "type": "Feature", "properties": { "id": 15979, "street_cells": 732.15261323191226, "yard_cells": 5187.4791655037552, "utility": 0.098288711161286721, "num_areas": 1.0 }, "geometry": { "type": "MultiPolygon", "coordinates": [ [ [ [ 1263549.034566706512123, 5543681.343784033320844 ], [ 1263649.034566706512123, 5543681.343784033320844 ], [ 1263649.034566706512123, 5543581.343784033320844 ], [ 1263549.034566706512123, 5543581.343784033320844 ], [ 1263549.034566706512123, 5543681.343784033320844 ] ] ] ] } },
{ "type": "Feature", "properties": { "id": 18878, "street_cells": 478.64365828293381, "yard_cells": 4292.7467013206333, "utility": 0.2694650940281168, "num_areas": 0.0 }, "geometry": { "type": "MultiPolygon", "coordinates": [ [ [ [ 1265349.034566706512123, 5539981.343784033320844 ], [ 1265449.034566706512123, 5539981.343784033320844 ], [ 1265449.034566706512123, 5539881.343784033320844 ], [ 1265349.034566706512123, 5539881.343784033320844 ], [ 1265349.034566706512123, 5539981.343784033320844 ] ] ] ] } },
{ "type": "Feature", "properties": { "id": 18879, "street_cells": 668.17917704880244, "yard_cells": 3830.4666534550488, "utility": 0.083336974860274429, "num_areas": 1.0 }, "geometry": { "type": "MultiPolygon", "coordinates": [ [ [ [ 1265349.034566706512123, 5539881.343784033320844 ], [ 1265449.034566706512123, 5539881.343784033320844 ], [ 1265449.034566706512123, 5539781.343784033320844 ], [ 1265349.034566706512123, 5539781.343784033320844 ], [ 1265349.034566706512123, 5539881.343784033320844 ] ] ] ] } },
{ "type": "Feature", "properties": { "id": 19037, "street_cells": 405.75128435343498, "yard_cells": 4360.9408056268003, "utility": 0.32233295887779589, "num_areas": 0.0 }, "geometry": { "type": "MultiPolygon", "coordinates": [ [ [ [ 1265449.034566706512123, 5539981.343784033320844 ], [ 1265549.034566706512123, 5539981.343784033320844 ], [ 1265549.034566706512123, 5539881.343784033320844 ], [ 1265449.034566706512123, 5539881.343784033320844 ], [ 1265449.034566706512123, 5539981.343784033320844 ] ] ] ] } },
{ "type": "Feature", "properties": { "id": 19184, "street_cells": 239.66862864196301, "yard_cells": 5304.0008095055819, "utility": 0.1074303902822536, "num_areas": 0.0 }, "geometry": { "type": "MultiPolygon", "coordinates": [ [ [ [ 1265549.034566706512123, 5541181.343784033320844 ], [ 1265649.034566706512123, 5541181.343784033320844 ], [ 1265649.034566706512123, 5541081.343784033320844 ], [ 1265549.034566706512123, 5541081.343784033320844 ], [ 1265549.034566706512123, 5541181.343784033320844 ] ] ] ] } },
{ "type": "Feature", "properties": { "id": 19498, "street_cells": 2.689874032139778, "yard_cells": 6047.263721998781, "utility": 0.29708445074992729, "num_areas": 0.0 }, "geometry": { "type": "MultiPolygon", "coordinates": [ [ [ [ 1265749.034566706512123, 5541581.343784033320844 ], [ 1265849.034566706512123, 5541581.343784033320844 ], [ 1265849.034566706512123, 5541481.343784033320844 ], [ 1265749.034566706512123, 5541481.343784033320844 ], [ 1265749.034566706512123, 5541581.343784033320844 ] ] ] ] } },
{ "type": "Feature", "properties": { "id": 19504, "street_cells": 0.0, "yard_cells": 6084.0324303353718, "utility": 0.33886161308157992, "num_areas": 0.0 }, "geometry": { "type": "MultiPolygon", "coordinates": [ [ [ [ 1265749.034566706512123, 5540981.343784033320844 ], [ 1265849.034566706512123, 5540981.343784033320844 ], [ 1265849.034566706512123, 5540881.343784033320844 ], [ 1265749.034566706512123, 5540881.343784033320844 ], [ 1265749.034566706512123, 5540981.343784033320844 ] ] ] ] } },
{ "type": "Feature", "properties": { "id": 19675, "street_cells": 237.33096101582049, "yard_cells": 4757.0810152050108, "utility": 0.33569573561577598, "num_areas": 0.0 }, "geometry": { "type": "MultiPolygon", "coordinates": [ [ [ [ 1265849.034566706512123, 5539781.343784033320844 ], [ 1265949.034566706512123, 5539781.343784033320844 ], [ 1265949.034566706512123, 5539681.343784033320844 ], [ 1265849.034566706512123, 5539681.343784033320844 ], [ 1265849.034566706512123, 5539781.343784033320844 ] ] ] ] } },
{ "type": "Feature", "properties": { "id": 19833, "street_cells": 427.81377203959278, "yard_cells": 4205.4350444953889, "utility": -0.13964606889603659, "num_areas": 3.0 }, "geometry": { "type": "MultiPolygon", "coordinates": [ [ [ [ 1265949.034566706512123, 5539881.343784033320844 ], [ 1266049.034566706512123, 5539881.343784033320844 ], [ 1266049.034566706512123, 5539781.343784033320844 ], [ 1265949.034566706512123, 5539781.343784033320844 ], [ 1265949.034566706512123, 5539881.343784033320844 ] ] ] ] } },
{ "type": "Feature", "properties": { "id": 20155, "street_cells": 234.3548985274509, "yard_cells": 4477.8901821686886, "utility": 0.17947699544538681, "num_areas": 0.0 }, "geometry": { "type": "MultiPolygon", "coordinates": [ [ [ [ 1266149.034566706512123, 5539481.343784033320844 ], [ 1266249.034566706512123, 5539481.343784033320844 ], [ 1266249.034566706512123, 5539381.343784033320844 ], [ 1266149.034566706512123, 5539381.343784033320844 ], [ 1266149.034566706512123, 5539481.343784033320844 ] ] ] ] } },
{ "type": "Feature", "properties": { "id": 20156, "street_cells": 427.43424261324111, "yard_cells": 4347.3148755629663, "utility": 0.30926742032620042, "num_areas": 0.0 }, "geometry": { "type": "MultiPolygon", "coordinates": [ [ [ [ 1266149.034566706512123, 5539381.343784033320844 ], [ 1266249.034566706512123, 5539381.343784033320844 ], [ 1266249.034566706512123, 5539281.343784033320844 ], [ 1266149.034566706512123, 5539281.343784033320844 ], [ 1266149.034566706512123, 5539381.343784033320844 ] ] ] ] } },
{ "type": "Feature", "properties": { "id": 20157, "street_cells": 398.08790247887367, "yard_cells": 4665.5144264637493, "utility": 0.31832362836233952, "num_areas": 0.0 }, "geometry": { "type": "MultiPolygon", "coordinates": [ [ [ [ 1266149.034566706512123, 5539281.343784033320844 ], [ 1266249.034566706512123, 5539281.343784033320844 ], [ 1266249.034566706512123, 5539181.343784033320844 ], [ 1266149.034566706512123, 5539181.343784033320844 ], [ 1266149.034566706512123, 5539281.343784033320844 ] ] ] ] } },
{ "type": "Feature", "properties": { "id": 20316, "street_cells": 76.873986503761273, "yard_cells": 5002.0070006782189, "utility": 0.18959057048256889, "num_areas": 0.0 }, "geometry": { "type": "MultiPolygon", "coordinates": [ [ [ [ 1266249.034566706512123, 5539281.343784033320844 ], [ 1266349.034566706512123, 5539281.343784033320844 ], [ 1266349.034566706512123, 5539181.343784033320844 ], [ 1266249.034566706512123, 5539181.343784033320844 ], [ 1266249.034566706512123, 5539281.343784033320844 ] ] ] ] } },
{ "type": "Feature", "properties": { "id": 20954, "street_cells": 63.054135034978387, "yard_cells": 6250.9698437964544, "utility": 0.27583376970256218, "num_areas": 0.0 }, "geometry": { "type": "MultiPolygon", "coordinates": [ [ [ [ 1266649.034566706512123, 5539081.343784033320844 ], [ 1266749.034566706512123, 5539081.343784033320844 ], [ 1266749.034566706512123, 5538981.343784033320844 ], [ 1266649.034566706512123, 5538981.343784033320844 ], [ 1266649.034566706512123, 5539081.343784033320844 ] ] ] ] } },
{ "type": "Feature", "properties": { "id": 21113, "street_cells": 88.551796498894703, "yard_cells": 4722.670635862276, "utility": 0.020037791883322879, "num_areas": 1.0 }, "geometry": { "type": "MultiPolygon", "coordinates": [ [ [ [ 1266749.034566706512123, 5539081.343784033320844 ], [ 1266849.034566706512123, 5539081.343784033320844 ], [ 1266849.034566706512123, 5538981.343784033320844 ], [ 1266749.034566706512123, 5538981.343784033320844 ], [ 1266749.034566706512123, 5539081.343784033320844 ] ] ] ] } },
{ "type": "Feature", "properties": { "id": 21587, "street_cells": 435.0011513158679, "yard_cells": 3799.5283828387041, "utility": 0.24613892938402721, "num_areas": 0.0 }, "geometry": { "type": "MultiPolygon", "coordinates": [ [ [ [ 1267049.034566706512123, 5539381.343784033320844 ], [ 1267149.034566706512123, 5539381.343784033320844 ], [ 1267149.034566706512123, 5539281.343784033320844 ], [ 1267049.034566706512123, 5539281.343784033320844 ], [ 1267049.034566706512123, 5539381.343784033320844 ] ] ] ] } },
{ "type": "Feature", "properties": { "id": 21588, "street_cells": 382.48125309571628, "yard_cells": 4492.831018535886, "utility": 0.29459942731857391, "num_areas": 0.0 }, "geometry": { "type": "MultiPolygon", "coordinates": [ [ [ [ 1267049.034566706512123, 5539281.343784033320844 ], [ 1267149.034566706512123, 5539281.343784033320844 ], [ 1267149.034566706512123, 5539181.343784033320844 ], [ 1267049.034566706512123, 5539181.343784033320844 ], [ 1267049.034566706512123, 5539281.343784033320844 ] ] ] ] } },
{ "type": "Feature", "properties": { "id": 21741, "street_cells": 372.95016006529329, "yard_cells": 4514.1450785961933, "utility": 0.3797045801055004, "num_areas": 0.0 }, "geometry": { "type": "MultiPolygon", "coordinates": [ [ [ [ 1267149.034566706512123, 5539881.343784033320844 ], [ 1267249.034566706512123, 5539881.343784033320844 ], [ 1267249.034566706512123, 5539781.343784033320844 ], [ 1267149.034566706512123, 5539781.343784033320844 ], [ 1267149.034566706512123, 5539881.343784033320844 ] ] ] ] } },
{ "type": "Feature", "properties": { "id": 21743, "street_cells": 60.846038025617602, "yard_cells": 4012.9900273308158, "utility": 0.1203821618901956, "num_areas": 2.0 }, "geometry": { "type": "MultiPolygon", "coordinates": [ [ [ [ 1267149.034566706512123, 5539681.343784033320844 ], [ 1267249.034566706512123, 5539681.343784033320844 ], [ 1267249.034566706512123, 5539581.343784033320844 ], [ 1267149.034566706512123, 5539581.343784033320844 ], [ 1267149.034566706512123, 5539681.343784033320844 ] ] ] ] } },
{ "type": "Feature", "properties": { "id": 21746, "street_cells": 348.48698984310028, "yard_cells": 3806.581533207494, "utility": 0.27785850731601969, "num_areas": 2.0 }, "geometry": { "type": "MultiPolygon", "coordinates": [ [ [ [ 1267149.034566706512123, 5539381.343784033320844 ], [ 1267249.034566706512123, 5539381.343784033320844 ], [ 1267249.034566706512123, 5539281.343784033320844 ], [ 1267149.034566706512123, 5539281.343784033320844 ], [ 1267149.034566706512123, 5539381.343784033320844 ] ] ] ] } },
{ "type": "Feature", "properties": { "id": 21747, "street_cells": 813.42545765787372, "yard_cells": 3176.493515506826, "utility": 0.02673400228021754, "num_areas": 0.0 }, "geometry": { "type": "MultiPolygon", "coordinates": [ [ [ [ 1267149.034566706512123, 5539281.343784033320844 ], [ 1267249.034566706512123, 5539281.343784033320844 ], [ 1267249.034566706512123, 5539181.343784033320844 ], [ 1267149.034566706512123, 5539181.343784033320844 ], [ 1267149.034566706512123, 5539281.343784033320844 ] ] ] ] } },
{ "type": "Feature", "properties": { "id": 21748, "street_cells": 353.9739038899541, "yard_cells": 4297.2898027570918, "utility": 0.28145505758038453, "num_areas": 0.0 }, "geometry": { "type": "MultiPolygon", "coordinates": [ [ [ [ 1267149.034566706512123, 5539181.343784033320844 ], [ 1267249.034566706512123, 5539181.343784033320844 ], [ 1267249.034566706512123, 5539081.343784033320844 ], [ 1267149.034566706512123, 5539081.343784033320844 ], [ 1267149.034566706512123, 5539181.343784033320844 ] ] ] ] } },
{ "type": "Feature", "properties": { "id": 21751, "street_cells": 35.723422852158549, "yard_cells": 4487.6194094396196, "utility": 0.1638420252178113, "num_areas": 0.0 }, "geometry": { "type": "MultiPolygon", "coordinates": [ [ [ [ 1267149.034566706512123, 5538881.343784033320844 ], [ 1267249.034566706512123, 5538881.343784033320844 ], [ 1267249.034566706512123, 5538781.343784033320844 ], [ 1267149.034566706512123, 5538781.343784033320844 ], [ 1267149.034566706512123, 5538881.343784033320844 ] ] ] ] } },
{ "type": "Feature", "properties": { "id": 21898, "street_cells": 496.22067376971239, "yard_cells": 3678.1014554604581, "utility": 0.1828568566254492, "num_areas": 3.0 }, "geometry": { "type": "MultiPolygon", "coordinates": [ [ [ [ 1267249.034566706512123, 5540081.343784033320844 ], [ 1267349.034566706512123, 5540081.343784033320844 ], [ 1267349.034566706512123, 5539981.343784033320844 ], [ 1267249.034566706512123, 5539981.343784033320844 ], [ 1267249.034566706512123, 5540081.343784033320844 ] ] ] ] } },
{ "type": "Feature", "properties": { "id": 21901, "street_cells": 451.28774762153631, "yard_cells": 4348.6233609674673, "utility": 0.34658049241901667, "num_areas": 0.0 }, "geometry": { "type": "MultiPolygon", "coordinates": [ [ [ [ 1267249.034566706512123, 5539781.343784033320844 ], [ 1267349.034566706512123, 5539781.343784033320844 ], [ 1267349.034566706512123, 5539681.343784033320844 ], [ 1267249.034566706512123, 5539681.343784033320844 ], [ 1267249.034566706512123, 5539781.343784033320844 ] ] ] ] } },
{ "type": "Feature", "properties": { "id": 21904, "street_cells": 453.98959315903488, "yard_cells": 4209.1956651906748, "utility": 0.34913593687867089, "num_areas": 0.0 }, "geometry": { "type": "MultiPolygon", "coordinates": [ [ [ [ 1267249.034566706512123, 5539481.343784033320844 ], [ 1267349.034566706512123, 5539481.343784033320844 ], [ 1267349.034566706512123, 5539381.343784033320844 ], [ 1267249.034566706512123, 5539381.343784033320844 ], [ 1267249.034566706512123, 5539481.343784033320844 ] ] ] ] } },
{ "type": "Feature", "properties": { "id": 21905, "street_cells": 709.29557994604113, "yard_cells": 3342.3438205712168, "utility": 0.1857645799365395, "num_areas": 2.0 }, "geometry": { "type": "MultiPolygon", "coordinates": [ [ [ [ 1267249.034566706512123, 5539381.343784033320844 ], [ 1267349.034566706512123, 5539381.343784033320844 ], [ 1267349.034566706512123, 5539281.343784033320844 ], [ 1267249.034566706512123, 5539281.343784033320844 ], [ 1267249.034566706512123, 5539381.343784033320844 ] ] ] ] } },
{ "type": "Feature", "properties": { "id": 21907, "street_cells": 421.37787138968707, "yard_cells": 4340.0818873234093, "utility": 0.3769763645181875, "num_areas": 0.0 }, "geometry": { "type": "MultiPolygon", "coordinates": [ [ [ [ 1267249.034566706512123, 5539181.343784033320844 ], [ 1267349.034566706512123, 5539181.343784033320844 ], [ 1267349.034566706512123, 5539081.343784033320844 ], [ 1267249.034566706512123, 5539081.343784033320844 ], [ 1267249.034566706512123, 5539181.343784033320844 ] ] ] ] } },
{ "type": "Feature", "properties": { "id": 21908, "street_cells": 479.57036407887938, "yard_cells": 3491.0726634482271, "utility": 0.11248869586342609, "num_areas": 2.0 }, "geometry": { "type": "MultiPolygon", "coordinates": [ [ [ [ 1267249.034566706512123, 5539081.343784033320844 ], [ 1267349.034566706512123, 5539081.343784033320844 ], [ 1267349.034566706512123, 5538981.343784033320844 ], [ 1267249.034566706512123, 5538981.343784033320844 ], [ 1267249.034566706512123, 5539081.343784033320844 ] ] ] ] } },
{ "type": "Feature", "properties": { "id": 21910, "street_cells": 0.0, "yard_cells": 4533.4620077293366, "utility": 0.1782548917974047, "num_areas": 0.0 }, "geometry": { "type": "MultiPolygon", "coordinates": [ [ [ [ 1267249.034566706512123, 5538881.343784033320844 ], [ 1267349.034566706512123, 5538881.343784033320844 ], [ 1267349.034566706512123, 5538781.343784033320844 ], [ 1267249.034566706512123, 5538781.343784033320844 ], [ 1267249.034566706512123, 5538881.343784033320844 ] ] ] ] } },
{ "type": "Feature", "properties": { "id": 22063, "street_cells": 425.26516379900278, "yard_cells": 3887.9894546410069, "utility": 0.22395919570391551, "num_areas": 0.0 }, "geometry": { "type": "MultiPolygon", "coordinates": [ [ [ [ 1267349.034566706512123, 5539481.343784033320844 ], [ 1267449.034566706512123, 5539481.343784033320844 ], [ 1267449.034566706512123, 5539381.343784033320844 ], [ 1267349.034566706512123, 5539381.343784033320844 ], [ 1267349.034566706512123, 5539481.343784033320844 ] ] ] ] } },
{ "type": "Feature", "properties": { "id": 22064, "street_cells": 666.64253462478518, "yard_cells": 3691.92152822041, "utility": 0.008744857302808634, "num_areas": 0.0 }, "geometry": { "type": "MultiPolygon", "coordinates": [ [ [ [ 1267349.034566706512123, 5539381.343784033320844 ], [ 1267449.034566706512123, 5539381.343784033320844 ], [ 1267449.034566706512123, 5539281.343784033320844 ], [ 1267349.034566706512123, 5539281.343784033320844 ], [ 1267349.034566706512123, 5539381.343784033320844 ] ] ] ] } },
{ "type": "Feature", "properties": { "id": 22065, "street_cells": 408.67100771069528, "yard_cells": 3806.7190127668991, "utility": 0.2657262441936023, "num_areas": 1.0 }, "geometry": { "type": "MultiPolygon", "coordinates": [ [ [ [ 1267349.034566706512123, 5539281.343784033320844 ], [ 1267449.034566706512123, 5539281.343784033320844 ], [ 1267449.034566706512123, 5539181.343784033320844 ], [ 1267349.034566706512123, 5539181.343784033320844 ], [ 1267349.034566706512123, 5539281.343784033320844 ] ] ] ] } },
{ "type": "Feature", "properties": { "id": 22066, "street_cells": 698.18365106359124, "yard_cells": 3111.4305621878011, "utility": 0.20353435274868689, "num_areas": 2.0 }, "geometry": { "type": "MultiPolygon", "coordinates": [ [ [ [ 1267349.034566706512123, 5539181.343784033320844 ], [ 1267449.034566706512123, 5539181.343784033320844 ], [ 1267449.034566706512123, 5539081.343784033320844 ], [ 1267349.034566706512123, 5539081.343784033320844 ], [ 1267349.034566706512123, 5539181.343784033320844 ] ] ] ] } },
{ "type": "Feature", "properties": { "id": 22067, "street_cells": 446.86394782364368, "yard_cells": 3854.063443813357, "utility": 0.23021986023098151, "num_areas": 2.0 }, "geometry": { "type": "MultiPolygon", "coordinates": [ [ [ [ 1267349.034566706512123, 5539081.343784033320844 ], [ 1267449.034566706512123, 5539081.343784033320844 ], [ 1267449.034566706512123, 5538981.343784033320844 ], [ 1267349.034566706512123, 5538981.343784033320844 ], [ 1267349.034566706512123, 5539081.343784033320844 ] ] ] ] } },
{ "type": "Feature", "properties": { "id": 22069, "street_cells": 193.3031489402056, "yard_cells": 4178.0172989275306, "utility": 0.099498977009011294, "num_areas": 1.0 }, "geometry": { "type": "MultiPolygon", "coordinates": [ [ [ [ 1267349.034566706512123, 5538881.343784033320844 ], [ 1267449.034566706512123, 5538881.343784033320844 ], [ 1267449.034566706512123, 5538781.343784033320844 ], [ 1267349.034566706512123, 5538781.343784033320844 ], [ 1267349.034566706512123, 5538881.343784033320844 ] ] ] ] } },
{ "type": "Feature", "properties": { "id": 22223, "street_cells": 330.4747556779534, "yard_cells": 3733.5184510171821, "utility": 0.15789621136611409, "num_areas": 0.0 }, "geometry": { "type": "MultiPolygon", "coordinates": [ [ [ [ 1267449.034566706512123, 5539381.343784033320844 ], [ 1267549.034566706512123, 5539381.343784033320844 ], [ 1267549.034566706512123, 5539281.343784033320844 ], [ 1267449.034566706512123, 5539281.343784033320844 ], [ 1267449.034566706512123, 5539381.343784033320844 ] ] ] ] } },
{ "type": "Feature", "properties": { "id": 22224, "street_cells": 350.48629946634168, "yard_cells": 4025.5915629633819, "utility": 0.20826143517454129, "num_areas": 1.0 }, "geometry": { "type": "MultiPolygon", "coordinates": [ [ [ [ 1267449.034566706512123, 5539281.343784033320844 ], [ 1267549.034566706512123, 5539281.343784033320844 ], [ 1267549.034566706512123, 5539181.343784033320844 ], [ 1267449.034566706512123, 5539181.343784033320844 ], [ 1267449.034566706512123, 5539281.343784033320844 ] ] ] ] } },
{ "type": "Feature", "properties": { "id": 22225, "street_cells": 291.13715378623459, "yard_cells": 4391.4821345142554, "utility": 0.32805072589785478, "num_areas": 1.0 }, "geometry": { "type": "MultiPolygon", "coordinates": [ [ [ [ 1267449.034566706512123, 5539181.343784033320844 ], [ 1267549.034566706512123, 5539181.343784033320844 ], [ 1267549.034566706512123, 5539081.343784033320844 ], [ 1267449.034566706512123, 5539081.343784033320844 ], [ 1267449.034566706512123, 5539181.343784033320844 ] ] ] ] } },
{ "type": "Feature", "properties": { "id": 22226, "street_cells": 278.40787494089449, "yard_cells": 4820.1514186765999, "utility": 0.40290215220796821, "num_areas": 0.0 }, "geometry": { "type": "MultiPolygon", "coordinates": [ [ [ [ 1267449.034566706512123, 5539081.343784033320844 ], [ 1267549.034566706512123, 5539081.343784033320844 ], [ 1267549.034566706512123, 5538981.343784033320844 ], [ 1267449.034566706512123, 5538981.343784033320844 ], [ 1267449.034566706512123, 5539081.343784033320844 ] ] ] ] } },
{ "type": "Feature", "properties": { "id": 22227, "street_cells": 155.33455683495851, "yard_cells": 4342.5690067787073, "utility": 0.20360652781054289, "num_areas": 0.0 }, "geometry": { "type": "MultiPolygon", "coordinates": [ [ [ [ 1267449.034566706512123, 5538981.343784033320844 ], [ 1267549.034566706512123, 5538981.343784033320844 ], [ 1267549.034566706512123, 5538881.343784033320844 ], [ 1267449.034566706512123, 5538881.343784033320844 ], [ 1267449.034566706512123, 5538981.343784033320844 ] ] ] ] } },
{ "type": "Feature", "properties": { "id": 22231, "street_cells": 621.03034876734023, "yard_cells": 3399.7972510585041, "utility": 0.20522448535660021, "num_areas": 0.0 }, "geometry": { "type": "MultiPolygon", "coordinates": [ [ [ [ 1267449.034566706512123, 5538581.343784033320844 ], [ 1267549.034566706512123, 5538581.343784033320844 ], [ 1267549.034566706512123, 5538481.343784033320844 ], [ 1267449.034566706512123, 5538481.343784033320844 ], [ 1267449.034566706512123, 5538581.343784033320844 ] ] ] ] } },
{ "type": "Feature", "properties": { "id": 22543, "street_cells": 575.11705824080855, "yard_cells": 3656.2804499049671, "utility": 0.21280479342890901, "num_areas": 1.0 }, "geometry": { "type": "MultiPolygon", "coordinates": [ [ [ [ 1267649.034566706512123, 5539181.343784033320844 ], [ 1267749.034566706512123, 5539181.343784033320844 ], [ 1267749.034566706512123, 5539081.343784033320844 ], [ 1267649.034566706512123, 5539081.343784033320844 ], [ 1267649.034566706512123, 5539181.343784033320844 ] ] ] ] } },
{ "type": "Feature", "properties": { "id": 22545, "street_cells": 523.61830800920723, "yard_cells": 3356.6247745991, "utility": 0.2497266908001968, "num_areas": 0.0 }, "geometry": { "type": "MultiPolygon", "coordinates": [ [ [ [ 1267649.034566706512123, 5538981.343784033320844 ], [ 1267749.034566706512123, 5538981.343784033320844 ], [ 1267749.034566706512123, 5538881.343784033320844 ], [ 1267649.034566706512123, 5538881.343784033320844 ], [ 1267649.034566706512123, 5538981.343784033320844 ] ] ] ] } }
]
}
