{
"type": "FeatureCollection",
"name": "higher_green_full",
"crs": { "type": "name", "properties": { "name": "urn:ogc:def:crs:EPSG::3857" } },
"features": [
{ "type": "Feature", "properties": { "id": 2595, "street_cells": 429.91306012049318, "yard_cells": 4200.3594697762746, "utility": 4.5191967851355423, "num_areas": 0.0 }, "geometry": { "type": "MultiPolygon", "coordinates": [ [ [ [ 1255149.034566706512123, 5546481.343784033320844 ], [ 1255249.034566706512123, 5546481.343784033320844 ], [ 1255249.034566706512123, 5546381.343784033320844 ], [ 1255149.034566706512123, 5546381.343784033320844 ], [ 1255149.034566706512123, 5546481.343784033320844 ] ] ] ] } },
{ "type": "Feature", "properties": { "id": 6429, "street_cells": 362.51724500767892, "yard_cells": 4502.3389722052962, "utility": 6.5182111640702356, "num_areas": 0.0 }, "geometry": { "type": "MultiPolygon", "coordinates": [ [ [ [ 1257549.034566706512123, 5544681.343784033320844 ], [ 1257649.034566706512123, 5544681.343784033320844 ], [ 1257649.034566706512123, 5544581.343784033320844 ], [ 1257549.034566706512123, 5544581.343784033320844 ], [ 1257549.034566706512123, 5544681.343784033320844 ] ] ] ] } },
{ "type": "Feature", "properties": { "id": 7547, "street_cells": 171.41693124510351, "yard_cells": 4735.2664999682456, "utility": 7.1004863056337459, "num_areas": 0.0 }, "geometry": { "type": "MultiPolygon", "coordinates": [ [ [ [ 1258249.034566706512123, 5544181.343784033320844 ], [ 1258349.034566706512123, 5544181.343784033320844 ], [ 1258349.034566706512123, 5544081.343784033320844 ], [ 1258249.034566706512123, 5544081.343784033320844 ], [ 1258249.034566706512123, 5544181.343784033320844 ] ] ] ] } },
{ "type": "Feature", "properties": { "id": 8215, "street_cells": 163.3471173211932, "yard_cells": 4443.3092762976876, "utility": 5.6043145071896303, "num_areas": 0.0 }, "geometry": { "type": "MultiPolygon", "coordinates": [ [ [ [ 1258655.440917155239731, 5540971.721566090360284 ], [ 1258665.885956414975226, 5540977.330933114513755 ], [ 1258674.719331277068704, 5540981.343784033320844 ], [ 1258749.034566706512123, 5540981.343784033320844 ], [ 1258749.034566706512123, 5540881.343784033320844 ], [ 1258649.034566706512123, 5540881.343784033320844 ], [ 1258649.034566706512123, 5540968.161971695721149 ], [ 1258655.440917155239731, 5540971.721566090360284 ] ] ] ] } },
{ "type": "Feature", "properties": { "id": 12647, "street_cells": 1324.149462202937, "yard_cells": 699.58781926085999, "utility": 4.4318097942727537, "num_areas": 0.0 }, "geometry": { "type": "MultiPolygon", "coordinates": [ [ [ [ 1261449.034566706512123, 5542981.343784033320844 ], [ 1261549.034566706512123, 5542981.343784033320844 ], [ 1261549.034566706512123, 5542881.343784033320844 ], [ 1261449.034566706512123, 5542881.343784033320844 ], [ 1261449.034566706512123, 5542981.343784033320844 ] ] ] ] } },
{ "type": "Feature", "properties": { "id": 12955, "street_cells": 420.03392774909742, "yard_cells": 4436.5813984461129, "utility": 6.2915278040664839, "num_areas": 0.0 }, "geometry": { "type": "MultiPolygon", "coordinates": [ [ [ [ 1261649.034566706512123, 5543981.343784033320844 ], [ 1261749.034566706512123, 5543981.343784033320844 ], [ 1261749.034566706512123, 5543881.343784033320844 ], [ 1261649.034566706512123, 5543881.343784033320844 ], [ 1261649.034566706512123, 5543981.343784033320844 ] ] ] ] } },
{ "type": "Feature", "properties": { "id": 12994, "street_cells": 0.0, "yard_cells": 3019.7390202507381, "utility": 5.2284073128558104, "num_areas": 0.0 }, "geometry": { "type": "MultiPolygon", "coordinates": [ [ [ [ 1261664.217063456075266, 5540025.135464675724506 ], [ 1261673.532795017352328, 5540047.639998783357441 ], [ 1261694.968487672274932, 5540045.354863519780338 ], [ 1261745.741891429759562, 5540081.343784033320844 ], [ 1261749.034566706512123, 5540081.343784033320844 ], [ 1261749.034566706512123, 5539981.343784033320844 ], [ 1261649.034566706512123, 5539981.343784033320844 ], [ 1261649.034566706512123, 5540026.99965603929013 ], [ 1261664.217063456075266, 5540025.135464675724506 ] ] ] ] } },
{ "type": "Feature", "properties": { "id": 12995, "street_cells": 0.0, "yard_cells": 2241.9728490654379, "utility": 5.4816686081002146, "num_areas": 0.0 }, "geometry": { "type": "MultiPolygon", "coordinates": [ [ [ [ 1261649.034566706512123, 5539981.343784033320844 ], [ 1261749.034566706512123, 5539981.343784033320844 ], [ 1261749.034566706512123, 5539881.343784033320844 ], [ 1261649.034566706512123, 5539881.343784033320844 ], [ 1261649.034566706512123, 5539981.343784033320844 ] ] ] ] } },
{ "type": "Feature", "properties": { "id": 13575, "street_cells": 802.9284239562229, "yard_cells": 3126.054509890731, "utility": 5.2238869019556384, "num_areas": 0.0 }, "geometry": { "type": "MultiPolygon", "coordinates": [ [ [ [ 1262049.034566706512123, 5545581.343784033320844 ], [ 1262149.034566706512123, 5545581.343784033320844 ], [ 1262149.034566706512123, 5545481.343784033320844 ], [ 1262049.034566706512123, 5545481.343784033320844 ], [ 1262049.034566706512123, 5545581.343784033320844 ] ] ] ] } },
{ "type": "Feature", "properties": { "id": 13596, "street_cells": 610.08476539552214, "yard_cells": 2669.9848902311051, "utility": 5.0261503068594138, "num_areas": 0.0 }, "geometry": { "type": "MultiPolygon", "coordinates": [ [ [ [ 1262049.034566706512123, 5543481.343784033320844 ], [ 1262149.034566706512123, 5543481.343784033320844 ], [ 1262149.034566706512123, 5543381.343784033320844 ], [ 1262049.034566706512123, 5543381.343784033320844 ], [ 1262049.034566706512123, 5543481.343784033320844 ] ] ] ] } },
{ "type": "Feature", "properties": { "id": 13876, "street_cells": 0.0, "yard_cells": 1649.3342425040901, "utility": 4.7363227238083114, "num_areas": 0.0 }, "geometry": { "type": "MultiPolygon", "coordinates": [ [ [ [ 1262249.034566706512123, 5547281.343784033320844 ], [ 1262349.034566706512123, 5547281.343784033320844 ], [ 1262349.034566706512123, 5547181.343784033320844 ], [ 1262249.034566706512123, 5547181.343784033320844 ], [ 1262249.034566706512123, 5547281.343784033320844 ] ] ] ] } },
{ "type": "Feature", "properties": { "id": 13912, "street_cells": 861.15387278497224, "yard_cells": 1486.5321090072389, "utility": 4.7784208605455269, "num_areas": 0.0 }, "geometry": { "type": "MultiPolygon", "coordinates": [ [ [ [ 1262249.034566706512123, 5543681.343784033320844 ], [ 1262349.034566706512123, 5543681.343784033320844 ], [ 1262349.034566706512123, 5543581.343784033320844 ], [ 1262249.034566706512123, 5543581.343784033320844 ], [ 1262249.034566706512123, 5543681.343784033320844 ] ] ] ] } },
{ "type": "Feature", "properties": { "id": 14054, "street_cells": 0.0, "yard_cells": 6351.1158476867713, "utility": 4.174743226818979, "num_areas": 0.0 }, "geometry": { "type": "MultiPolygon", "coordinates": [ [ [ [ 1262349.034566706512123, 5545381.343784033320844 ], [ 1262449.034566706512123, 5545381.343784033320844 ], [ 1262449.034566706512123, 5545281.343784033320844 ], [ 1262349.034566706512123, 5545281.343784033320844 ], [ 1262349.034566706512123, 5545381.343784033320844 ] ] ] ] } },
{ "type": "Feature", "properties": { "id": 14223, "street_cells": 456.58063466511669, "yard_cells": 2275.800573766232, "utility": 4.4858693354223087, "num_areas": 0.0 }, "geometry": { "type": "MultiPolygon", "coordinates": [ [ [ [ 1262449.034566706512123, 5544381.343784033320844 ], [ 1262549.034566706512123, 5544381.343784033320844 ], [ 1262549.034566706512123, 5544281.343784033320844 ], [ 1262449.034566706512123, 5544281.343784033320844 ], [ 1262449.034566706512123, 5544381.343784033320844 ] ] ] ] } },
{ "type": "Feature", "properties": { "id": 15018, "street_cells": 379.96083249002697, "yard_cells": 2627.0376493324479, "utility": 4.3136800983872519, "num_areas": 0.0 }, "geometry": { "type": "MultiPolygon", "coordinates": [ [ [ [ 1262949.034566706512123, 5544381.343784033320844 ], [ 1263049.034566706512123, 5544381.343784033320844 ], [ 1263049.034566706512123, 5544281.343784033320844 ], [ 1262949.034566706512123, 5544281.343784033320844 ], [ 1262949.034566706512123, 5544381.343784033320844 ] ] ] ] } },
{ "type": "Feature", "properties": { "id": 15335, "street_cells": 468.34462500028309, "yard_cells": 2211.2673869944242, "utility": 5.1102603888814393, "num_areas": 0.0 }, "geometry": { "type": "MultiPolygon", "coordinates": [ [ [ [ 1263149.034566706512123, 5544481.343784033320844 ], [ 1263249.034566706512123, 5544481.343784033320844 ], [ 1263249.034566706512123, 5544381.343784033320844 ], [ 1263149.034566706512123, 5544381.343784033320844 ], [ 1263149.034566706512123, 5544481.343784033320844 ] ] ] ] } },
{ "type": "Feature", "properties": { "id": 15483, "street_cells": 0.0, "yard_cells": 5924.8242503711954, "utility": 9.0927679799468155, "num_areas": 0.0 }, "geometry": { "type": "MultiPolygon", "coordinates": [ [ [ [ 1263249.034566706512123, 5545581.343784033320844 ], [ 1263349.034566706512123, 5545581.343784033320844 ], [ 1263349.034566706512123, 5545481.343784033320844 ], [ 1263249.034566706512123, 5545481.343784033320844 ], [ 1263249.034566706512123, 5545581.343784033320844 ] ] ] ] } },
{ "type": "Feature", "properties": { "id": 16114, "street_cells": 376.51293735578662, "yard_cells": 4308.2043780260719, "utility": 4.4456836080993449, "num_areas": 0.0 }, "geometry": { "type": "MultiPolygon", "coordinates": [ [ [ [ 1263649.034566706512123, 5546081.343784033320844 ], [ 1263749.034566706512123, 5546081.343784033320844 ], [ 1263749.034566706512123, 5545981.343784033320844 ], [ 1263649.034566706512123, 5545981.343784033320844 ], [ 1263649.034566706512123, 5546081.343784033320844 ] ] ] ] } },
{ "type": "Feature", "properties": { "id": 16271, "street_cells": 98.362333324551585, "yard_cells": 6106.6756988475099, "utility": 5.4519503985197826, "num_areas": 0.0 }, "geometry": { "type": "MultiPolygon", "coordinates": [ [ [ [ 1263749.034566706512123, 5546281.343784033320844 ], [ 1263849.034566706512123, 5546281.343784033320844 ], [ 1263849.034566706512123, 5546181.343784033320844 ], [ 1263749.034566706512123, 5546181.343784033320844 ], [ 1263749.034566706512123, 5546281.343784033320844 ] ] ] ] } },
{ "type": "Feature", "properties": { "id": 16274, "street_cells": 385.83039495199921, "yard_cells": 4784.0205503366888, "utility": 6.7135148116388974, "num_areas": 0.0 }, "geometry": { "type": "MultiPolygon", "coordinates": [ [ [ [ 1263749.034566706512123, 5545981.343784033320844 ], [ 1263849.034566706512123, 5545981.343784033320844 ], [ 1263849.034566706512123, 5545881.343784033320844 ], [ 1263749.034566706512123, 5545881.343784033320844 ], [ 1263749.034566706512123, 5545981.343784033320844 ] ] ] ] } },
{ "type": "Feature", "properties": { "id": 16281, "street_cells": 381.49089616537088, "yard_cells": 3301.7746303722229, "utility": 4.4358813253672551, "num_areas": 0.0 }, "geometry": { "type": "MultiPolygon", "coordinates": [ [ [ [ 1263749.034566706512123, 5545281.343784033320844 ], [ 1263849.034566706512123, 5545281.343784033320844 ], [ 1263849.034566706512123, 5545181.343784033320844 ], [ 1263749.034566706512123, 5545181.343784033320844 ], [ 1263749.034566706512123, 5545281.343784033320844 ] ] ] ] } },
{ "type": "Feature", "properties": { "id": 16300, "street_cells": 0.0, "yard_cells": 5292.0143771898001, "utility": 5.5343627526364028, "num_areas": 0.0 }, "geometry": { "type": "MultiPolygon", "coordinates": [ [ [ [ 1263749.034566706512123, 5543381.343784033320844 ], [ 1263849.034566706512123, 5543381.343784033320844 ], [ 1263849.034566706512123, 5543281.343784033320844 ], [ 1263749.034566706512123, 5543281.343784033320844 ], [ 1263749.034566706512123, 5543381.343784033320844 ] ] ] ] } },
{ "type": "Feature", "properties": { "id": 19026, "street_cells": 89.247118216753009, "yard_cells": 4252.6668162099086, "utility": 4.6362546206073274, "num_areas": 1.0 }, "geometry": { "type": "MultiPolygon", "coordinates": [ [ [ [ 1265449.034566706512123, 5541081.343784033320844 ], [ 1265549.034566706512123, 5541081.343784033320844 ], [ 1265549.034566706512123, 5540981.343784033320844 ], [ 1265449.034566706512123, 5540981.343784033320844 ], [ 1265449.034566706512123, 5541081.343784033320844 ] ] ] ] } },
{ "type": "Feature", "properties": { "id": 19237, "street_cells": 263.88205305226148, "yard_cells": 4050.1902507841592, "utility": 5.249588386222702, "num_areas": 0.0 }, "geometry": { "type": "MultiPolygon", "coordinates": [ [ [ [ 1265549.034566706512123, 5535881.343784033320844 ], [ 1265649.034566706512123, 5535881.343784033320844 ], [ 1265649.034566706512123, 5535781.343784033320844 ], [ 1265549.034566706512123, 5535781.343784033320844 ], [ 1265549.034566706512123, 5535881.343784033320844 ] ] ] ] } },
{ "type": "Feature", "properties": { "id": 19345, "street_cells": 83.43431467264891, "yard_cells": 4805.7986906468868, "utility": 7.7400928858292994, "num_areas": 0.0 }, "geometry": { "type": "MultiPolygon", "coordinates": [ [ [ [ 1265649.034566706512123, 5540981.343784033320844 ], [ 1265749.034566706512123, 5540981.343784033320844 ], [ 1265749.034566706512123, 5540881.343784033320844 ], [ 1265649.034566706512123, 5540881.343784033320844 ], [ 1265649.034566706512123, 5540981.343784033320844 ] ] ] ] } },
{ "type": "Feature", "properties": { "id": 19504, "street_cells": 0.0, "yard_cells": 6084.0324303353718, "utility": 4.6700086896101558, "num_areas": 0.0 }, "geometry": { "type": "MultiPolygon", "coordinates": [ [ [ [ 1265749.034566706512123, 5540981.343784033320844 ], [ 1265849.034566706512123, 5540981.343784033320844 ], [ 1265849.034566706512123, 5540881.343784033320844 ], [ 1265749.034566706512123, 5540881.343784033320844 ], [ 1265749.034566706512123, 5540981.343784033320844 ] ] ] ] } },
{ "type": "Feature", "properties": { "id": 19696, "street_cells": 266.12332199811942, "yard_cells": 4760.3937375913374, "utility": 6.1937319945480773, "num_areas": 0.0 }, "geometry": { "type": "MultiPolygon", "coordinates": [ [ [ [ 1265849.034566706512123, 5537681.343784033320844 ], [ 1265949.034566706512123, 5537681.343784033320844 ], [ 1265949.034566706512123, 5537581.343784033320844 ], [ 1265849.034566706512123, 5537581.343784033320844 ], [ 1265849.034566706512123, 5537681.343784033320844 ] ] ] ] } },
{ "type": "Feature", "properties": { "id": 19714, "street_cells": 0.0, "yard_cells": 3097.2877906057979, "utility": 8.5829383133486878, "num_areas": 0.0 }, "geometry": { "type": "MultiPolygon", "coordinates": [ [ [ [ 1265849.034566706512123, 5535881.343784033320844 ], [ 1265949.034566706512123, 5535881.343784033320844 ], [ 1265949.034566706512123, 5535781.343784033320844 ], [ 1265849.034566706512123, 5535781.343784033320844 ], [ 1265849.034566706512123, 5535881.343784033320844 ] ] ] ] } },
{ "type": "Feature", "properties": { "id": 19790, "street_cells": 538.29415539614854, "yard_cells": 3997.9630690040071, "utility": 6.8669753493628392, "num_areas": 0.0 }, "geometry": { "type": "MultiPolygon", "coordinates": [ [ [ [ 1265949.034566706512123, 5544181.343784033320844 ], [ 1266049.034566706512123, 5544181.343784033320844 ], [ 1266049.034566706512123, 5544081.343784033320844 ], [ 1265949.034566706512123, 5544081.343784033320844 ], [ 1265949.034566706512123, 5544181.343784033320844 ] ] ] ] } },
{ "type": "Feature", "properties": { "id": 19846, "street_cells": 353.34486205093572, "yard_cells": 5548.9911384615116, "utility": 6.9878255832114222, "num_areas": 0.0 }, "geometry": { "type": "MultiPolygon", "coordinates": [ [ [ [ 1265949.034566706512123, 5538581.343784033320844 ], [ 1266049.034566706512123, 5538581.343784033320844 ], [ 1266049.034566706512123, 5538481.343784033320844 ], [ 1265949.034566706512123, 5538481.343784033320844 ], [ 1265949.034566706512123, 5538581.343784033320844 ] ] ] ] } },
{ "type": "Feature", "properties": { "id": 20007, "street_cells": 402.30077166110277, "yard_cells": 4788.8549289484508, "utility": 7.7728026484928581, "num_areas": 0.0 }, "geometry": { "type": "MultiPolygon", "coordinates": [ [ [ [ 1266049.034566706512123, 5538381.343784033320844 ], [ 1266149.034566706512123, 5538381.343784033320844 ], [ 1266149.034566706512123, 5538281.343784033320844 ], [ 1266049.034566706512123, 5538281.343784033320844 ], [ 1266049.034566706512123, 5538381.343784033320844 ] ] ] ] } },
{ "type": "Feature", "properties": { "id": 20011, "street_cells": 186.73449331186711, "yard_cells": 5469.198301845463, "utility": 4.8130885903691158, "num_areas": 0.0 }, "geometry": { "type": "MultiPolygon", "coordinates": [ [ [ [ 1266049.034566706512123, 5537981.343784033320844 ], [ 1266149.034566706512123, 5537981.343784033320844 ], [ 1266149.034566706512123, 5537881.343784033320844 ], [ 1266049.034566706512123, 5537881.343784033320844 ], [ 1266049.034566706512123, 5537981.343784033320844 ] ] ] ] } },
{ "type": "Feature", "properties": { "id": 20307, "street_cells": 537.18822092115886, "yard_cells": 4275.1250982494093, "utility": 4.7504421906323078, "num_areas": 0.0 }, "geometry": { "type": "MultiPolygon", "coordinates": [ [ [ [ 1266249.034566706512123, 5540181.343784033320844 ], [ 1266349.034566706512123, 5540181.343784033320844 ], [ 1266349.034566706512123, 5540081.343784033320844 ], [ 1266249.034566706512123, 5540081.343784033320844 ], [ 1266249.034566706512123, 5540181.343784033320844 ] ] ] ] } },
{ "type": "Feature", "properties": { "id": 20896, "street_cells": 0.0, "yard_cells": 4324.5543180014938, "utility": 12.379724557628331, "num_areas": 0.0 }, "geometry": { "type": "MultiPolygon", "coordinates": [ [ [ [ 1266738.724678207887337, 5544790.624836105853319 ], [ 1266735.591890913434327, 5544781.343784033320844 ], [ 1266649.034566706512123, 5544781.343784033320844 ], [ 1266649.034566706512123, 5544881.343784033320844 ], [ 1266749.034566706512123, 5544881.343784033320844 ], [ 1266749.034566706512123, 5544821.109425464645028 ], [ 1266738.724678207887337, 5544790.624836105853319 ] ] ] ] } },
{ "type": "Feature", "properties": { "id": 21105, "street_cells": 410.31305187175752, "yard_cells": 4927.360329084564, "utility": 7.3757808668273519, "num_areas": 0.0 }, "geometry": { "type": "MultiPolygon", "coordinates": [ [ [ [ 1266749.034566706512123, 5539881.343784033320844 ], [ 1266849.034566706512123, 5539881.343784033320844 ], [ 1266849.034566706512123, 5539781.343784033320844 ], [ 1266749.034566706512123, 5539781.343784033320844 ], [ 1266749.034566706512123, 5539881.343784033320844 ] ] ] ] } },
{ "type": "Feature", "properties": { "id": 21236, "street_cells": 166.48388651162389, "yard_cells": 7087.8723481572233, "utility": 4.7815966825413536, "num_areas": 0.0 }, "geometry": { "type": "MultiPolygon", "coordinates": [ [ [ [ 1266849.034566706512123, 5542681.343784033320844 ], [ 1266949.034566706512123, 5542681.343784033320844 ], [ 1266949.034566706512123, 5542581.343784033320844 ], [ 1266849.034566706512123, 5542581.343784033320844 ], [ 1266849.034566706512123, 5542681.343784033320844 ] ] ] ] } },
{ "type": "Feature", "properties": { "id": 21741, "street_cells": 372.95016006529329, "yard_cells": 4514.1450785961933, "utility": 4.5356887384316931, "num_areas": 0.0 }, "geometry": { "type": "MultiPolygon", "coordinates": [ [ [ [ 1267149.034566706512123, 5539881.343784033320844 ], [ 1267249.034566706512123, 5539881.343784033320844 ], [ 1267249.034566706512123, 5539781.343784033320844 ], [ 1267149.034566706512123, 5539781.343784033320844 ], [ 1267149.034566706512123, 5539881.343784033320844 ] ] ] ] } },
{ "type": "Feature", "properties": { "id": 21876, "street_cells": 312.50244267433891, "yard_cells": 3013.6224693525578, "utility": 4.6178570697129704, "num_areas": 0.0 }, "geometry": { "type": "MultiPolygon", "coordinates": [ [ [ [ 1267249.034566706512123, 5542281.343784033320844 ], [ 1267349.034566706512123, 5542281.343784033320844 ], [ 1267349.034566706512123, 5542181.343784033320844 ], [ 1267249.034566706512123, 5542181.343784033320844 ], [ 1267249.034566706512123, 5542281.343784033320844 ] ] ] ] } },
{ "type": "Feature", "properties": { "id": 21877, "street_cells": 758.87616989761591, "yard_cells": 2371.7547569562048, "utility": 5.0029044788595796, "num_areas": 0.0 }, "geometry": { "type": "MultiPolygon", "coordinates": [ [ [ [ 1267249.034566706512123, 5542181.343784033320844 ], [ 1267349.034566706512123, 5542181.343784033320844 ], [ 1267349.034566706512123, 5542081.343784033320844 ], [ 1267249.034566706512123, 5542081.343784033320844 ], [ 1267249.034566706512123, 5542181.343784033320844 ] ] ] ] } },
{ "type": "Feature", "properties": { "id": 21907, "street_cells": 421.37787138968707, "yard_cells": 4340.0818873234093, "utility": 4.7780262054622566, "num_areas": 0.0 }, "geometry": { "type": "MultiPolygon", "coordinates": [ [ [ [ 1267249.034566706512123, 5539181.343784033320844 ], [ 1267349.034566706512123, 5539181.343784033320844 ], [ 1267349.034566706512123, 5539081.343784033320844 ], [ 1267249.034566706512123, 5539081.343784033320844 ], [ 1267249.034566706512123, 5539181.343784033320844 ] ] ] ] } },
{ "type": "Feature", "properties": { "id": 22033, "street_cells": 126.0680740647018, "yard_cells": 4893.7524954681276, "utility": 4.5933918227721184, "num_areas": 0.0 }, "geometry": { "type": "MultiPolygon", "coordinates": [ [ [ [ 1267349.034566706512123, 5542481.343784033320844 ], [ 1267449.034566706512123, 5542481.343784033320844 ], [ 1267449.034566706512123, 5542381.343784033320844 ], [ 1267349.034566706512123, 5542381.343784033320844 ], [ 1267349.034566706512123, 5542481.343784033320844 ] ] ] ] } },
{ "type": "Feature", "properties": { "id": 22226, "street_cells": 278.40787494089449, "yard_cells": 4820.1514186765999, "utility": 4.9599317541382444, "num_areas": 0.0 }, "geometry": { "type": "MultiPolygon", "coordinates": [ [ [ [ 1267449.034566706512123, 5539081.343784033320844 ], [ 1267549.034566706512123, 5539081.343784033320844 ], [ 1267549.034566706512123, 5538981.343784033320844 ], [ 1267449.034566706512123, 5538981.343784033320844 ], [ 1267449.034566706512123, 5539081.343784033320844 ] ] ] ] } },
{ "type": "Feature", "properties": { "id": 24895, "street_cells": 273.32828853502872, "yard_cells": 4638.1912089753896, "utility": 4.4402976306920792, "num_areas": 1.0 }, "geometry": { "type": "MultiPolygon", "coordinates": [ [ [ [ 1269149.034566706512123, 5542481.343784033320844 ], [ 1269249.034566706512123, 5542481.343784033320844 ], [ 1269249.034566706512123, 5542381.343784033320844 ], [ 1269149.034566706512123, 5542381.343784033320844 ], [ 1269149.034566706512123, 5542481.343784033320844 ] ] ] ] } },
{ "type": "Feature", "properties": { "id": 25055, "street_cells": 405.65131325200201, "yard_cells": 5699.9746062643826, "utility": 5.5630249318365381, "num_areas": 0.0 }, "geometry": { "type": "MultiPolygon", "coordinates": [ [ [ [ 1269249.034566706512123, 5542381.343784033320844 ], [ 1269349.034566706512123, 5542381.343784033320844 ], [ 1269349.034566706512123, 5542281.343784033320844 ], [ 1269249.034566706512123, 5542281.343784033320844 ], [ 1269249.034566706512123, 5542381.343784033320844 ] ] ] ] } },
{ "type": "Feature", "properties": { "id": 25703, "street_cells": 135.3512080207467, "yard_cells": 5217.9668658589944, "utility": 6.2372803515352748, "num_areas": 0.0 }, "geometry": { "type": "MultiPolygon", "coordinates": [ [ [ [ 1269722.840282435528934, 5541154.313003056682646 ], [ 1269745.01568117341958, 5541146.159186707809567 ], [ 1269749.034566706512123, 5541144.455984814092517 ], [ 1269749.034566706512123, 5541081.343784033320844 ], [ 1269649.034566706512123, 5541081.343784033320844 ], [ 1269649.034566706512123, 5541181.343784033320844 ], [ 1269657.656470290385187, 5541181.343784033320844 ], [ 1269722.840282435528934, 5541154.313003056682646 ] ] ] ] } },
{ "type": "Feature", "properties": { "id": 26659, "street_cells": 194.83976573720579, "yard_cells": 5121.5098157626053, "utility": 5.5743998295944994, "num_areas": 0.0 }, "geometry": { "type": "MultiPolygon", "coordinates": [ [ [ [ 1270302.317869324004278, 5540892.808076760731637 ], [ 1270308.040328935720026, 5540890.271688754670322 ], [ 1270328.023470380343497, 5540881.343784033320844 ], [ 1270249.034566706512123, 5540881.343784033320844 ], [ 1270249.034566706512123, 5540981.343784033320844 ], [ 1270346.481167370453477, 5540981.343784033320844 ], [ 1270302.317869324004278, 5540892.808076760731637 ] ] ] ] } },
{ "type": "Feature", "properties": { "id": 26660, "street_cells": 37.529903423693042, "yard_cells": 3462.7183418422942, "utility": 4.8536463134127237, "num_areas": 0.0 }, "geometry": { "type": "MultiPolygon", "coordinates": [ [ [ [ 1270349.034566706512123, 5540871.956618025898933 ], [ 1270349.034566706512123, 5540781.343784033320844 ], [ 1270249.034566706512123, 5540781.343784033320844 ], [ 1270249.034566706512123, 5540881.343784033320844 ], [ 1270328.023470380343497, 5540881.343784033320844 ], [ 1270349.034566706512123, 5540871.956618025898933 ] ] ] ] } },
{ "type": "Feature", "properties": { "id": 26661, "street_cells": 0.0, "yard_cells": 2955.0510063618422, "utility": 8.6140669553352769, "num_areas": 0.0 }, "geometry": { "type": "MultiPolygon", "coordinates": [ [ [ [ 1270249.034566706512123, 5540711.852784902788699 ], [ 1270249.034566706512123, 5540781.343784033320844 ], [ 1270349.034566706512123, 5540781.343784033320844 ], [ 1270349.034566706512123, 5540681.343784033320844 ], [ 1270314.085003803484142, 5540681.343784033320844 ], [ 1270249.034566706512123, 5540711.852784902788699 ] ] ] ] } },
{ "type": "Feature", "properties": { "id": 26819, "street_cells": 119.9642244094284, "yard_cells": 5315.4781482988037, "utility": 5.2151479223290593, "num_areas": 0.0 }, "geometry": { "type": "MultiPolygon", "coordinates": [ [ [ [ 1270436.532205266179517, 5540832.865137711167336 ], [ 1270436.580200990429148, 5540832.844700532965362 ], [ 1270438.931611831532791, 5540831.793484089896083 ], [ 1270449.034566706512123, 5540827.487463670782745 ], [ 1270449.034566706512123, 5540781.343784033320844 ], [ 1270349.034566706512123, 5540781.343784033320844 ], [ 1270349.034566706512123, 5540871.956618025898933 ], [ 1270436.532205266179517, 5540832.865137711167336 ] ] ] ] } },
{ "type": "Feature", "properties": { "id": 26820, "street_cells": 0.0, "yard_cells": 6424.2059857100248, "utility": 20.78975543411029, "num_areas": 0.0 }, "geometry": { "type": "MultiPolygon", "coordinates": [ [ [ [ 1270349.034566706512123, 5540781.343784033320844 ], [ 1270449.034566706512123, 5540781.343784033320844 ], [ 1270449.034566706512123, 5540681.343784033320844 ], [ 1270349.034566706512123, 5540681.343784033320844 ], [ 1270349.034566706512123, 5540781.343784033320844 ] ] ] ] } }
]
}
