{
"type": "FeatureCollection",
"name": "no_yard_full",
"crs": { "type": "name", "properties": { "name": "urn:ogc:def:crs:EPSG::3857" } },
"features": [
{ "type": "Feature", "properties": { "id": 9302, "street_cells": 515.48839174062016, "yard_cells": 0.0, "utility": 1.0860161566914699, "num_areas": 0.0 }, "geometry": { "type": "MultiPolygon", "coordinates": [ [ [ [ 1259349.034566706512123, 5543581.343784033320844 ], [ 1259449.034566706512123, 5543581.343784033320844 ], [ 1259449.034566706512123, 5543481.343784033320844 ], [ 1259349.034566706512123, 5543481.343784033320844 ], [ 1259349.034566706512123, 5543581.343784033320844 ] ] ] ] } },
{ "type": "Feature", "properties": { "id": 10419, "street_cells": 968.8933787859977, "yard_cells": 0.0, "utility": 1.036519870246787, "num_areas": 0.0 }, "geometry": { "type": "MultiPolygon", "coordinates": [ [ [ [ 1260049.034566706512123, 5543181.343784033320844 ], [ 1260149.034566706512123, 5543181.343784033320844 ], [ 1260149.034566706512123, 5543081.343784033320844 ], [ 1260049.034566706512123, 5543081.343784033320844 ], [ 1260049.034566706512123, 5543181.343784033320844 ] ] ] ] } },
{ "type": "Feature", "properties": { "id": 11692, "street_cells": 1350.876745853946, "yard_cells": 0.0, "utility": 0.92780530663564398, "num_areas": 0.0 }, "geometry": { "type": "MultiPolygon", "coordinates": [ [ [ [ 1260849.034566706512123, 5543081.343784033320844 ], [ 1260949.034566706512123, 5543081.343784033320844 ], [ 1260949.034566706512123, 5542981.343784033320844 ], [ 1260849.034566706512123, 5542981.343784033320844 ], [ 1260849.034566706512123, 5543081.343784033320844 ] ] ] ] } },
{ "type": "Feature", "properties": { "id": 12647, "street_cells": 1324.149462202937, "yard_cells": 0.0, "utility": 3.0244327235537001, "num_areas": 0.0 }, "geometry": { "type": "MultiPolygon", "coordinates": [ [ [ [ 1261449.034566706512123, 5542981.343784033320844 ], [ 1261549.034566706512123, 5542981.343784033320844 ], [ 1261549.034566706512123, 5542881.343784033320844 ], [ 1261449.034566706512123, 5542881.343784033320844 ], [ 1261449.034566706512123, 5542981.343784033320844 ] ] ] ] } },
{ "type": "Feature", "properties": { "id": 12803, "street_cells": 1137.637199741602, "yard_cells": 0.0, "utility": 1.1359806731766391, "num_areas": 0.0 }, "geometry": { "type": "MultiPolygon", "coordinates": [ [ [ [ 1261549.034566706512123, 5543281.343784033320844 ], [ 1261649.034566706512123, 5543281.343784033320844 ], [ 1261649.034566706512123, 5543181.343784033320844 ], [ 1261549.034566706512123, 5543181.343784033320844 ], [ 1261549.034566706512123, 5543281.343784033320844 ] ] ] ] } },
{ "type": "Feature", "properties": { "id": 12954, "street_cells": 784.80541429445157, "yard_cells": 0.0, "utility": 1.651741836969054, "num_areas": 0.0 }, "geometry": { "type": "MultiPolygon", "coordinates": [ [ [ [ 1261649.034566706512123, 5544081.343784033320844 ], [ 1261749.034566706512123, 5544081.343784033320844 ], [ 1261749.034566706512123, 5543981.343784033320844 ], [ 1261649.034566706512123, 5543981.343784033320844 ], [ 1261649.034566706512123, 5544081.343784033320844 ] ] ] ] } },
{ "type": "Feature", "properties": { "id": 12963, "street_cells": 649.3830659359694, "yard_cells": 0.0, "utility": 0.87149778259420252, "num_areas": 0.0 }, "geometry": { "type": "MultiPolygon", "coordinates": [ [ [ [ 1261649.034566706512123, 5543181.343784033320844 ], [ 1261749.034566706512123, 5543181.343784033320844 ], [ 1261749.034566706512123, 5543081.343784033320844 ], [ 1261649.034566706512123, 5543081.343784033320844 ], [ 1261649.034566706512123, 5543181.343784033320844 ] ] ] ] } },
{ "type": "Feature", "properties": { "id": 12965, "street_cells": 753.99866456910979, "yard_cells": 0.0, "utility": 1.0818429920904571, "num_areas": 1.0 }, "geometry": { "type": "MultiPolygon", "coordinates": [ [ [ [ 1261649.034566706512123, 5542981.343784033320844 ], [ 1261749.034566706512123, 5542981.343784033320844 ], [ 1261749.034566706512123, 5542881.343784033320844 ], [ 1261649.034566706512123, 5542881.343784033320844 ], [ 1261649.034566706512123, 5542981.343784033320844 ] ] ] ] } },
{ "type": "Feature", "properties": { "id": 13113, "street_cells": 656.01153040751819, "yard_cells": 0.0, "utility": 1.3806756051528111, "num_areas": 0.0 }, "geometry": { "type": "MultiPolygon", "coordinates": [ [ [ [ 1261749.034566706512123, 5544081.343784033320844 ], [ 1261849.034566706512123, 5544081.343784033320844 ], [ 1261849.034566706512123, 5543981.343784033320844 ], [ 1261749.034566706512123, 5543981.343784033320844 ], [ 1261749.034566706512123, 5544081.343784033320844 ] ] ] ] } },
{ "type": "Feature", "properties": { "id": 13124, "street_cells": 1072.8670947082339, "yard_cells": 0.0, "utility": 1.562218188676048, "num_areas": 1.0 }, "geometry": { "type": "MultiPolygon", "coordinates": [ [ [ [ 1261749.034566706512123, 5542981.343784033320844 ], [ 1261849.034566706512123, 5542981.343784033320844 ], [ 1261849.034566706512123, 5542881.343784033320844 ], [ 1261749.034566706512123, 5542881.343784033320844 ], [ 1261749.034566706512123, 5542981.343784033320844 ] ] ] ] } },
{ "type": "Feature", "properties": { "id": 13272, "street_cells": 467.3514497421682, "yard_cells": 0.0, "utility": 0.98361189671616278, "num_areas": 0.0 }, "geometry": { "type": "MultiPolygon", "coordinates": [ [ [ [ 1261849.034566706512123, 5544081.343784033320844 ], [ 1261949.034566706512123, 5544081.343784033320844 ], [ 1261949.034566706512123, 5543981.343784033320844 ], [ 1261849.034566706512123, 5543981.343784033320844 ], [ 1261849.034566706512123, 5544081.343784033320844 ] ] ] ] } },
{ "type": "Feature", "properties": { "id": 13274, "street_cells": 534.28995807692411, "yard_cells": 0.0, "utility": 1.021363089643285, "num_areas": 0.0 }, "geometry": { "type": "MultiPolygon", "coordinates": [ [ [ [ 1261849.034566706512123, 5543881.343784033320844 ], [ 1261949.034566706512123, 5543881.343784033320844 ], [ 1261949.034566706512123, 5543781.343784033320844 ], [ 1261849.034566706512123, 5543781.343784033320844 ], [ 1261849.034566706512123, 5543881.343784033320844 ] ] ] ] } },
{ "type": "Feature", "properties": { "id": 13283, "street_cells": 1080.806995748728, "yard_cells": 0.0, "utility": 1.0972617502817079, "num_areas": 1.0 }, "geometry": { "type": "MultiPolygon", "coordinates": [ [ [ [ 1261849.034566706512123, 5542981.343784033320844 ], [ 1261949.034566706512123, 5542981.343784033320844 ], [ 1261949.034566706512123, 5542881.343784033320844 ], [ 1261849.034566706512123, 5542881.343784033320844 ], [ 1261849.034566706512123, 5542981.343784033320844 ] ] ] ] } },
{ "type": "Feature", "properties": { "id": 13442, "street_cells": 802.36370866950608, "yard_cells": 0.0, "utility": 1.3109059958546061, "num_areas": 0.0 }, "geometry": { "type": "MultiPolygon", "coordinates": [ [ [ [ 1261949.034566706512123, 5542981.343784033320844 ], [ 1262049.034566706512123, 5542981.343784033320844 ], [ 1262049.034566706512123, 5542881.343784033320844 ], [ 1261949.034566706512123, 5542881.343784033320844 ], [ 1261949.034566706512123, 5542981.343784033320844 ] ] ] ] } },
{ "type": "Feature", "properties": { "id": 13575, "street_cells": 802.9284239562229, "yard_cells": 0.0, "utility": 1.1656123201928661, "num_areas": 0.0 }, "geometry": { "type": "MultiPolygon", "coordinates": [ [ [ [ 1262049.034566706512123, 5545581.343784033320844 ], [ 1262149.034566706512123, 5545581.343784033320844 ], [ 1262149.034566706512123, 5545481.343784033320844 ], [ 1262049.034566706512123, 5545481.343784033320844 ], [ 1262049.034566706512123, 5545581.343784033320844 ] ] ] ] } },
{ "type": "Feature", "properties": { "id": 13596, "street_cells": 610.08476539552214, "yard_cells": 0.0, "utility": 1.1016779662985501, "num_areas": 0.0 }, "geometry": { "type": "MultiPolygon", "coordinates": [ [ [ [ 1262049.034566706512123, 5543481.343784033320844 ], [ 1262149.034566706512123, 5543481.343784033320844 ], [ 1262149.034566706512123, 5543381.343784033320844 ], [ 1262049.034566706512123, 5543381.343784033320844 ], [ 1262049.034566706512123, 5543481.343784033320844 ] ] ] ] } },
{ "type": "Feature", "properties": { "id": 13604, "street_cells": 917.50868050158022, "yard_cells": 0.0, "utility": 1.377173173536026, "num_areas": 1.0 }, "geometry": { "type": "MultiPolygon", "coordinates": [ [ [ [ 1262049.034566706512123, 5542681.343784033320844 ], [ 1262149.034566706512123, 5542681.343784033320844 ], [ 1262149.034566706512123, 5542581.343784033320844 ], [ 1262049.034566706512123, 5542581.343784033320844 ], [ 1262049.034566706512123, 5542681.343784033320844 ] ] ] ] } },
{ "type": "Feature", "properties": { "id": 13605, "street_cells": 702.67788258790983, "yard_cells": 0.0, "utility": 1.064831165744166, "num_areas": 1.0 }, "geometry": { "type": "MultiPolygon", "coordinates": [ [ [ [ 1262049.034566706512123, 5542581.343784033320844 ], [ 1262149.034566706512123, 5542581.343784033320844 ], [ 1262149.034566706512123, 5542481.343784033320844 ], [ 1262049.034566706512123, 5542481.343784033320844 ], [ 1262049.034566706512123, 5542581.343784033320844 ] ] ] ] } },
{ "type": "Feature", "properties": { "id": 13760, "street_cells": 722.70164932012551, "yard_cells": 0.0, "utility": 1.0846735790815221, "num_areas": 1.0 }, "geometry": { "type": "MultiPolygon", "coordinates": [ [ [ [ 1262149.034566706512123, 5542981.343784033320844 ], [ 1262249.034566706512123, 5542981.343784033320844 ], [ 1262249.034566706512123, 5542881.343784033320844 ], [ 1262149.034566706512123, 5542881.343784033320844 ], [ 1262149.034566706512123, 5542981.343784033320844 ] ] ] ] } },
{ "type": "Feature", "properties": { "id": 13761, "street_cells": 618.36091450750837, "yard_cells": 0.0, "utility": 0.93786329573206906, "num_areas": 1.0 }, "geometry": { "type": "MultiPolygon", "coordinates": [ [ [ [ 1262149.034566706512123, 5542881.343784033320844 ], [ 1262249.034566706512123, 5542881.343784033320844 ], [ 1262249.034566706512123, 5542781.343784033320844 ], [ 1262149.034566706512123, 5542781.343784033320844 ], [ 1262149.034566706512123, 5542881.343784033320844 ] ] ] ] } },
{ "type": "Feature", "properties": { "id": 13908, "street_cells": 948.67290828898558, "yard_cells": 0.0, "utility": 1.0505684257104511, "num_areas": 0.0 }, "geometry": { "type": "MultiPolygon", "coordinates": [ [ [ [ 1262249.034566706512123, 5544081.343784033320844 ], [ 1262349.034566706512123, 5544081.343784033320844 ], [ 1262349.034566706512123, 5543981.343784033320844 ], [ 1262249.034566706512123, 5543981.343784033320844 ], [ 1262249.034566706512123, 5544081.343784033320844 ] ] ] ] } },
{ "type": "Feature", "properties": { "id": 13912, "street_cells": 861.15387278497224, "yard_cells": 0.0, "utility": 1.966924450154486, "num_areas": 0.0 }, "geometry": { "type": "MultiPolygon", "coordinates": [ [ [ [ 1262249.034566706512123, 5543681.343784033320844 ], [ 1262349.034566706512123, 5543681.343784033320844 ], [ 1262349.034566706512123, 5543581.343784033320844 ], [ 1262249.034566706512123, 5543581.343784033320844 ], [ 1262249.034566706512123, 5543681.343784033320844 ] ] ] ] } },
{ "type": "Feature", "properties": { "id": 14067, "street_cells": 711.53883168175821, "yard_cells": 0.0, "utility": 1.132876883091126, "num_areas": 0.0 }, "geometry": { "type": "MultiPolygon", "coordinates": [ [ [ [ 1262349.034566706512123, 5544081.343784033320844 ], [ 1262449.034566706512123, 5544081.343784033320844 ], [ 1262449.034566706512123, 5543981.343784033320844 ], [ 1262349.034566706512123, 5543981.343784033320844 ], [ 1262349.034566706512123, 5544081.343784033320844 ] ] ] ] } },
{ "type": "Feature", "properties": { "id": 14070, "street_cells": 834.48331750333318, "yard_cells": 0.0, "utility": 1.2151039240372661, "num_areas": 1.0 }, "geometry": { "type": "MultiPolygon", "coordinates": [ [ [ [ 1262349.034566706512123, 5543781.343784033320844 ], [ 1262449.034566706512123, 5543781.343784033320844 ], [ 1262449.034566706512123, 5543681.343784033320844 ], [ 1262349.034566706512123, 5543681.343784033320844 ], [ 1262349.034566706512123, 5543781.343784033320844 ] ] ] ] } },
{ "type": "Feature", "properties": { "id": 14071, "street_cells": 632.14525218009953, "yard_cells": 0.0, "utility": 1.4438557287572931, "num_areas": 0.0 }, "geometry": { "type": "MultiPolygon", "coordinates": [ [ [ [ 1262349.034566706512123, 5543681.343784033320844 ], [ 1262449.034566706512123, 5543681.343784033320844 ], [ 1262449.034566706512123, 5543581.343784033320844 ], [ 1262349.034566706512123, 5543581.343784033320844 ], [ 1262349.034566706512123, 5543681.343784033320844 ] ] ] ] } },
{ "type": "Feature", "properties": { "id": 14085, "street_cells": 1440.7010955790061, "yard_cells": 0.0, "utility": 3.008480995730638, "num_areas": 0.0 }, "geometry": { "type": "MultiPolygon", "coordinates": [ [ [ [ 1262349.034566706512123, 5542281.343784033320844 ], [ 1262449.034566706512123, 5542281.343784033320844 ], [ 1262449.034566706512123, 5542181.343784033320844 ], [ 1262349.034566706512123, 5542181.343784033320844 ], [ 1262349.034566706512123, 5542281.343784033320844 ] ] ] ] } },
{ "type": "Feature", "properties": { "id": 14226, "street_cells": 658.4204769928009, "yard_cells": 0.0, "utility": 1.5038698374441299, "num_areas": 0.0 }, "geometry": { "type": "MultiPolygon", "coordinates": [ [ [ [ 1262449.034566706512123, 5544081.343784033320844 ], [ 1262549.034566706512123, 5544081.343784033320844 ], [ 1262549.034566706512123, 5543981.343784033320844 ], [ 1262449.034566706512123, 5543981.343784033320844 ], [ 1262449.034566706512123, 5544081.343784033320844 ] ] ] ] } },
{ "type": "Feature", "properties": { "id": 14228, "street_cells": 970.43989588916304, "yard_cells": 0.0, "utility": 1.4130723776063121, "num_areas": 1.0 }, "geometry": { "type": "MultiPolygon", "coordinates": [ [ [ [ 1262449.034566706512123, 5543881.343784033320844 ], [ 1262549.034566706512123, 5543881.343784033320844 ], [ 1262549.034566706512123, 5543781.343784033320844 ], [ 1262449.034566706512123, 5543781.343784033320844 ], [ 1262449.034566706512123, 5543881.343784033320844 ] ] ] ] } },
{ "type": "Feature", "properties": { "id": 14243, "street_cells": 583.62404911518104, "yard_cells": 0.0, "utility": 1.219839940139628, "num_areas": 0.0 }, "geometry": { "type": "MultiPolygon", "coordinates": [ [ [ [ 1262449.034566706512123, 5542381.343784033320844 ], [ 1262549.034566706512123, 5542381.343784033320844 ], [ 1262549.034566706512123, 5542281.343784033320844 ], [ 1262449.034566706512123, 5542281.343784033320844 ], [ 1262449.034566706512123, 5542381.343784033320844 ] ] ] ] } },
{ "type": "Feature", "properties": { "id": 14402, "street_cells": 444.19891137741507, "yard_cells": 0.0, "utility": 0.94949355006175673, "num_areas": 0.0 }, "geometry": { "type": "MultiPolygon", "coordinates": [ [ [ [ 1262549.034566706512123, 5542381.343784033320844 ], [ 1262649.034566706512123, 5542381.343784033320844 ], [ 1262649.034566706512123, 5542281.343784033320844 ], [ 1262549.034566706512123, 5542281.343784033320844 ], [ 1262549.034566706512123, 5542381.343784033320844 ] ] ] ] } },
{ "type": "Feature", "properties": { "id": 14544, "street_cells": 1104.620080801845, "yard_cells": 0.0, "utility": 1.2816768979907589, "num_areas": 0.0 }, "geometry": { "type": "MultiPolygon", "coordinates": [ [ [ [ 1262649.034566706512123, 5544081.343784033320844 ], [ 1262749.034566706512123, 5544081.343784033320844 ], [ 1262749.034566706512123, 5543981.343784033320844 ], [ 1262649.034566706512123, 5543981.343784033320844 ], [ 1262649.034566706512123, 5544081.343784033320844 ] ] ] ] } },
{ "type": "Feature", "properties": { "id": 14559, "street_cells": 476.64066179692747, "yard_cells": 0.0, "utility": 1.0969211758964701, "num_areas": 0.0 }, "geometry": { "type": "MultiPolygon", "coordinates": [ [ [ [ 1262649.034566706512123, 5542581.343784033320844 ], [ 1262749.034566706512123, 5542581.343784033320844 ], [ 1262749.034566706512123, 5542481.343784033320844 ], [ 1262649.034566706512123, 5542481.343784033320844 ], [ 1262649.034566706512123, 5542581.343784033320844 ] ] ] ] } },
{ "type": "Feature", "properties": { "id": 14703, "street_cells": 616.92597522437575, "yard_cells": 0.0, "utility": 1.4016890871688941, "num_areas": 0.0 }, "geometry": { "type": "MultiPolygon", "coordinates": [ [ [ [ 1262749.034566706512123, 5544081.343784033320844 ], [ 1262849.034566706512123, 5544081.343784033320844 ], [ 1262849.034566706512123, 5543981.343784033320844 ], [ 1262749.034566706512123, 5543981.343784033320844 ], [ 1262749.034566706512123, 5544081.343784033320844 ] ] ] ] } },
{ "type": "Feature", "properties": { "id": 14704, "street_cells": 1091.255850312114, "yard_cells": 0.0, "utility": 2.492490460980572, "num_areas": 0.0 }, "geometry": { "type": "MultiPolygon", "coordinates": [ [ [ [ 1262749.034566706512123, 5543981.343784033320844 ], [ 1262849.034566706512123, 5543981.343784033320844 ], [ 1262849.034566706512123, 5543881.343784033320844 ], [ 1262749.034566706512123, 5543881.343784033320844 ], [ 1262749.034566706512123, 5543981.343784033320844 ] ] ] ] } },
{ "type": "Feature", "properties": { "id": 14705, "street_cells": 780.86261853659528, "yard_cells": 0.0, "utility": 1.3626009401372321, "num_areas": 0.0 }, "geometry": { "type": "MultiPolygon", "coordinates": [ [ [ [ 1262749.034566706512123, 5543881.343784033320844 ], [ 1262849.034566706512123, 5543881.343784033320844 ], [ 1262849.034566706512123, 5543781.343784033320844 ], [ 1262749.034566706512123, 5543781.343784033320844 ], [ 1262749.034566706512123, 5543881.343784033320844 ] ] ] ] } },
{ "type": "Feature", "properties": { "id": 14863, "street_cells": 1020.109005304426, "yard_cells": 0.0, "utility": 2.2698615419067618, "num_areas": 0.0 }, "geometry": { "type": "MultiPolygon", "coordinates": [ [ [ [ 1262849.034566706512123, 5543981.343784033320844 ], [ 1262949.034566706512123, 5543981.343784033320844 ], [ 1262949.034566706512123, 5543881.343784033320844 ], [ 1262849.034566706512123, 5543881.343784033320844 ], [ 1262849.034566706512123, 5543981.343784033320844 ] ] ] ] } },
{ "type": "Feature", "properties": { "id": 15039, "street_cells": 814.27308114767084, "yard_cells": 0.0, "utility": 1.638008694887326, "num_areas": 0.0 }, "geometry": { "type": "MultiPolygon", "coordinates": [ [ [ [ 1262949.034566706512123, 5542281.343784033320844 ], [ 1263049.034566706512123, 5542281.343784033320844 ], [ 1263049.034566706512123, 5542181.343784033320844 ], [ 1262949.034566706512123, 5542181.343784033320844 ], [ 1262949.034566706512123, 5542281.343784033320844 ] ] ] ] } },
{ "type": "Feature", "properties": { "id": 15042, "street_cells": 789.64038996081808, "yard_cells": 0.0, "utility": 1.070478140227995, "num_areas": 0.0 }, "geometry": { "type": "MultiPolygon", "coordinates": [ [ [ [ 1262949.034566706512123, 5541981.343784033320844 ], [ 1263049.034566706512123, 5541981.343784033320844 ], [ 1263049.034566706512123, 5541881.343784033320844 ], [ 1262949.034566706512123, 5541881.343784033320844 ], [ 1262949.034566706512123, 5541981.343784033320844 ] ] ] ] } },
{ "type": "Feature", "properties": { "id": 15176, "street_cells": 921.21590757220986, "yard_cells": 0.0, "utility": 1.3306675034459621, "num_areas": 1.0 }, "geometry": { "type": "MultiPolygon", "coordinates": [ [ [ [ 1263049.034566706512123, 5544481.343784033320844 ], [ 1263149.034566706512123, 5544481.343784033320844 ], [ 1263149.034566706512123, 5544381.343784033320844 ], [ 1263049.034566706512123, 5544381.343784033320844 ], [ 1263049.034566706512123, 5544481.343784033320844 ] ] ] ] } },
{ "type": "Feature", "properties": { "id": 15335, "street_cells": 468.3446250002832, "yard_cells": 0.0, "utility": 1.0611696442115091, "num_areas": 0.0 }, "geometry": { "type": "MultiPolygon", "coordinates": [ [ [ [ 1263149.034566706512123, 5544481.343784033320844 ], [ 1263249.034566706512123, 5544481.343784033320844 ], [ 1263249.034566706512123, 5544381.343784033320844 ], [ 1263149.034566706512123, 5544381.343784033320844 ], [ 1263149.034566706512123, 5544481.343784033320844 ] ] ] ] } },
{ "type": "Feature", "properties": { "id": 15660, "street_cells": 1204.5575535714629, "yard_cells": 0.0, "utility": 1.2519892114552129, "num_areas": 0.0 }, "geometry": { "type": "MultiPolygon", "coordinates": [ [ [ [ 1263349.034566706512123, 5543781.343784033320844 ], [ 1263449.034566706512123, 5543781.343784033320844 ], [ 1263449.034566706512123, 5543681.343784033320844 ], [ 1263349.034566706512123, 5543681.343784033320844 ], [ 1263349.034566706512123, 5543781.343784033320844 ] ] ] ] } },
{ "type": "Feature", "properties": { "id": 16125, "street_cells": 451.30827510803942, "yard_cells": 0.0, "utility": 0.91147679957368022, "num_areas": 0.0 }, "geometry": { "type": "MultiPolygon", "coordinates": [ [ [ [ 1263649.034566706512123, 5544981.343784033320844 ], [ 1263749.034566706512123, 5544981.343784033320844 ], [ 1263749.034566706512123, 5544881.343784033320844 ], [ 1263649.034566706512123, 5544881.343784033320844 ], [ 1263649.034566706512123, 5544981.343784033320844 ] ] ] ] } },
{ "type": "Feature", "properties": { "id": 16782, "street_cells": 722.95592203736305, "yard_cells": 0.0, "utility": 1.3337876658188501, "num_areas": 0.0 }, "geometry": { "type": "MultiPolygon", "coordinates": [ [ [ [ 1264049.034566706512123, 5542881.343784033320844 ], [ 1264149.034566706512123, 5542881.343784033320844 ], [ 1264149.034566706512123, 5542781.343784033320844 ], [ 1264049.034566706512123, 5542781.343784033320844 ], [ 1264049.034566706512123, 5542881.343784033320844 ] ] ] ] } },
{ "type": "Feature", "properties": { "id": 16936, "street_cells": 813.26931619644154, "yard_cells": 0.0, "utility": 1.2965214065040001, "num_areas": 0.0 }, "geometry": { "type": "MultiPolygon", "coordinates": [ [ [ [ 1264149.034566706512123, 5543381.343784033320844 ], [ 1264249.034566706512123, 5543381.343784033320844 ], [ 1264249.034566706512123, 5543281.343784033320844 ], [ 1264149.034566706512123, 5543281.343784033320844 ], [ 1264149.034566706512123, 5543381.343784033320844 ] ] ] ] } },
{ "type": "Feature", "properties": { "id": 18204, "street_cells": 1162.1102952271699, "yard_cells": 0.0, "utility": 1.692063515856157, "num_areas": 0.0 }, "geometry": { "type": "MultiPolygon", "coordinates": [ [ [ [ 1264949.034566706512123, 5543781.343784033320844 ], [ 1265049.034566706512123, 5543781.343784033320844 ], [ 1265049.034566706512123, 5543681.343784033320844 ], [ 1264949.034566706512123, 5543681.343784033320844 ], [ 1264949.034566706512123, 5543781.343784033320844 ] ] ] ] } },
{ "type": "Feature", "properties": { "id": 19790, "street_cells": 538.29415539614854, "yard_cells": 0.0, "utility": 0.9080096135175143, "num_areas": 0.0 }, "geometry": { "type": "MultiPolygon", "coordinates": [ [ [ [ 1265949.034566706512123, 5544181.343784033320844 ], [ 1266049.034566706512123, 5544181.343784033320844 ], [ 1266049.034566706512123, 5544081.343784033320844 ], [ 1265949.034566706512123, 5544081.343784033320844 ], [ 1265949.034566706512123, 5544181.343784033320844 ] ] ] ] } },
{ "type": "Feature", "properties": { "id": 20627, "street_cells": 544.90428968667982, "yard_cells": 0.0, "utility": 1.126385002626517, "num_areas": 0.0 }, "geometry": { "type": "MultiPolygon", "coordinates": [ [ [ [ 1266449.034566706512123, 5539981.343784033320844 ], [ 1266549.034566706512123, 5539981.343784033320844 ], [ 1266549.034566706512123, 5539881.343784033320844 ], [ 1266449.034566706512123, 5539881.343784033320844 ], [ 1266449.034566706512123, 5539981.343784033320844 ] ] ] ] } },
{ "type": "Feature", "properties": { "id": 21268, "street_cells": 1142.0414690822361, "yard_cells": 0.0, "utility": 1.107936731448554, "num_areas": 1.0 }, "geometry": { "type": "MultiPolygon", "coordinates": [ [ [ [ 1266849.034566706512123, 5539481.343784033320844 ], [ 1266949.034566706512123, 5539481.343784033320844 ], [ 1266949.034566706512123, 5539381.343784033320844 ], [ 1266849.034566706512123, 5539381.343784033320844 ], [ 1266849.034566706512123, 5539481.343784033320844 ] ] ] ] } },
{ "type": "Feature", "properties": { "id": 21718, "street_cells": 620.32630744725475, "yard_cells": 0.0, "utility": 0.90010221611828511, "num_areas": 0.0 }, "geometry": { "type": "MultiPolygon", "coordinates": [ [ [ [ 1267149.034566706512123, 5542181.343784033320844 ], [ 1267249.034566706512123, 5542181.343784033320844 ], [ 1267249.034566706512123, 5542081.343784033320844 ], [ 1267149.034566706512123, 5542081.343784033320844 ], [ 1267149.034566706512123, 5542181.343784033320844 ] ] ] ] } },
{ "type": "Feature", "properties": { "id": 21877, "street_cells": 758.87616989761591, "yard_cells": 0.0, "utility": 1.3137597491819251, "num_areas": 0.0 }, "geometry": { "type": "MultiPolygon", "coordinates": [ [ [ [ 1267249.034566706512123, 5542181.343784033320844 ], [ 1267349.034566706512123, 5542181.343784033320844 ], [ 1267349.034566706512123, 5542081.343784033320844 ], [ 1267249.034566706512123, 5542081.343784033320844 ], [ 1267249.034566706512123, 5542181.343784033320844 ] ] ] ] } }
]
}
