{
"type": "FeatureCollection",
"name": "result_density_enhanced_full",
"crs": { "type": "name", "properties": { "name": "urn:ogc:def:crs:EPSG::3857" } },
"features": [
{ "type": "Feature", "properties": { "id": 1011, "street_cells": 0.0, "yard_cells": 3544.647637635469, "num_areas": 1.0 }, "geometry": { "type": "MultiPolygon", "coordinates": [ [ [ [ 1254149.034566706512123, 5545881.343784033320844 ], [ 1254249.034566706512123, 5545881.343784033320844 ], [ 1254249.034566706512123, 5545781.343784033320844 ], [ 1254149.034566706512123, 5545781.343784033320844 ], [ 1254149.034566706512123, 5545881.343784033320844 ] ] ] ] } },
{ "type": "Feature", "properties": { "id": 2310, "street_cells": 556.38070551864803, "yard_cells": 4341.5427185619483, "num_areas": 2.0 }, "geometry": { "type": "MultiPolygon", "coordinates": [ [ [ [ 1254951.561759566888213, 5543171.604690498672426 ], [ 1254953.207016890170053, 5543181.343784033320844 ], [ 1255049.034566706512123, 5543181.343784033320844 ], [ 1255049.034566706512123, 5543081.343784033320844 ], [ 1254949.034566706512123, 5543081.343784033320844 ], [ 1254949.034566706512123, 5543157.295155013911426 ], [ 1254951.561759566888213, 5543171.604690498672426 ] ] ] ] } },
{ "type": "Feature", "properties": { "id": 2311, "street_cells": 473.05386038236321, "yard_cells": 4440.8096017325297, "num_areas": 1.0 }, "geometry": { "type": "MultiPolygon", "coordinates": [ [ [ [ 1254949.034566706512123, 5543081.343784033320844 ], [ 1255049.034566706512123, 5543081.343784033320844 ], [ 1255049.034566706512123, 5542981.343784033320844 ], [ 1254949.034566706512123, 5542981.343784033320844 ], [ 1254949.034566706512123, 5543081.343784033320844 ] ] ] ] } },
{ "type": "Feature", "properties": { "id": 2433, "street_cells": 750.73437975831325, "yard_cells": 4093.7516637553931, "num_areas": 2.0 }, "geometry": { "type": "MultiPolygon", "coordinates": [ [ [ [ 1255137.351917628664523, 5546771.282409303821623 ], [ 1255149.034566706512123, 5546765.425336573272943 ], [ 1255149.034566706512123, 5546681.343784033320844 ], [ 1255049.034566706512123, 5546681.343784033320844 ], [ 1255049.034566706512123, 5546781.343784033320844 ], [ 1255117.480805335566401, 5546781.343784033320844 ], [ 1255137.351917628664523, 5546771.282409303821623 ] ] ] ] } },
{ "type": "Feature", "properties": { "id": 3071, "street_cells": 820.43248939402406, "yard_cells": 2931.0372073221952, "num_areas": 2.0 }, "geometry": { "type": "MultiPolygon", "coordinates": [ [ [ [ 1255533.525616935454309, 5546572.610350736416876 ], [ 1255549.034566706512123, 5546564.494027929380536 ], [ 1255549.034566706512123, 5546481.343784033320844 ], [ 1255449.034566706512123, 5546481.343784033320844 ], [ 1255449.034566706512123, 5546581.343784033320844 ], [ 1255516.233812646474689, 5546581.343784033320844 ], [ 1255533.525616935454309, 5546572.610350736416876 ] ] ] ] } },
{ "type": "Feature", "properties": { "id": 4028, "street_cells": 1334.4463741231709, "yard_cells": 3685.939586527646, "num_areas": 3.0 }, "geometry": { "type": "MultiPolygon", "coordinates": [ [ [ [ 1256049.034566706512123, 5546281.343784033320844 ], [ 1256149.034566706512123, 5546281.343784033320844 ], [ 1256149.034566706512123, 5546181.343784033320844 ], [ 1256049.034566706512123, 5546181.343784033320844 ], [ 1256049.034566706512123, 5546281.343784033320844 ] ] ] ] } },
{ "type": "Feature", "properties": { "id": 4187, "street_cells": 535.54536660183237, "yard_cells": 4894.5001109577724, "num_areas": 1.0 }, "geometry": { "type": "MultiPolygon", "coordinates": [ [ [ [ 1256156.787521412596107, 5546280.174676707945764 ], [ 1256157.504205605946481, 5546281.343784033320844 ], [ 1256249.034566706512123, 5546281.343784033320844 ], [ 1256249.034566706512123, 5546181.343784033320844 ], [ 1256149.034566706512123, 5546181.343784033320844 ], [ 1256149.034566706512123, 5546281.343784033320844 ], [ 1256153.866195535287261, 5546281.343784033320844 ], [ 1256156.787521412596107, 5546280.174676707945764 ] ] ] ] } },
{ "type": "Feature", "properties": { "id": 4346, "street_cells": 0.0, "yard_cells": 2054.1771261002868, "num_areas": 1.0 }, "geometry": { "type": "MultiPolygon", "coordinates": [ [ [ [ 1256349.034566706512123, 5546263.474444231949747 ], [ 1256349.034566706512123, 5546181.343784033320844 ], [ 1256249.034566706512123, 5546181.343784033320844 ], [ 1256249.034566706512123, 5546281.343784033320844 ], [ 1256314.378267464693636, 5546281.343784033320844 ], [ 1256349.034566706512123, 5546263.474444231949747 ] ] ] ] } },
{ "type": "Feature", "properties": { "id": 6583, "street_cells": 0.0, "yard_cells": 4432.7083199284971, "num_areas": 1.0 }, "geometry": { "type": "MultiPolygon", "coordinates": [ [ [ [ 1257649.034566706512123, 5545181.343784033320844 ], [ 1257749.034566706512123, 5545181.343784033320844 ], [ 1257749.034566706512123, 5545081.343784033320844 ], [ 1257649.034566706512123, 5545081.343784033320844 ], [ 1257649.034566706512123, 5545181.343784033320844 ] ] ] ] } },
{ "type": "Feature", "properties": { "id": 6899, "street_cells": 0.0, "yard_cells": 4983.0809635519981, "num_areas": 1.0 }, "geometry": { "type": "MultiPolygon", "coordinates": [ [ [ [ 1257849.034566706512123, 5545381.343784033320844 ], [ 1257949.034566706512123, 5545381.343784033320844 ], [ 1257949.034566706512123, 5545281.343784033320844 ], [ 1257849.034566706512123, 5545281.343784033320844 ], [ 1257849.034566706512123, 5545381.343784033320844 ] ] ] ] } },
{ "type": "Feature", "properties": { "id": 7547, "street_cells": 342.83386249020691, "yard_cells": 4735.2665014639497, "num_areas": 3.0 }, "geometry": { "type": "MultiPolygon", "coordinates": [ [ [ [ 1258249.034566706512123, 5544181.343784033320844 ], [ 1258349.034566706512123, 5544181.343784033320844 ], [ 1258349.034566706512123, 5544081.343784033320844 ], [ 1258249.034566706512123, 5544081.343784033320844 ], [ 1258249.034566706512123, 5544181.343784033320844 ] ] ] ] } },
{ "type": "Feature", "properties": { "id": 9627, "street_cells": 73.419361448287972, "yard_cells": 3006.7812167257071, "num_areas": 1.0 }, "geometry": { "type": "MultiPolygon", "coordinates": [ [ [ [ 1259549.034566706512123, 5542881.343784033320844 ], [ 1259649.034566706512123, 5542881.343784033320844 ], [ 1259649.034566706512123, 5542781.343784033320844 ], [ 1259549.034566706512123, 5542781.343784033320844 ], [ 1259549.034566706512123, 5542881.343784033320844 ] ] ] ] } },
{ "type": "Feature", "properties": { "id": 11355, "street_cells": 0.0, "yard_cells": 4250.3722271323204, "num_areas": 1.0 }, "geometry": { "type": "MultiPolygon", "coordinates": [ [ [ [ 1260649.034566706512123, 5544981.343784033320844 ], [ 1260749.034566706512123, 5544981.343784033320844 ], [ 1260749.034566706512123, 5544881.343784033320844 ], [ 1260649.034566706512123, 5544881.343784033320844 ], [ 1260649.034566706512123, 5544981.343784033320844 ] ] ] ] } },
{ "type": "Feature", "properties": { "id": 12488, "street_cells": 451.01518167182797, "yard_cells": 2662.7056135009279, "num_areas": 5.0 }, "geometry": { "type": "MultiPolygon", "coordinates": [ [ [ [ 1261349.034566706512123, 5542981.343784033320844 ], [ 1261449.034566706512123, 5542981.343784033320844 ], [ 1261449.034566706512123, 5542881.343784033320844 ], [ 1261349.034566706512123, 5542881.343784033320844 ], [ 1261349.034566706512123, 5542981.343784033320844 ] ] ] ] } },
{ "type": "Feature", "properties": { "id": 12647, "street_cells": 1742.721398217976, "yard_cells": 700.16263603051902, "num_areas": 8.0 }, "geometry": { "type": "MultiPolygon", "coordinates": [ [ [ [ 1261449.034566706512123, 5542981.343784033320844 ], [ 1261549.034566706512123, 5542981.343784033320844 ], [ 1261549.034566706512123, 5542881.343784033320844 ], [ 1261449.034566706512123, 5542881.343784033320844 ], [ 1261449.034566706512123, 5542981.343784033320844 ] ] ] ] } },
{ "type": "Feature", "properties": { "id": 12799, "street_cells": 1568.68544799611, "yard_cells": 1378.5631856683181, "num_areas": 7.0 }, "geometry": { "type": "MultiPolygon", "coordinates": [ [ [ [ 1261549.034566706512123, 5543681.343784033320844 ], [ 1261649.034566706512123, 5543681.343784033320844 ], [ 1261649.034566706512123, 5543581.343784033320844 ], [ 1261549.034566706512123, 5543581.343784033320844 ], [ 1261549.034566706512123, 5543681.343784033320844 ] ] ] ] } },
{ "type": "Feature", "properties": { "id": 12954, "street_cells": 1569.6108285889029, "yard_cells": 3174.2613277604728, "num_areas": 5.0 }, "geometry": { "type": "MultiPolygon", "coordinates": [ [ [ [ 1261649.034566706512123, 5544081.343784033320844 ], [ 1261749.034566706512123, 5544081.343784033320844 ], [ 1261749.034566706512123, 5543981.343784033320844 ], [ 1261649.034566706512123, 5543981.343784033320844 ], [ 1261649.034566706512123, 5544081.343784033320844 ] ] ] ] } },
{ "type": "Feature", "properties": { "id": 13113, "street_cells": 1312.0230608150359, "yard_cells": 4008.195871199302, "num_areas": 5.0 }, "geometry": { "type": "MultiPolygon", "coordinates": [ [ [ [ 1261749.034566706512123, 5544081.343784033320844 ], [ 1261849.034566706512123, 5544081.343784033320844 ], [ 1261849.034566706512123, 5543981.343784033320844 ], [ 1261749.034566706512123, 5543981.343784033320844 ], [ 1261749.034566706512123, 5544081.343784033320844 ] ] ] ] } },
{ "type": "Feature", "properties": { "id": 13603, "street_cells": 1483.3930943071839, "yard_cells": 299.3925932943817, "num_areas": 4.0 }, "geometry": { "type": "MultiPolygon", "coordinates": [ [ [ [ 1262049.034566706512123, 5542781.343784033320844 ], [ 1262149.034566706512123, 5542781.343784033320844 ], [ 1262149.034566706512123, 5542681.343784033320844 ], [ 1262049.034566706512123, 5542681.343784033320844 ], [ 1262049.034566706512123, 5542781.343784033320844 ] ] ] ] } },
{ "type": "Feature", "properties": { "id": 13604, "street_cells": 1440.13347388804, "yard_cells": 0.0091050053596877269, "num_areas": 2.0 }, "geometry": { "type": "MultiPolygon", "coordinates": [ [ [ [ 1262049.034566706512123, 5542681.343784033320844 ], [ 1262149.034566706512123, 5542681.343784033320844 ], [ 1262149.034566706512123, 5542581.343784033320844 ], [ 1262049.034566706512123, 5542581.343784033320844 ], [ 1262049.034566706512123, 5542681.343784033320844 ] ] ] ] } },
{ "type": "Feature", "properties": { "id": 13605, "street_cells": 1136.7316502928729, "yard_cells": 255.4830593112853, "num_areas": 2.0 }, "geometry": { "type": "MultiPolygon", "coordinates": [ [ [ [ 1262049.034566706512123, 5542581.343784033320844 ], [ 1262149.034566706512123, 5542581.343784033320844 ], [ 1262149.034566706512123, 5542481.343784033320844 ], [ 1262049.034566706512123, 5542481.343784033320844 ], [ 1262049.034566706512123, 5542581.343784033320844 ] ] ] ] } },
{ "type": "Feature", "properties": { "id": 13754, "street_cells": 1181.136093242467, "yard_cells": 963.87138555617946, "num_areas": 6.0 }, "geometry": { "type": "MultiPolygon", "coordinates": [ [ [ [ 1262149.034566706512123, 5543581.343784033320844 ], [ 1262249.034566706512123, 5543581.343784033320844 ], [ 1262249.034566706512123, 5543481.343784033320844 ], [ 1262149.034566706512123, 5543481.343784033320844 ], [ 1262149.034566706512123, 5543581.343784033320844 ] ] ] ] } },
{ "type": "Feature", "properties": { "id": 13760, "street_cells": 1445.403298640251, "yard_cells": 15.74627537094033, "num_areas": 1.0 }, "geometry": { "type": "MultiPolygon", "coordinates": [ [ [ [ 1262149.034566706512123, 5542981.343784033320844 ], [ 1262249.034566706512123, 5542981.343784033320844 ], [ 1262249.034566706512123, 5542881.343784033320844 ], [ 1262149.034566706512123, 5542881.343784033320844 ], [ 1262149.034566706512123, 5542981.343784033320844 ] ] ] ] } },
{ "type": "Feature", "properties": { "id": 13761, "street_cells": 1236.721829015017, "yard_cells": 0.057731155003799418, "num_areas": 2.0 }, "geometry": { "type": "MultiPolygon", "coordinates": [ [ [ [ 1262149.034566706512123, 5542881.343784033320844 ], [ 1262249.034566706512123, 5542881.343784033320844 ], [ 1262249.034566706512123, 5542781.343784033320844 ], [ 1262149.034566706512123, 5542781.343784033320844 ], [ 1262149.034566706512123, 5542881.343784033320844 ] ] ] ] } },
{ "type": "Feature", "properties": { "id": 13911, "street_cells": 1390.968947345018, "yard_cells": 845.62843870911706, "num_areas": 5.0 }, "geometry": { "type": "MultiPolygon", "coordinates": [ [ [ [ 1262249.034566706512123, 5543781.343784033320844 ], [ 1262349.034566706512123, 5543781.343784033320844 ], [ 1262349.034566706512123, 5543681.343784033320844 ], [ 1262249.034566706512123, 5543681.343784033320844 ], [ 1262249.034566706512123, 5543781.343784033320844 ] ] ] ] } },
{ "type": "Feature", "properties": { "id": 13912, "street_cells": 1722.307745569944, "yard_cells": 1486.532109010966, "num_areas": 3.0 }, "geometry": { "type": "MultiPolygon", "coordinates": [ [ [ [ 1262249.034566706512123, 5543681.343784033320844 ], [ 1262349.034566706512123, 5543681.343784033320844 ], [ 1262349.034566706512123, 5543581.343784033320844 ], [ 1262249.034566706512123, 5543581.343784033320844 ], [ 1262249.034566706512123, 5543681.343784033320844 ] ] ] ] } },
{ "type": "Feature", "properties": { "id": 13919, "street_cells": 1434.739047622681, "yard_cells": 1031.730120457461, "num_areas": 7.0 }, "geometry": { "type": "MultiPolygon", "coordinates": [ [ [ [ 1262249.034566706512123, 5542981.343784033320844 ], [ 1262349.034566706512123, 5542981.343784033320844 ], [ 1262349.034566706512123, 5542881.343784033320844 ], [ 1262249.034566706512123, 5542881.343784033320844 ], [ 1262249.034566706512123, 5542981.343784033320844 ] ] ] ] } },
{ "type": "Feature", "properties": { "id": 13935, "street_cells": 1417.390933537484, "yard_cells": 2001.1490498469159, "num_areas": 7.0 }, "geometry": { "type": "MultiPolygon", "coordinates": [ [ [ [ 1262249.034566706512123, 5541381.343784033320844 ], [ 1262349.034566706512123, 5541381.343784033320844 ], [ 1262349.034566706512123, 5541281.343784033320844 ], [ 1262249.034566706512123, 5541281.343784033320844 ], [ 1262249.034566706512123, 5541381.343784033320844 ] ] ] ] } },
{ "type": "Feature", "properties": { "id": 14069, "street_cells": 1052.77766469419, "yard_cells": 750.00244121346668, "num_areas": 5.0 }, "geometry": { "type": "MultiPolygon", "coordinates": [ [ [ [ 1262349.034566706512123, 5543881.343784033320844 ], [ 1262449.034566706512123, 5543881.343784033320844 ], [ 1262449.034566706512123, 5543781.343784033320844 ], [ 1262349.034566706512123, 5543781.343784033320844 ], [ 1262349.034566706512123, 5543881.343784033320844 ] ] ] ] } },
{ "type": "Feature", "properties": { "id": 14070, "street_cells": 1668.9666350066659, "yard_cells": 1274.1370851254401, "num_areas": 5.0 }, "geometry": { "type": "MultiPolygon", "coordinates": [ [ [ [ 1262349.034566706512123, 5543781.343784033320844 ], [ 1262449.034566706512123, 5543781.343784033320844 ], [ 1262449.034566706512123, 5543681.343784033320844 ], [ 1262349.034566706512123, 5543681.343784033320844 ], [ 1262349.034566706512123, 5543781.343784033320844 ] ] ] ] } },
{ "type": "Feature", "properties": { "id": 14071, "street_cells": 1264.2905043601991, "yard_cells": 1395.655275942637, "num_areas": 5.0 }, "geometry": { "type": "MultiPolygon", "coordinates": [ [ [ [ 1262349.034566706512123, 5543681.343784033320844 ], [ 1262449.034566706512123, 5543681.343784033320844 ], [ 1262449.034566706512123, 5543581.343784033320844 ], [ 1262349.034566706512123, 5543581.343784033320844 ], [ 1262349.034566706512123, 5543681.343784033320844 ] ] ] ] } },
{ "type": "Feature", "properties": { "id": 14226, "street_cells": 1316.840953985602, "yard_cells": 539.20584320912894, "num_areas": 4.0 }, "geometry": { "type": "MultiPolygon", "coordinates": [ [ [ [ 1262449.034566706512123, 5544081.343784033320844 ], [ 1262549.034566706512123, 5544081.343784033320844 ], [ 1262549.034566706512123, 5543981.343784033320844 ], [ 1262449.034566706512123, 5543981.343784033320844 ], [ 1262449.034566706512123, 5544081.343784033320844 ] ] ] ] } },
{ "type": "Feature", "properties": { "id": 14228, "street_cells": 1940.8797917783261, "yard_cells": 919.08976689801761, "num_areas": 4.0 }, "geometry": { "type": "MultiPolygon", "coordinates": [ [ [ [ 1262449.034566706512123, 5543881.343784033320844 ], [ 1262549.034566706512123, 5543881.343784033320844 ], [ 1262549.034566706512123, 5543781.343784033320844 ], [ 1262449.034566706512123, 5543781.343784033320844 ], [ 1262449.034566706512123, 5543881.343784033320844 ] ] ] ] } },
{ "type": "Feature", "properties": { "id": 14383, "street_cells": 0.0, "yard_cells": 4684.9710894525051, "num_areas": 1.0 }, "geometry": { "type": "MultiPolygon", "coordinates": [ [ [ [ 1262549.034566706512123, 5544281.343784033320844 ], [ 1262649.034566706512123, 5544281.343784033320844 ], [ 1262649.034566706512123, 5544181.343784033320844 ], [ 1262549.034566706512123, 5544181.343784033320844 ], [ 1262549.034566706512123, 5544281.343784033320844 ] ] ] ] } },
{ "type": "Feature", "properties": { "id": 14402, "street_cells": 888.39782275483014, "yard_cells": 0.0, "num_areas": 0.0 }, "geometry": { "type": "MultiPolygon", "coordinates": [ [ [ [ 1262549.034566706512123, 5542381.343784033320844 ], [ 1262649.034566706512123, 5542381.343784033320844 ], [ 1262649.034566706512123, 5542281.343784033320844 ], [ 1262549.034566706512123, 5542281.343784033320844 ], [ 1262549.034566706512123, 5542381.343784033320844 ] ] ] ] } },
{ "type": "Feature", "properties": { "id": 14703, "street_cells": 0.0, "yard_cells": 1719.8280992843211, "num_areas": 2.0 }, "geometry": { "type": "MultiPolygon", "coordinates": [ [ [ [ 1262749.034566706512123, 5544081.343784033320844 ], [ 1262849.034566706512123, 5544081.343784033320844 ], [ 1262849.034566706512123, 5543981.343784033320844 ], [ 1262749.034566706512123, 5543981.343784033320844 ], [ 1262749.034566706512123, 5544081.343784033320844 ] ] ] ] } },
{ "type": "Feature", "properties": { "id": 14704, "street_cells": 1828.7233809441329, "yard_cells": 1129.2106300075541, "num_areas": 5.0 }, "geometry": { "type": "MultiPolygon", "coordinates": [ [ [ [ 1262749.034566706512123, 5543981.343784033320844 ], [ 1262849.034566706512123, 5543981.343784033320844 ], [ 1262849.034566706512123, 5543881.343784033320844 ], [ 1262749.034566706512123, 5543881.343784033320844 ], [ 1262749.034566706512123, 5543981.343784033320844 ] ] ] ] } },
{ "type": "Feature", "properties": { "id": 15019, "street_cells": 1727.8739809453491, "yard_cells": 3620.6905665337099, "num_areas": 4.0 }, "geometry": { "type": "MultiPolygon", "coordinates": [ [ [ [ 1262949.034566706512123, 5544281.343784033320844 ], [ 1263049.034566706512123, 5544281.343784033320844 ], [ 1263049.034566706512123, 5544181.343784033320844 ], [ 1262949.034566706512123, 5544181.343784033320844 ], [ 1262949.034566706512123, 5544281.343784033320844 ] ] ] ] } },
{ "type": "Feature", "properties": { "id": 15039, "street_cells": 1628.5461622953419, "yard_cells": 1.617114766945049, "num_areas": 3.0 }, "geometry": { "type": "MultiPolygon", "coordinates": [ [ [ [ 1262949.034566706512123, 5542281.343784033320844 ], [ 1263049.034566706512123, 5542281.343784033320844 ], [ 1263049.034566706512123, 5542181.343784033320844 ], [ 1262949.034566706512123, 5542181.343784033320844 ], [ 1262949.034566706512123, 5542281.343784033320844 ] ] ] ] } },
{ "type": "Feature", "properties": { "id": 15175, "street_cells": 1558.2061469733719, "yard_cells": 819.51803779415798, "num_areas": 7.0 }, "geometry": { "type": "MultiPolygon", "coordinates": [ [ [ [ 1263049.034566706512123, 5544581.343784033320844 ], [ 1263149.034566706512123, 5544581.343784033320844 ], [ 1263149.034566706512123, 5544481.343784033320844 ], [ 1263049.034566706512123, 5544481.343784033320844 ], [ 1263049.034566706512123, 5544581.343784033320844 ] ] ] ] } },
{ "type": "Feature", "properties": { "id": 15176, "street_cells": 1842.4318151444199, "yard_cells": 458.72280770377239, "num_areas": 5.0 }, "geometry": { "type": "MultiPolygon", "coordinates": [ [ [ [ 1263049.034566706512123, 5544481.343784033320844 ], [ 1263149.034566706512123, 5544481.343784033320844 ], [ 1263149.034566706512123, 5544381.343784033320844 ], [ 1263049.034566706512123, 5544381.343784033320844 ], [ 1263049.034566706512123, 5544481.343784033320844 ] ] ] ] } },
{ "type": "Feature", "properties": { "id": 15335, "street_cells": 936.68925000056618, "yard_cells": 2439.270267481425, "num_areas": 5.0 }, "geometry": { "type": "MultiPolygon", "coordinates": [ [ [ [ 1263149.034566706512123, 5544481.343784033320844 ], [ 1263249.034566706512123, 5544481.343784033320844 ], [ 1263249.034566706512123, 5544381.343784033320844 ], [ 1263149.034566706512123, 5544381.343784033320844 ], [ 1263149.034566706512123, 5544481.343784033320844 ] ] ] ] } },
{ "type": "Feature", "properties": { "id": 16125, "street_cells": 902.61655021607885, "yard_cells": 331.35328200459452, "num_areas": 2.0 }, "geometry": { "type": "MultiPolygon", "coordinates": [ [ [ [ 1263649.034566706512123, 5544981.343784033320844 ], [ 1263749.034566706512123, 5544981.343784033320844 ], [ 1263749.034566706512123, 5544881.343784033320844 ], [ 1263649.034566706512123, 5544881.343784033320844 ], [ 1263649.034566706512123, 5544981.343784033320844 ] ] ] ] } },
{ "type": "Feature", "properties": { "id": 16280, "street_cells": 1801.427412211895, "yard_cells": 1957.267665280028, "num_areas": 4.0 }, "geometry": { "type": "MultiPolygon", "coordinates": [ [ [ [ 1263749.034566706512123, 5545381.343784033320844 ], [ 1263849.034566706512123, 5545381.343784033320844 ], [ 1263849.034566706512123, 5545281.343784033320844 ], [ 1263749.034566706512123, 5545281.343784033320844 ], [ 1263749.034566706512123, 5545381.343784033320844 ] ] ] ] } },
{ "type": "Feature", "properties": { "id": 16452, "street_cells": 30.59227145239711, "yard_cells": 1883.4877030625939, "num_areas": 1.0 }, "geometry": { "type": "MultiPolygon", "coordinates": [ [ [ [ 1263849.034566706512123, 5544081.343784033320844 ], [ 1263949.034566706512123, 5544081.343784033320844 ], [ 1263949.034566706512123, 5543981.343784033320844 ], [ 1263849.034566706512123, 5543981.343784033320844 ], [ 1263849.034566706512123, 5544081.343784033320844 ] ] ] ] } },
{ "type": "Feature", "properties": { "id": 17095, "street_cells": 1383.824653363228, "yard_cells": 2861.584106888622, "num_areas": 4.0 }, "geometry": { "type": "MultiPolygon", "coordinates": [ [ [ [ 1264249.034566706512123, 5543381.343784033320844 ], [ 1264349.034566706512123, 5543381.343784033320844 ], [ 1264349.034566706512123, 5543281.343784033320844 ], [ 1264249.034566706512123, 5543281.343784033320844 ], [ 1264249.034566706512123, 5543381.343784033320844 ] ] ] ] } },
{ "type": "Feature", "properties": { "id": 19026, "street_cells": 178.49423643350599, "yard_cells": 4252.6668161652051, "num_areas": 3.0 }, "geometry": { "type": "MultiPolygon", "coordinates": [ [ [ [ 1265449.034566706512123, 5541081.343784033320844 ], [ 1265549.034566706512123, 5541081.343784033320844 ], [ 1265549.034566706512123, 5540981.343784033320844 ], [ 1265449.034566706512123, 5540981.343784033320844 ], [ 1265449.034566706512123, 5541081.343784033320844 ] ] ] ] } },
{ "type": "Feature", "properties": { "id": 19790, "street_cells": 1076.5883107922971, "yard_cells": 3997.9629291966562, "num_areas": 3.0 }, "geometry": { "type": "MultiPolygon", "coordinates": [ [ [ [ 1265949.034566706512123, 5544181.343784033320844 ], [ 1266049.034566706512123, 5544181.343784033320844 ], [ 1266049.034566706512123, 5544081.343784033320844 ], [ 1265949.034566706512123, 5544081.343784033320844 ], [ 1265949.034566706512123, 5544181.343784033320844 ] ] ] ] } },
{ "type": "Feature", "properties": { "id": 20007, "street_cells": 804.60154332220554, "yard_cells": 4788.8549288599752, "num_areas": 5.0 }, "geometry": { "type": "MultiPolygon", "coordinates": [ [ [ [ 1266049.034566706512123, 5538381.343784033320844 ], [ 1266149.034566706512123, 5538381.343784033320844 ], [ 1266149.034566706512123, 5538281.343784033320844 ], [ 1266049.034566706512123, 5538281.343784033320844 ], [ 1266049.034566706512123, 5538381.343784033320844 ] ] ] ] } },
{ "type": "Feature", "properties": { "id": 20142, "street_cells": 0.0, "yard_cells": 2229.5553885996342, "num_areas": 1.0 }, "geometry": { "type": "MultiPolygon", "coordinates": [ [ [ [ 1266149.034566706512123, 5540781.343784033320844 ], [ 1266249.034566706512123, 5540781.343784033320844 ], [ 1266249.034566706512123, 5540681.343784033320844 ], [ 1266149.034566706512123, 5540681.343784033320844 ], [ 1266149.034566706512123, 5540781.343784033320844 ] ] ] ] } }
]
}
