{
"type": "FeatureCollection",
"name": "result_no_streets_full",
"crs": { "type": "name", "properties": { "name": "urn:ogc:def:crs:EPSG::3857" } },
"features": [
{ "type": "Feature", "properties": { "id": 1011, "street_cells": 0.0, "yard_cells": 3544.647637635469, "num_areas": 1.0 }, "geometry": { "type": "MultiPolygon", "coordinates": [ [ [ [ 1254149.034566706512123, 5545881.343784033320844 ], [ 1254249.034566706512123, 5545881.343784033320844 ], [ 1254249.034566706512123, 5545781.343784033320844 ], [ 1254149.034566706512123, 5545781.343784033320844 ], [ 1254149.034566706512123, 5545881.343784033320844 ] ] ] ] } },
{ "type": "Feature", "properties": { "id": 1330, "street_cells": 0.0, "yard_cells": 2590.0246152611221, "num_areas": 2.0 }, "geometry": { "type": "MultiPolygon", "coordinates": [ [ [ [ 1254349.034566706512123, 5545781.343784033320844 ], [ 1254449.034566706512123, 5545781.343784033320844 ], [ 1254449.034566706512123, 5545681.343784033320844 ], [ 1254349.034566706512123, 5545681.343784033320844 ], [ 1254349.034566706512123, 5545781.343784033320844 ] ] ] ] } },
{ "type": "Feature", "properties": { "id": 2310, "street_cells": 0.0, "yard_cells": 4341.5427185619483, "num_areas": 2.0 }, "geometry": { "type": "MultiPolygon", "coordinates": [ [ [ [ 1254951.561759566888213, 5543171.604690498672426 ], [ 1254953.207016890170053, 5543181.343784033320844 ], [ 1255049.034566706512123, 5543181.343784033320844 ], [ 1255049.034566706512123, 5543081.343784033320844 ], [ 1254949.034566706512123, 5543081.343784033320844 ], [ 1254949.034566706512123, 5543157.295155013911426 ], [ 1254951.561759566888213, 5543171.604690498672426 ] ] ] ] } },
{ "type": "Feature", "properties": { "id": 2311, "street_cells": 0.0, "yard_cells": 4440.8096017325297, "num_areas": 1.0 }, "geometry": { "type": "MultiPolygon", "coordinates": [ [ [ [ 1254949.034566706512123, 5543081.343784033320844 ], [ 1255049.034566706512123, 5543081.343784033320844 ], [ 1255049.034566706512123, 5542981.343784033320844 ], [ 1254949.034566706512123, 5542981.343784033320844 ], [ 1254949.034566706512123, 5543081.343784033320844 ] ] ] ] } },
{ "type": "Feature", "properties": { "id": 2433, "street_cells": 0.0, "yard_cells": 4093.7516637553931, "num_areas": 2.0 }, "geometry": { "type": "MultiPolygon", "coordinates": [ [ [ [ 1255137.351917628664523, 5546771.282409303821623 ], [ 1255149.034566706512123, 5546765.425336573272943 ], [ 1255149.034566706512123, 5546681.343784033320844 ], [ 1255049.034566706512123, 5546681.343784033320844 ], [ 1255049.034566706512123, 5546781.343784033320844 ], [ 1255117.480805335566401, 5546781.343784033320844 ], [ 1255137.351917628664523, 5546771.282409303821623 ] ] ] ] } },
{ "type": "Feature", "properties": { "id": 4029, "street_cells": 0.0, "yard_cells": 4407.8890385776758, "num_areas": 2.0 }, "geometry": { "type": "MultiPolygon", "coordinates": [ [ [ [ 1256049.034566706512123, 5546181.343784033320844 ], [ 1256149.034566706512123, 5546181.343784033320844 ], [ 1256149.034566706512123, 5546081.343784033320844 ], [ 1256049.034566706512123, 5546081.343784033320844 ], [ 1256049.034566706512123, 5546181.343784033320844 ] ] ] ] } },
{ "type": "Feature", "properties": { "id": 4187, "street_cells": 0.0, "yard_cells": 4894.5001109577724, "num_areas": 1.0 }, "geometry": { "type": "MultiPolygon", "coordinates": [ [ [ [ 1256156.787521412596107, 5546280.174676707945764 ], [ 1256157.504205605946481, 5546281.343784033320844 ], [ 1256249.034566706512123, 5546281.343784033320844 ], [ 1256249.034566706512123, 5546181.343784033320844 ], [ 1256149.034566706512123, 5546181.343784033320844 ], [ 1256149.034566706512123, 5546281.343784033320844 ], [ 1256153.866195535287261, 5546281.343784033320844 ], [ 1256156.787521412596107, 5546280.174676707945764 ] ] ] ] } },
{ "type": "Feature", "properties": { "id": 4346, "street_cells": 0.0, "yard_cells": 2054.1771261002868, "num_areas": 1.0 }, "geometry": { "type": "MultiPolygon", "coordinates": [ [ [ [ 1256349.034566706512123, 5546263.474444231949747 ], [ 1256349.034566706512123, 5546181.343784033320844 ], [ 1256249.034566706512123, 5546181.343784033320844 ], [ 1256249.034566706512123, 5546281.343784033320844 ], [ 1256314.378267464693636, 5546281.343784033320844 ], [ 1256349.034566706512123, 5546263.474444231949747 ] ] ] ] } },
{ "type": "Feature", "properties": { "id": 4665, "street_cells": 0.0, "yard_cells": 3638.3118361802772, "num_areas": 2.0 }, "geometry": { "type": "MultiPolygon", "coordinates": [ [ [ [ 1256549.034566706512123, 5546180.381033821962774 ], [ 1256549.034566706512123, 5546081.343784033320844 ], [ 1256449.034566706512123, 5546081.343784033320844 ], [ 1256449.034566706512123, 5546181.343784033320844 ], [ 1256546.40422530262731, 5546181.343784033320844 ], [ 1256549.034566706512123, 5546180.381033821962774 ] ] ] ] } },
{ "type": "Feature", "properties": { "id": 6583, "street_cells": 0.0, "yard_cells": 4432.7083199284971, "num_areas": 1.0 }, "geometry": { "type": "MultiPolygon", "coordinates": [ [ [ [ 1257649.034566706512123, 5545181.343784033320844 ], [ 1257749.034566706512123, 5545181.343784033320844 ], [ 1257749.034566706512123, 5545081.343784033320844 ], [ 1257649.034566706512123, 5545081.343784033320844 ], [ 1257649.034566706512123, 5545181.343784033320844 ] ] ] ] } },
{ "type": "Feature", "properties": { "id": 6899, "street_cells": 0.0, "yard_cells": 4983.0809635519981, "num_areas": 1.0 }, "geometry": { "type": "MultiPolygon", "coordinates": [ [ [ [ 1257849.034566706512123, 5545381.343784033320844 ], [ 1257949.034566706512123, 5545381.343784033320844 ], [ 1257949.034566706512123, 5545281.343784033320844 ], [ 1257849.034566706512123, 5545281.343784033320844 ], [ 1257849.034566706512123, 5545381.343784033320844 ] ] ] ] } },
{ "type": "Feature", "properties": { "id": 7547, "street_cells": 0.0, "yard_cells": 4735.2665014639497, "num_areas": 3.0 }, "geometry": { "type": "MultiPolygon", "coordinates": [ [ [ [ 1258249.034566706512123, 5544181.343784033320844 ], [ 1258349.034566706512123, 5544181.343784033320844 ], [ 1258349.034566706512123, 5544081.343784033320844 ], [ 1258249.034566706512123, 5544081.343784033320844 ], [ 1258249.034566706512123, 5544181.343784033320844 ] ] ] ] } },
{ "type": "Feature", "properties": { "id": 8012, "street_cells": 0.0, "yard_cells": 1804.733734071255, "num_areas": 1.0 }, "geometry": { "type": "MultiPolygon", "coordinates": [ [ [ [ 1258549.034566706512123, 5545381.343784033320844 ], [ 1258649.034566706512123, 5545381.343784033320844 ], [ 1258649.034566706512123, 5545281.343784033320844 ], [ 1258549.034566706512123, 5545281.343784033320844 ], [ 1258549.034566706512123, 5545381.343784033320844 ] ] ] ] } },
{ "type": "Feature", "properties": { "id": 9605, "street_cells": 0.0, "yard_cells": 3291.2191305011511, "num_areas": 1.0 }, "geometry": { "type": "MultiPolygon", "coordinates": [ [ [ [ 1259549.034566706512123, 5545081.343784033320844 ], [ 1259649.034566706512123, 5545081.343784033320844 ], [ 1259649.034566706512123, 5544981.343784033320844 ], [ 1259549.034566706512123, 5544981.343784033320844 ], [ 1259549.034566706512123, 5545081.343784033320844 ] ] ] ] } },
{ "type": "Feature", "properties": { "id": 9627, "street_cells": 0.0, "yard_cells": 3006.7812167257071, "num_areas": 1.0 }, "geometry": { "type": "MultiPolygon", "coordinates": [ [ [ [ 1259549.034566706512123, 5542881.343784033320844 ], [ 1259649.034566706512123, 5542881.343784033320844 ], [ 1259649.034566706512123, 5542781.343784033320844 ], [ 1259549.034566706512123, 5542781.343784033320844 ], [ 1259549.034566706512123, 5542881.343784033320844 ] ] ] ] } },
{ "type": "Feature", "properties": { "id": 10878, "street_cells": 0.0, "yard_cells": 4259.0664193015546, "num_areas": 2.0 }, "geometry": { "type": "MultiPolygon", "coordinates": [ [ [ [ 1260349.034566706512123, 5544981.343784033320844 ], [ 1260449.034566706512123, 5544981.343784033320844 ], [ 1260449.034566706512123, 5544881.343784033320844 ], [ 1260349.034566706512123, 5544881.343784033320844 ], [ 1260349.034566706512123, 5544981.343784033320844 ] ] ] ] } },
{ "type": "Feature", "properties": { "id": 11355, "street_cells": 0.0, "yard_cells": 4250.3722271323204, "num_areas": 1.0 }, "geometry": { "type": "MultiPolygon", "coordinates": [ [ [ [ 1260649.034566706512123, 5544981.343784033320844 ], [ 1260749.034566706512123, 5544981.343784033320844 ], [ 1260749.034566706512123, 5544881.343784033320844 ], [ 1260649.034566706512123, 5544881.343784033320844 ], [ 1260649.034566706512123, 5544981.343784033320844 ] ] ] ] } },
{ "type": "Feature", "properties": { "id": 12947, "street_cells": 0.0, "yard_cells": 2794.4040587600321, "num_areas": 2.0 }, "geometry": { "type": "MultiPolygon", "coordinates": [ [ [ [ 1261649.034566706512123, 5544781.343784033320844 ], [ 1261749.034566706512123, 5544781.343784033320844 ], [ 1261749.034566706512123, 5544681.343784033320844 ], [ 1261649.034566706512123, 5544681.343784033320844 ], [ 1261649.034566706512123, 5544781.343784033320844 ] ] ] ] } },
{ "type": "Feature", "properties": { "id": 13102, "street_cells": 0.0, "yard_cells": 3015.370203973725, "num_areas": 1.0 }, "geometry": { "type": "MultiPolygon", "coordinates": [ [ [ [ 1261749.034566706512123, 5545181.343784033320844 ], [ 1261849.034566706512123, 5545181.343784033320844 ], [ 1261849.034566706512123, 5545081.343784033320844 ], [ 1261749.034566706512123, 5545081.343784033320844 ], [ 1261749.034566706512123, 5545181.343784033320844 ] ] ] ] } },
{ "type": "Feature", "properties": { "id": 13110, "street_cells": 0.0, "yard_cells": 4360.1073233410716, "num_areas": 2.0 }, "geometry": { "type": "MultiPolygon", "coordinates": [ [ [ [ 1261749.034566706512123, 5544381.343784033320844 ], [ 1261849.034566706512123, 5544381.343784033320844 ], [ 1261849.034566706512123, 5544281.343784033320844 ], [ 1261749.034566706512123, 5544281.343784033320844 ], [ 1261749.034566706512123, 5544381.343784033320844 ] ] ] ] } },
{ "type": "Feature", "properties": { "id": 13113, "street_cells": 0.0, "yard_cells": 4008.195871199302, "num_areas": 5.0 }, "geometry": { "type": "MultiPolygon", "coordinates": [ [ [ [ 1261749.034566706512123, 5544081.343784033320844 ], [ 1261849.034566706512123, 5544081.343784033320844 ], [ 1261849.034566706512123, 5543981.343784033320844 ], [ 1261749.034566706512123, 5543981.343784033320844 ], [ 1261749.034566706512123, 5544081.343784033320844 ] ] ] ] } },
{ "type": "Feature", "properties": { "id": 14224, "street_cells": 0.0, "yard_cells": 2869.93931210041, "num_areas": 1.0 }, "geometry": { "type": "MultiPolygon", "coordinates": [ [ [ [ 1262449.034566706512123, 5544281.343784033320844 ], [ 1262549.034566706512123, 5544281.343784033320844 ], [ 1262549.034566706512123, 5544181.343784033320844 ], [ 1262449.034566706512123, 5544181.343784033320844 ], [ 1262449.034566706512123, 5544281.343784033320844 ] ] ] ] } },
{ "type": "Feature", "properties": { "id": 14383, "street_cells": 0.0, "yard_cells": 4684.9710894525051, "num_areas": 1.0 }, "geometry": { "type": "MultiPolygon", "coordinates": [ [ [ [ 1262549.034566706512123, 5544281.343784033320844 ], [ 1262649.034566706512123, 5544281.343784033320844 ], [ 1262649.034566706512123, 5544181.343784033320844 ], [ 1262549.034566706512123, 5544181.343784033320844 ], [ 1262549.034566706512123, 5544281.343784033320844 ] ] ] ] } },
{ "type": "Feature", "properties": { "id": 14542, "street_cells": 0.0, "yard_cells": 4803.862445037812, "num_areas": 1.0 }, "geometry": { "type": "MultiPolygon", "coordinates": [ [ [ [ 1262649.034566706512123, 5544281.343784033320844 ], [ 1262749.034566706512123, 5544281.343784033320844 ], [ 1262749.034566706512123, 5544181.343784033320844 ], [ 1262649.034566706512123, 5544181.343784033320844 ], [ 1262649.034566706512123, 5544281.343784033320844 ] ] ] ] } },
{ "type": "Feature", "properties": { "id": 14703, "street_cells": 0.0, "yard_cells": 1719.8280992843211, "num_areas": 2.0 }, "geometry": { "type": "MultiPolygon", "coordinates": [ [ [ [ 1262749.034566706512123, 5544081.343784033320844 ], [ 1262849.034566706512123, 5544081.343784033320844 ], [ 1262849.034566706512123, 5543981.343784033320844 ], [ 1262749.034566706512123, 5543981.343784033320844 ], [ 1262749.034566706512123, 5544081.343784033320844 ] ] ] ] } },
{ "type": "Feature", "properties": { "id": 16135, "street_cells": 0.0, "yard_cells": 1296.1155039388691, "num_areas": 2.0 }, "geometry": { "type": "MultiPolygon", "coordinates": [ [ [ [ 1263649.034566706512123, 5543981.343784033320844 ], [ 1263749.034566706512123, 5543981.343784033320844 ], [ 1263749.034566706512123, 5543881.343784033320844 ], [ 1263649.034566706512123, 5543881.343784033320844 ], [ 1263649.034566706512123, 5543981.343784033320844 ] ] ] ] } },
{ "type": "Feature", "properties": { "id": 16452, "street_cells": 0.0, "yard_cells": 1883.4877030625939, "num_areas": 1.0 }, "geometry": { "type": "MultiPolygon", "coordinates": [ [ [ [ 1263849.034566706512123, 5544081.343784033320844 ], [ 1263949.034566706512123, 5544081.343784033320844 ], [ 1263949.034566706512123, 5543981.343784033320844 ], [ 1263849.034566706512123, 5543981.343784033320844 ], [ 1263849.034566706512123, 5544081.343784033320844 ] ] ] ] } },
{ "type": "Feature", "properties": { "id": 16730, "street_cells": 0.0, "yard_cells": 2288.8573260009289, "num_areas": 1.0 }, "geometry": { "type": "MultiPolygon", "coordinates": [ [ [ [ 1264049.034566706512123, 5548081.343784033320844 ], [ 1264149.034566706512123, 5548081.343784033320844 ], [ 1264149.034566706512123, 5547981.343784033320844 ], [ 1264049.034566706512123, 5547981.343784033320844 ], [ 1264049.034566706512123, 5548081.343784033320844 ] ] ] ] } },
{ "type": "Feature", "properties": { "id": 17362, "street_cells": 0.0, "yard_cells": 4179.9866530746222, "num_areas": 1.0 }, "geometry": { "type": "MultiPolygon", "coordinates": [ [ [ [ 1264449.034566706512123, 5548481.343784033320844 ], [ 1264549.034566706512123, 5548481.343784033320844 ], [ 1264549.034566706512123, 5548381.343784033320844 ], [ 1264449.034566706512123, 5548381.343784033320844 ], [ 1264449.034566706512123, 5548481.343784033320844 ] ] ] ] } },
{ "type": "Feature", "properties": { "id": 17382, "street_cells": 0.0, "yard_cells": 3715.0955457985401, "num_areas": 1.0 }, "geometry": { "type": "MultiPolygon", "coordinates": [ [ [ [ 1264449.034566706512123, 5546481.343784033320844 ], [ 1264549.034566706512123, 5546481.343784033320844 ], [ 1264549.034566706512123, 5546381.343784033320844 ], [ 1264449.034566706512123, 5546381.343784033320844 ], [ 1264449.034566706512123, 5546481.343784033320844 ] ] ] ] } },
{ "type": "Feature", "properties": { "id": 17700, "street_cells": 0.0, "yard_cells": 3007.4062824323769, "num_areas": 2.0 }, "geometry": { "type": "MultiPolygon", "coordinates": [ [ [ [ 1264649.034566706512123, 5546481.343784033320844 ], [ 1264749.034566706512123, 5546481.343784033320844 ], [ 1264749.034566706512123, 5546381.343784033320844 ], [ 1264649.034566706512123, 5546381.343784033320844 ], [ 1264649.034566706512123, 5546481.343784033320844 ] ] ] ] } },
{ "type": "Feature", "properties": { "id": 19026, "street_cells": 0.0, "yard_cells": 4252.6668161652051, "num_areas": 3.0 }, "geometry": { "type": "MultiPolygon", "coordinates": [ [ [ [ 1265449.034566706512123, 5541081.343784033320844 ], [ 1265549.034566706512123, 5541081.343784033320844 ], [ 1265549.034566706512123, 5540981.343784033320844 ], [ 1265449.034566706512123, 5540981.343784033320844 ], [ 1265449.034566706512123, 5541081.343784033320844 ] ] ] ] } },
{ "type": "Feature", "properties": { "id": 19790, "street_cells": 0.0, "yard_cells": 3997.9629291966562, "num_areas": 3.0 }, "geometry": { "type": "MultiPolygon", "coordinates": [ [ [ [ 1265949.034566706512123, 5544181.343784033320844 ], [ 1266049.034566706512123, 5544181.343784033320844 ], [ 1266049.034566706512123, 5544081.343784033320844 ], [ 1265949.034566706512123, 5544081.343784033320844 ], [ 1265949.034566706512123, 5544181.343784033320844 ] ] ] ] } },
{ "type": "Feature", "properties": { "id": 19860, "street_cells": 0.0, "yard_cells": 1969.6624076813459, "num_areas": 2.0 }, "geometry": { "type": "MultiPolygon", "coordinates": [ [ [ [ 1265949.034566706512123, 5537181.343784033320844 ], [ 1266049.034566706512123, 5537181.343784033320844 ], [ 1266049.034566706512123, 5537081.343784033320844 ], [ 1265949.034566706512123, 5537081.343784033320844 ], [ 1265949.034566706512123, 5537181.343784033320844 ] ] ] ] } },
{ "type": "Feature", "properties": { "id": 20007, "street_cells": 0.0, "yard_cells": 4788.8549288599752, "num_areas": 5.0 }, "geometry": { "type": "MultiPolygon", "coordinates": [ [ [ [ 1266049.034566706512123, 5538381.343784033320844 ], [ 1266149.034566706512123, 5538381.343784033320844 ], [ 1266149.034566706512123, 5538281.343784033320844 ], [ 1266049.034566706512123, 5538281.343784033320844 ], [ 1266049.034566706512123, 5538381.343784033320844 ] ] ] ] } },
{ "type": "Feature", "properties": { "id": 20142, "street_cells": 0.0, "yard_cells": 2229.5553885996342, "num_areas": 1.0 }, "geometry": { "type": "MultiPolygon", "coordinates": [ [ [ [ 1266149.034566706512123, 5540781.343784033320844 ], [ 1266249.034566706512123, 5540781.343784033320844 ], [ 1266249.034566706512123, 5540681.343784033320844 ], [ 1266149.034566706512123, 5540681.343784033320844 ], [ 1266149.034566706512123, 5540781.343784033320844 ] ] ] ] } },
{ "type": "Feature", "properties": { "id": 21244, "street_cells": 0.0, "yard_cells": 2829.809363241307, "num_areas": 3.0 }, "geometry": { "type": "MultiPolygon", "coordinates": [ [ [ [ 1266849.034566706512123, 5541881.343784033320844 ], [ 1266949.034566706512123, 5541881.343784033320844 ], [ 1266949.034566706512123, 5541781.343784033320844 ], [ 1266849.034566706512123, 5541781.343784033320844 ], [ 1266849.034566706512123, 5541881.343784033320844 ] ] ] ] } },
{ "type": "Feature", "properties": { "id": 23143, "street_cells": 0.0, "yard_cells": 1887.5275428555899, "num_areas": 1.0 }, "geometry": { "type": "MultiPolygon", "coordinates": [ [ [ [ 1268049.034566706512123, 5542781.343784033320844 ], [ 1268149.034566706512123, 5542781.343784033320844 ], [ 1268149.034566706512123, 5542681.343784033320844 ], [ 1268049.034566706512123, 5542681.343784033320844 ], [ 1268049.034566706512123, 5542781.343784033320844 ] ] ] ] } },
{ "type": "Feature", "properties": { "id": 23934, "street_cells": 0.0, "yard_cells": 4378.9353144007036, "num_areas": 2.0 }, "geometry": { "type": "MultiPolygon", "coordinates": [ [ [ [ 1268549.034566706512123, 5543181.343784033320844 ], [ 1268649.034566706512123, 5543181.343784033320844 ], [ 1268649.034566706512123, 5543081.343784033320844 ], [ 1268549.034566706512123, 5543081.343784033320844 ], [ 1268549.034566706512123, 5543181.343784033320844 ] ] ] ] } },
{ "type": "Feature", "properties": { "id": 24564, "street_cells": 0.0, "yard_cells": 4816.0436545610428, "num_areas": 1.0 }, "geometry": { "type": "MultiPolygon", "coordinates": [ [ [ [ 1268949.034566706512123, 5543781.343784033320844 ], [ 1269049.034566706512123, 5543781.343784033320844 ], [ 1269049.034566706512123, 5543681.343784033320844 ], [ 1268949.034566706512123, 5543681.343784033320844 ], [ 1268949.034566706512123, 5543781.343784033320844 ] ] ] ] } },
{ "type": "Feature", "properties": { "id": 24727, "street_cells": 0.0, "yard_cells": 4059.8120994661008, "num_areas": 2.0 }, "geometry": { "type": "MultiPolygon", "coordinates": [ [ [ [ 1269049.034566706512123, 5543381.343784033320844 ], [ 1269149.034566706512123, 5543381.343784033320844 ], [ 1269149.034566706512123, 5543281.343784033320844 ], [ 1269049.034566706512123, 5543281.343784033320844 ], [ 1269049.034566706512123, 5543381.343784033320844 ] ] ] ] } },
{ "type": "Feature", "properties": { "id": 26765, "street_cells": 0.0, "yard_cells": 3037.3793694674969, "num_areas": 2.0 }, "geometry": { "type": "MultiPolygon", "coordinates": [ [ [ [ 1270349.034566706512123, 5546281.343784033320844 ], [ 1270449.034566706512123, 5546281.343784033320844 ], [ 1270449.034566706512123, 5546181.343784033320844 ], [ 1270349.034566706512123, 5546181.343784033320844 ], [ 1270349.034566706512123, 5546281.343784033320844 ] ] ] ] } },
{ "type": "Feature", "properties": { "id": 26766, "street_cells": 0.0, "yard_cells": 3798.6092967689042, "num_areas": 1.0 }, "geometry": { "type": "MultiPolygon", "coordinates": [ [ [ [ 1270349.034566706512123, 5546181.343784033320844 ], [ 1270449.034566706512123, 5546181.343784033320844 ], [ 1270449.034566706512123, 5546081.343784033320844 ], [ 1270349.034566706512123, 5546081.343784033320844 ], [ 1270349.034566706512123, 5546181.343784033320844 ] ] ] ] } },
{ "type": "Feature", "properties": { "id": 26767, "street_cells": 0.0, "yard_cells": 1368.560129731894, "num_areas": 1.0 }, "geometry": { "type": "MultiPolygon", "coordinates": [ [ [ [ 1270349.034566706512123, 5546081.343784033320844 ], [ 1270449.034566706512123, 5546081.343784033320844 ], [ 1270449.034566706512123, 5545981.343784033320844 ], [ 1270349.034566706512123, 5545981.343784033320844 ], [ 1270349.034566706512123, 5546081.343784033320844 ] ] ] ] } },
{ "type": "Feature", "properties": { "id": 26769, "street_cells": 0.0, "yard_cells": 2990.0447307750578, "num_areas": 2.0 }, "geometry": { "type": "MultiPolygon", "coordinates": [ [ [ [ 1270349.034566706512123, 5545881.343784033320844 ], [ 1270449.034566706512123, 5545881.343784033320844 ], [ 1270449.034566706512123, 5545781.343784033320844 ], [ 1270349.034566706512123, 5545781.343784033320844 ], [ 1270349.034566706512123, 5545881.343784033320844 ] ] ] ] } },
{ "type": "Feature", "properties": { "id": 26925, "street_cells": 0.0, "yard_cells": 2998.3950847910019, "num_areas": 2.0 }, "geometry": { "type": "MultiPolygon", "coordinates": [ [ [ [ 1270449.034566706512123, 5546181.343784033320844 ], [ 1270549.034566706512123, 5546181.343784033320844 ], [ 1270549.034566706512123, 5546081.343784033320844 ], [ 1270449.034566706512123, 5546081.343784033320844 ], [ 1270449.034566706512123, 5546181.343784033320844 ] ] ] ] } },
{ "type": "Feature", "properties": { "id": 27084, "street_cells": 0.0, "yard_cells": 2993.5624007284641, "num_areas": 2.0 }, "geometry": { "type": "MultiPolygon", "coordinates": [ [ [ [ 1270549.034566706512123, 5546181.343784033320844 ], [ 1270649.034566706512123, 5546181.343784033320844 ], [ 1270649.034566706512123, 5546081.343784033320844 ], [ 1270549.034566706512123, 5546081.343784033320844 ], [ 1270549.034566706512123, 5546181.343784033320844 ] ] ] ] } },
{ "type": "Feature", "properties": { "id": 27085, "street_cells": 0.0, "yard_cells": 3450.629029989243, "num_areas": 1.0 }, "geometry": { "type": "MultiPolygon", "coordinates": [ [ [ [ 1270549.034566706512123, 5546081.343784033320844 ], [ 1270649.034566706512123, 5546081.343784033320844 ], [ 1270649.034566706512123, 5545981.343784033320844 ], [ 1270549.034566706512123, 5545981.343784033320844 ], [ 1270549.034566706512123, 5546081.343784033320844 ] ] ] ] } },
{ "type": "Feature", "properties": { "id": 27086, "street_cells": 0.0, "yard_cells": 1691.7913595736029, "num_areas": 1.0 }, "geometry": { "type": "MultiPolygon", "coordinates": [ [ [ [ 1270549.034566706512123, 5545981.343784033320844 ], [ 1270649.034566706512123, 5545981.343784033320844 ], [ 1270649.034566706512123, 5545881.343784033320844 ], [ 1270549.034566706512123, 5545881.343784033320844 ], [ 1270549.034566706512123, 5545981.343784033320844 ] ] ] ] } },
{ "type": "Feature", "properties": { "id": 27422, "street_cells": 0.0, "yard_cells": 3011.525659032166, "num_areas": 1.0 }, "geometry": { "type": "MultiPolygon", "coordinates": [ [ [ [ 1270749.034566706512123, 5544181.343784033320844 ], [ 1270849.034566706512123, 5544181.343784033320844 ], [ 1270849.034566706512123, 5544081.343784033320844 ], [ 1270749.034566706512123, 5544081.343784033320844 ], [ 1270749.034566706512123, 5544181.343784033320844 ] ] ] ] } }
]
}
