{
"type": "FeatureCollection",
"name": "result_full",
"crs": { "type": "name", "properties": { "name": "urn:ogc:def:crs:EPSG::3857" } },
"features": [
{ "type": "Feature", "properties": { "id": 1011, "street_cells": 0.0, "yard_cells": 3544.647637635469, "num_areas": 1.0 }, "geometry": { "type": "MultiPolygon", "coordinates": [ [ [ [ 1254149.034566706512123, 5545881.343784033320844 ], [ 1254249.034566706512123, 5545881.343784033320844 ], [ 1254249.034566706512123, 5545781.343784033320844 ], [ 1254149.034566706512123, 5545781.343784033320844 ], [ 1254149.034566706512123, 5545881.343784033320844 ] ] ] ] } },
{ "type": "Feature", "properties": { "id": 2311, "street_cells": 473.05386038236321, "yard_cells": 4440.8096017325297, "num_areas": 1.0 }, "geometry": { "type": "MultiPolygon", "coordinates": [ [ [ [ 1254949.034566706512123, 5543081.343784033320844 ], [ 1255049.034566706512123, 5543081.343784033320844 ], [ 1255049.034566706512123, 5542981.343784033320844 ], [ 1254949.034566706512123, 5542981.343784033320844 ], [ 1254949.034566706512123, 5543081.343784033320844 ] ] ] ] } },
{ "type": "Feature", "properties": { "id": 2433, "street_cells": 750.73437975831348, "yard_cells": 4093.7516637553931, "num_areas": 2.0 }, "geometry": { "type": "MultiPolygon", "coordinates": [ [ [ [ 1255137.351917628664523, 5546771.282409303821623 ], [ 1255149.034566706512123, 5546765.425336573272943 ], [ 1255149.034566706512123, 5546681.343784033320844 ], [ 1255049.034566706512123, 5546681.343784033320844 ], [ 1255049.034566706512123, 5546781.343784033320844 ], [ 1255117.480805335566401, 5546781.343784033320844 ], [ 1255137.351917628664523, 5546771.282409303821623 ] ] ] ] } },
{ "type": "Feature", "properties": { "id": 3071, "street_cells": 820.43248939402406, "yard_cells": 2931.0372073221952, "num_areas": 2.0 }, "geometry": { "type": "MultiPolygon", "coordinates": [ [ [ [ 1255533.525616935454309, 5546572.610350736416876 ], [ 1255549.034566706512123, 5546564.494027929380536 ], [ 1255549.034566706512123, 5546481.343784033320844 ], [ 1255449.034566706512123, 5546481.343784033320844 ], [ 1255449.034566706512123, 5546581.343784033320844 ], [ 1255516.233812646474689, 5546581.343784033320844 ], [ 1255533.525616935454309, 5546572.610350736416876 ] ] ] ] } },
{ "type": "Feature", "properties": { "id": 4028, "street_cells": 1334.4463741231709, "yard_cells": 3685.939586527646, "num_areas": 3.0 }, "geometry": { "type": "MultiPolygon", "coordinates": [ [ [ [ 1256049.034566706512123, 5546281.343784033320844 ], [ 1256149.034566706512123, 5546281.343784033320844 ], [ 1256149.034566706512123, 5546181.343784033320844 ], [ 1256049.034566706512123, 5546181.343784033320844 ], [ 1256049.034566706512123, 5546281.343784033320844 ] ] ] ] } },
{ "type": "Feature", "properties": { "id": 4187, "street_cells": 535.54536660183203, "yard_cells": 4894.5001109577724, "num_areas": 1.0 }, "geometry": { "type": "MultiPolygon", "coordinates": [ [ [ [ 1256156.787521412596107, 5546280.174676707945764 ], [ 1256157.504205605946481, 5546281.343784033320844 ], [ 1256249.034566706512123, 5546281.343784033320844 ], [ 1256249.034566706512123, 5546181.343784033320844 ], [ 1256149.034566706512123, 5546181.343784033320844 ], [ 1256149.034566706512123, 5546281.343784033320844 ], [ 1256153.866195535287261, 5546281.343784033320844 ], [ 1256156.787521412596107, 5546280.174676707945764 ] ] ] ] } },
{ "type": "Feature", "properties": { "id": 4346, "street_cells": 0.0, "yard_cells": 2054.1771261002868, "num_areas": 1.0 }, "geometry": { "type": "MultiPolygon", "coordinates": [ [ [ [ 1256349.034566706512123, 5546263.474444231949747 ], [ 1256349.034566706512123, 5546181.343784033320844 ], [ 1256249.034566706512123, 5546181.343784033320844 ], [ 1256249.034566706512123, 5546281.343784033320844 ], [ 1256314.378267464693636, 5546281.343784033320844 ], [ 1256349.034566706512123, 5546263.474444231949747 ] ] ] ] } },
{ "type": "Feature", "properties": { "id": 6583, "street_cells": 0.0, "yard_cells": 4432.7083199284971, "num_areas": 1.0 }, "geometry": { "type": "MultiPolygon", "coordinates": [ [ [ [ 1257649.034566706512123, 5545181.343784033320844 ], [ 1257749.034566706512123, 5545181.343784033320844 ], [ 1257749.034566706512123, 5545081.343784033320844 ], [ 1257649.034566706512123, 5545081.343784033320844 ], [ 1257649.034566706512123, 5545181.343784033320844 ] ] ] ] } },
{ "type": "Feature", "properties": { "id": 6899, "street_cells": 0.0, "yard_cells": 4983.0809635519981, "num_areas": 1.0 }, "geometry": { "type": "MultiPolygon", "coordinates": [ [ [ [ 1257849.034566706512123, 5545381.343784033320844 ], [ 1257949.034566706512123, 5545381.343784033320844 ], [ 1257949.034566706512123, 5545281.343784033320844 ], [ 1257849.034566706512123, 5545281.343784033320844 ], [ 1257849.034566706512123, 5545381.343784033320844 ] ] ] ] } },
{ "type": "Feature", "properties": { "id": 7547, "street_cells": 342.83386249020691, "yard_cells": 4735.2665014639497, "num_areas": 3.0 }, "geometry": { "type": "MultiPolygon", "coordinates": [ [ [ [ 1258249.034566706512123, 5544181.343784033320844 ], [ 1258349.034566706512123, 5544181.343784033320844 ], [ 1258349.034566706512123, 5544081.343784033320844 ], [ 1258249.034566706512123, 5544081.343784033320844 ], [ 1258249.034566706512123, 5544181.343784033320844 ] ] ] ] } },
{ "type": "Feature", "properties": { "id": 9605, "street_cells": 0.0, "yard_cells": 3291.2191305011511, "num_areas": 1.0 }, "geometry": { "type": "MultiPolygon", "coordinates": [ [ [ [ 1259549.034566706512123, 5545081.343784033320844 ], [ 1259649.034566706512123, 5545081.343784033320844 ], [ 1259649.034566706512123, 5544981.343784033320844 ], [ 1259549.034566706512123, 5544981.343784033320844 ], [ 1259549.034566706512123, 5545081.343784033320844 ] ] ] ] } },
{ "type": "Feature", "properties": { "id": 9627, "street_cells": 73.419361448287972, "yard_cells": 3006.781216725708, "num_areas": 1.0 }, "geometry": { "type": "MultiPolygon", "coordinates": [ [ [ [ 1259549.034566706512123, 5542881.343784033320844 ], [ 1259649.034566706512123, 5542881.343784033320844 ], [ 1259649.034566706512123, 5542781.343784033320844 ], [ 1259549.034566706512123, 5542781.343784033320844 ], [ 1259549.034566706512123, 5542881.343784033320844 ] ] ] ] } },
{ "type": "Feature", "properties": { "id": 11355, "street_cells": 0.0, "yard_cells": 4250.3722271323204, "num_areas": 1.0 }, "geometry": { "type": "MultiPolygon", "coordinates": [ [ [ [ 1260649.034566706512123, 5544981.343784033320844 ], [ 1260749.034566706512123, 5544981.343784033320844 ], [ 1260749.034566706512123, 5544881.343784033320844 ], [ 1260649.034566706512123, 5544881.343784033320844 ], [ 1260649.034566706512123, 5544981.343784033320844 ] ] ] ] } },
{ "type": "Feature", "properties": { "id": 12954, "street_cells": 1569.6108285889029, "yard_cells": 3174.2613277604728, "num_areas": 5.0 }, "geometry": { "type": "MultiPolygon", "coordinates": [ [ [ [ 1261649.034566706512123, 5544081.343784033320844 ], [ 1261749.034566706512123, 5544081.343784033320844 ], [ 1261749.034566706512123, 5543981.343784033320844 ], [ 1261649.034566706512123, 5543981.343784033320844 ], [ 1261649.034566706512123, 5544081.343784033320844 ] ] ] ] } },
{ "type": "Feature", "properties": { "id": 13102, "street_cells": 0.0, "yard_cells": 3015.370203973725, "num_areas": 1.0 }, "geometry": { "type": "MultiPolygon", "coordinates": [ [ [ [ 1261749.034566706512123, 5545181.343784033320844 ], [ 1261849.034566706512123, 5545181.343784033320844 ], [ 1261849.034566706512123, 5545081.343784033320844 ], [ 1261749.034566706512123, 5545081.343784033320844 ], [ 1261749.034566706512123, 5545181.343784033320844 ] ] ] ] } },
{ "type": "Feature", "properties": { "id": 13110, "street_cells": 0.0, "yard_cells": 4360.1073233410716, "num_areas": 2.0 }, "geometry": { "type": "MultiPolygon", "coordinates": [ [ [ [ 1261749.034566706512123, 5544381.343784033320844 ], [ 1261849.034566706512123, 5544381.343784033320844 ], [ 1261849.034566706512123, 5544281.343784033320844 ], [ 1261749.034566706512123, 5544281.343784033320844 ], [ 1261749.034566706512123, 5544381.343784033320844 ] ] ] ] } },
{ "type": "Feature", "properties": { "id": 13113, "street_cells": 1312.0230608150359, "yard_cells": 4008.1958711993029, "num_areas": 5.0 }, "geometry": { "type": "MultiPolygon", "coordinates": [ [ [ [ 1261749.034566706512123, 5544081.343784033320844 ], [ 1261849.034566706512123, 5544081.343784033320844 ], [ 1261849.034566706512123, 5543981.343784033320844 ], [ 1261749.034566706512123, 5543981.343784033320844 ], [ 1261749.034566706512123, 5544081.343784033320844 ] ] ] ] } },
{ "type": "Feature", "properties": { "id": 13603, "street_cells": 1483.3930943071839, "yard_cells": 299.39259329438272, "num_areas": 4.0 }, "geometry": { "type": "MultiPolygon", "coordinates": [ [ [ [ 1262049.034566706512123, 5542781.343784033320844 ], [ 1262149.034566706512123, 5542781.343784033320844 ], [ 1262149.034566706512123, 5542681.343784033320844 ], [ 1262049.034566706512123, 5542681.343784033320844 ], [ 1262049.034566706512123, 5542781.343784033320844 ] ] ] ] } },
{ "type": "Feature", "properties": { "id": 13604, "street_cells": 1440.13347388804, "yard_cells": 0.0091050053606152835, "num_areas": 2.0 }, "geometry": { "type": "MultiPolygon", "coordinates": [ [ [ [ 1262049.034566706512123, 5542681.343784033320844 ], [ 1262149.034566706512123, 5542681.343784033320844 ], [ 1262149.034566706512123, 5542581.343784033320844 ], [ 1262049.034566706512123, 5542581.343784033320844 ], [ 1262049.034566706512123, 5542681.343784033320844 ] ] ] ] } },
{ "type": "Feature", "properties": { "id": 13605, "street_cells": 1136.7316502928729, "yard_cells": 255.4830593112857, "num_areas": 2.0 }, "geometry": { "type": "MultiPolygon", "coordinates": [ [ [ [ 1262049.034566706512123, 5542581.343784033320844 ], [ 1262149.034566706512123, 5542581.343784033320844 ], [ 1262149.034566706512123, 5542481.343784033320844 ], [ 1262049.034566706512123, 5542481.343784033320844 ], [ 1262049.034566706512123, 5542581.343784033320844 ] ] ] ] } },
{ "type": "Feature", "properties": { "id": 13760, "street_cells": 1445.403298640251, "yard_cells": 15.746275370940539, "num_areas": 1.0 }, "geometry": { "type": "MultiPolygon", "coordinates": [ [ [ [ 1262149.034566706512123, 5542981.343784033320844 ], [ 1262249.034566706512123, 5542981.343784033320844 ], [ 1262249.034566706512123, 5542881.343784033320844 ], [ 1262149.034566706512123, 5542881.343784033320844 ], [ 1262149.034566706512123, 5542981.343784033320844 ] ] ] ] } },
{ "type": "Feature", "properties": { "id": 13761, "street_cells": 1236.721829015017, "yard_cells": 0.057731155004515221, "num_areas": 2.0 }, "geometry": { "type": "MultiPolygon", "coordinates": [ [ [ [ 1262149.034566706512123, 5542881.343784033320844 ], [ 1262249.034566706512123, 5542881.343784033320844 ], [ 1262249.034566706512123, 5542781.343784033320844 ], [ 1262149.034566706512123, 5542781.343784033320844 ], [ 1262149.034566706512123, 5542881.343784033320844 ] ] ] ] } },
{ "type": "Feature", "properties": { "id": 13912, "street_cells": 1722.307745569944, "yard_cells": 1486.5321090109639, "num_areas": 3.0 }, "geometry": { "type": "MultiPolygon", "coordinates": [ [ [ [ 1262249.034566706512123, 5543681.343784033320844 ], [ 1262349.034566706512123, 5543681.343784033320844 ], [ 1262349.034566706512123, 5543581.343784033320844 ], [ 1262249.034566706512123, 5543581.343784033320844 ], [ 1262249.034566706512123, 5543681.343784033320844 ] ] ] ] } },
{ "type": "Feature", "properties": { "id": 14028, "street_cells": 1465.28684796691, "yard_cells": -0.0, "num_areas": 1.0 }, "geometry": { "type": "MultiPolygon", "coordinates": [ [ [ [ 1262375.48984845308587, 5547965.865910427644849 ], [ 1262417.790723364334553, 5547955.285331383347511 ], [ 1262449.034566706512123, 5547947.086314657703042 ], [ 1262449.034566706512123, 5547881.343784033320844 ], [ 1262349.034566706512123, 5547881.343784033320844 ], [ 1262349.034566706512123, 5547972.848144100047648 ], [ 1262375.48984845308587, 5547965.865910427644849 ] ] ] ] } },
{ "type": "Feature", "properties": { "id": 14070, "street_cells": 1668.9666350066659, "yard_cells": 1274.1370851254401, "num_areas": 5.0 }, "geometry": { "type": "MultiPolygon", "coordinates": [ [ [ [ 1262349.034566706512123, 5543781.343784033320844 ], [ 1262449.034566706512123, 5543781.343784033320844 ], [ 1262449.034566706512123, 5543681.343784033320844 ], [ 1262349.034566706512123, 5543681.343784033320844 ], [ 1262349.034566706512123, 5543781.343784033320844 ] ] ] ] } },
{ "type": "Feature", "properties": { "id": 14224, "street_cells": 0.0, "yard_cells": 2869.93931210041, "num_areas": 1.0 }, "geometry": { "type": "MultiPolygon", "coordinates": [ [ [ [ 1262449.034566706512123, 5544281.343784033320844 ], [ 1262549.034566706512123, 5544281.343784033320844 ], [ 1262549.034566706512123, 5544181.343784033320844 ], [ 1262449.034566706512123, 5544181.343784033320844 ], [ 1262449.034566706512123, 5544281.343784033320844 ] ] ] ] } },
{ "type": "Feature", "properties": { "id": 14226, "street_cells": 1316.840953985602, "yard_cells": 539.20584320912906, "num_areas": 4.0 }, "geometry": { "type": "MultiPolygon", "coordinates": [ [ [ [ 1262449.034566706512123, 5544081.343784033320844 ], [ 1262549.034566706512123, 5544081.343784033320844 ], [ 1262549.034566706512123, 5543981.343784033320844 ], [ 1262449.034566706512123, 5543981.343784033320844 ], [ 1262449.034566706512123, 5544081.343784033320844 ] ] ] ] } },
{ "type": "Feature", "properties": { "id": 14228, "street_cells": 1940.8797917783261, "yard_cells": 919.08976689801625, "num_areas": 4.0 }, "geometry": { "type": "MultiPolygon", "coordinates": [ [ [ [ 1262449.034566706512123, 5543881.343784033320844 ], [ 1262549.034566706512123, 5543881.343784033320844 ], [ 1262549.034566706512123, 5543781.343784033320844 ], [ 1262449.034566706512123, 5543781.343784033320844 ], [ 1262449.034566706512123, 5543881.343784033320844 ] ] ] ] } },
{ "type": "Feature", "properties": { "id": 14383, "street_cells": 0.0, "yard_cells": 4684.9710894525051, "num_areas": 1.0 }, "geometry": { "type": "MultiPolygon", "coordinates": [ [ [ [ 1262549.034566706512123, 5544281.343784033320844 ], [ 1262649.034566706512123, 5544281.343784033320844 ], [ 1262649.034566706512123, 5544181.343784033320844 ], [ 1262549.034566706512123, 5544181.343784033320844 ], [ 1262549.034566706512123, 5544281.343784033320844 ] ] ] ] } },
{ "type": "Feature", "properties": { "id": 14402, "street_cells": 888.39782275483014, "yard_cells": 0.0, "num_areas": 0.0 }, "geometry": { "type": "MultiPolygon", "coordinates": [ [ [ [ 1262549.034566706512123, 5542381.343784033320844 ], [ 1262649.034566706512123, 5542381.343784033320844 ], [ 1262649.034566706512123, 5542281.343784033320844 ], [ 1262549.034566706512123, 5542281.343784033320844 ], [ 1262549.034566706512123, 5542381.343784033320844 ] ] ] ] } },
{ "type": "Feature", "properties": { "id": 14542, "street_cells": 75.20873533785344, "yard_cells": 4803.862445037812, "num_areas": 1.0 }, "geometry": { "type": "MultiPolygon", "coordinates": [ [ [ [ 1262649.034566706512123, 5544281.343784033320844 ], [ 1262749.034566706512123, 5544281.343784033320844 ], [ 1262749.034566706512123, 5544181.343784033320844 ], [ 1262649.034566706512123, 5544181.343784033320844 ], [ 1262649.034566706512123, 5544281.343784033320844 ] ] ] ] } },
{ "type": "Feature", "properties": { "id": 14704, "street_cells": 1828.7233809441329, "yard_cells": 1129.2106300075541, "num_areas": 5.0 }, "geometry": { "type": "MultiPolygon", "coordinates": [ [ [ [ 1262749.034566706512123, 5543981.343784033320844 ], [ 1262849.034566706512123, 5543981.343784033320844 ], [ 1262849.034566706512123, 5543881.343784033320844 ], [ 1262749.034566706512123, 5543881.343784033320844 ], [ 1262749.034566706512123, 5543981.343784033320844 ] ] ] ] } },
{ "type": "Feature", "properties": { "id": 15019, "street_cells": 1727.8739809453491, "yard_cells": 3620.6905665337099, "num_areas": 4.0 }, "geometry": { "type": "MultiPolygon", "coordinates": [ [ [ [ 1262949.034566706512123, 5544281.343784033320844 ], [ 1263049.034566706512123, 5544281.343784033320844 ], [ 1263049.034566706512123, 5544181.343784033320844 ], [ 1262949.034566706512123, 5544181.343784033320844 ], [ 1262949.034566706512123, 5544281.343784033320844 ] ] ] ] } },
{ "type": "Feature", "properties": { "id": 15039, "street_cells": 1628.5461622953419, "yard_cells": 1.617114766944967, "num_areas": 3.0 }, "geometry": { "type": "MultiPolygon", "coordinates": [ [ [ [ 1262949.034566706512123, 5542281.343784033320844 ], [ 1263049.034566706512123, 5542281.343784033320844 ], [ 1263049.034566706512123, 5542181.343784033320844 ], [ 1262949.034566706512123, 5542181.343784033320844 ], [ 1262949.034566706512123, 5542281.343784033320844 ] ] ] ] } },
{ "type": "Feature", "properties": { "id": 15176, "street_cells": 1842.4318151444199, "yard_cells": 458.72280770377341, "num_areas": 5.0 }, "geometry": { "type": "MultiPolygon", "coordinates": [ [ [ [ 1263049.034566706512123, 5544481.343784033320844 ], [ 1263149.034566706512123, 5544481.343784033320844 ], [ 1263149.034566706512123, 5544381.343784033320844 ], [ 1263049.034566706512123, 5544381.343784033320844 ], [ 1263049.034566706512123, 5544481.343784033320844 ] ] ] ] } },
{ "type": "Feature", "properties": { "id": 16125, "street_cells": 902.61655021607885, "yard_cells": 331.35328200459458, "num_areas": 2.0 }, "geometry": { "type": "MultiPolygon", "coordinates": [ [ [ [ 1263649.034566706512123, 5544981.343784033320844 ], [ 1263749.034566706512123, 5544981.343784033320844 ], [ 1263749.034566706512123, 5544881.343784033320844 ], [ 1263649.034566706512123, 5544881.343784033320844 ], [ 1263649.034566706512123, 5544981.343784033320844 ] ] ] ] } },
{ "type": "Feature", "properties": { "id": 16280, "street_cells": 1801.427412211895, "yard_cells": 1957.2676652800301, "num_areas": 4.0 }, "geometry": { "type": "MultiPolygon", "coordinates": [ [ [ [ 1263749.034566706512123, 5545381.343784033320844 ], [ 1263849.034566706512123, 5545381.343784033320844 ], [ 1263849.034566706512123, 5545281.343784033320844 ], [ 1263749.034566706512123, 5545281.343784033320844 ], [ 1263749.034566706512123, 5545381.343784033320844 ] ] ] ] } },
{ "type": "Feature", "properties": { "id": 16452, "street_cells": 30.59227145239711, "yard_cells": 1883.4877030625939, "num_areas": 1.0 }, "geometry": { "type": "MultiPolygon", "coordinates": [ [ [ [ 1263849.034566706512123, 5544081.343784033320844 ], [ 1263949.034566706512123, 5544081.343784033320844 ], [ 1263949.034566706512123, 5543981.343784033320844 ], [ 1263849.034566706512123, 5543981.343784033320844 ], [ 1263849.034566706512123, 5544081.343784033320844 ] ] ] ] } },
{ "type": "Feature", "properties": { "id": 16730, "street_cells": 0.0, "yard_cells": 2288.8573260009289, "num_areas": 1.0 }, "geometry": { "type": "MultiPolygon", "coordinates": [ [ [ [ 1264049.034566706512123, 5548081.343784033320844 ], [ 1264149.034566706512123, 5548081.343784033320844 ], [ 1264149.034566706512123, 5547981.343784033320844 ], [ 1264049.034566706512123, 5547981.343784033320844 ], [ 1264049.034566706512123, 5548081.343784033320844 ] ] ] ] } },
{ "type": "Feature", "properties": { "id": 16731, "street_cells": 951.74081876724949, "yard_cells": 1781.1058805976061, "num_areas": 1.0 }, "geometry": { "type": "MultiPolygon", "coordinates": [ [ [ [ 1264049.034566706512123, 5547981.343784033320844 ], [ 1264149.034566706512123, 5547981.343784033320844 ], [ 1264149.034566706512123, 5547881.343784033320844 ], [ 1264049.034566706512123, 5547881.343784033320844 ], [ 1264049.034566706512123, 5547981.343784033320844 ] ] ] ] } },
{ "type": "Feature", "properties": { "id": 17095, "street_cells": 1383.824653363228, "yard_cells": 2861.584106888622, "num_areas": 4.0 }, "geometry": { "type": "MultiPolygon", "coordinates": [ [ [ [ 1264249.034566706512123, 5543381.343784033320844 ], [ 1264349.034566706512123, 5543381.343784033320844 ], [ 1264349.034566706512123, 5543281.343784033320844 ], [ 1264249.034566706512123, 5543281.343784033320844 ], [ 1264249.034566706512123, 5543381.343784033320844 ] ] ] ] } },
{ "type": "Feature", "properties": { "id": 17362, "street_cells": 9.9608759868890058, "yard_cells": 4179.9866530746222, "num_areas": 1.0 }, "geometry": { "type": "MultiPolygon", "coordinates": [ [ [ [ 1264449.034566706512123, 5548481.343784033320844 ], [ 1264549.034566706512123, 5548481.343784033320844 ], [ 1264549.034566706512123, 5548381.343784033320844 ], [ 1264449.034566706512123, 5548381.343784033320844 ], [ 1264449.034566706512123, 5548481.343784033320844 ] ] ] ] } },
{ "type": "Feature", "properties": { "id": 17382, "street_cells": 0.0, "yard_cells": 3715.0955457985401, "num_areas": 1.0 }, "geometry": { "type": "MultiPolygon", "coordinates": [ [ [ [ 1264449.034566706512123, 5546481.343784033320844 ], [ 1264549.034566706512123, 5546481.343784033320844 ], [ 1264549.034566706512123, 5546381.343784033320844 ], [ 1264449.034566706512123, 5546381.343784033320844 ], [ 1264449.034566706512123, 5546481.343784033320844 ] ] ] ] } },
{ "type": "Feature", "properties": { "id": 19026, "street_cells": 178.49423643350599, "yard_cells": 4252.6668161652051, "num_areas": 3.0 }, "geometry": { "type": "MultiPolygon", "coordinates": [ [ [ [ 1265449.034566706512123, 5541081.343784033320844 ], [ 1265549.034566706512123, 5541081.343784033320844 ], [ 1265549.034566706512123, 5540981.343784033320844 ], [ 1265449.034566706512123, 5540981.343784033320844 ], [ 1265449.034566706512123, 5541081.343784033320844 ] ] ] ] } },
{ "type": "Feature", "properties": { "id": 19790, "street_cells": 1076.5883107922971, "yard_cells": 3997.9629291966562, "num_areas": 3.0 }, "geometry": { "type": "MultiPolygon", "coordinates": [ [ [ [ 1265949.034566706512123, 5544181.343784033320844 ], [ 1266049.034566706512123, 5544181.343784033320844 ], [ 1266049.034566706512123, 5544081.343784033320844 ], [ 1265949.034566706512123, 5544081.343784033320844 ], [ 1265949.034566706512123, 5544181.343784033320844 ] ] ] ] } },
{ "type": "Feature", "properties": { "id": 20142, "street_cells": 0.0, "yard_cells": 2229.5553885996342, "num_areas": 1.0 }, "geometry": { "type": "MultiPolygon", "coordinates": [ [ [ [ 1266149.034566706512123, 5540781.343784033320844 ], [ 1266249.034566706512123, 5540781.343784033320844 ], [ 1266249.034566706512123, 5540681.343784033320844 ], [ 1266149.034566706512123, 5540681.343784033320844 ], [ 1266149.034566706512123, 5540781.343784033320844 ] ] ] ] } },
{ "type": "Feature", "properties": { "id": 24564, "street_cells": 0.0, "yard_cells": 4816.0436545610428, "num_areas": 1.0 }, "geometry": { "type": "MultiPolygon", "coordinates": [ [ [ [ 1268949.034566706512123, 5543781.343784033320844 ], [ 1269049.034566706512123, 5543781.343784033320844 ], [ 1269049.034566706512123, 5543681.343784033320844 ], [ 1268949.034566706512123, 5543681.343784033320844 ], [ 1268949.034566706512123, 5543781.343784033320844 ] ] ] ] } },
{ "type": "Feature", "properties": { "id": 26766, "street_cells": 0.0, "yard_cells": 3798.6092967689042, "num_areas": 1.0 }, "geometry": { "type": "MultiPolygon", "coordinates": [ [ [ [ 1270349.034566706512123, 5546181.343784033320844 ], [ 1270449.034566706512123, 5546181.343784033320844 ], [ 1270449.034566706512123, 5546081.343784033320844 ], [ 1270349.034566706512123, 5546081.343784033320844 ], [ 1270349.034566706512123, 5546181.343784033320844 ] ] ] ] } },
{ "type": "Feature", "properties": { "id": 26980, "street_cells": 1406.195947386324, "yard_cells": -0.0, "num_areas": 1.0 }, "geometry": { "type": "MultiPolygon", "coordinates": [ [ [ [ 1270449.034566706512123, 5540618.051721509546041 ], [ 1270449.034566706512123, 5540681.343784033320844 ], [ 1270549.034566706512123, 5540681.343784033320844 ], [ 1270549.034566706512123, 5540581.343784033320844 ], [ 1270527.302202803315595, 5540581.343784033320844 ], [ 1270449.034566706512123, 5540618.051721509546041 ] ] ] ] } },
{ "type": "Feature", "properties": { "id": 27085, "street_cells": 0.0, "yard_cells": 3450.629029989243, "num_areas": 1.0 }, "geometry": { "type": "MultiPolygon", "coordinates": [ [ [ [ 1270549.034566706512123, 5546081.343784033320844 ], [ 1270649.034566706512123, 5546081.343784033320844 ], [ 1270649.034566706512123, 5545981.343784033320844 ], [ 1270549.034566706512123, 5545981.343784033320844 ], [ 1270549.034566706512123, 5546081.343784033320844 ] ] ] ] } }
]
}
