{
"type": "FeatureCollection",
"name": "result_no_yards_full",
"crs": { "type": "name", "properties": { "name": "urn:ogc:def:crs:EPSG::3857" } },
"features": [
{ "type": "Feature", "properties": { "id": 3071, "street_cells": 820.43248939402406, "yard_cells": 0.0, "num_areas": 2.0 }, "geometry": { "type": "MultiPolygon", "coordinates": [ [ [ [ 1255533.525616935454309, 5546572.610350736416876 ], [ 1255549.034566706512123, 5546564.494027929380536 ], [ 1255549.034566706512123, 5546481.343784033320844 ], [ 1255449.034566706512123, 5546481.343784033320844 ], [ 1255449.034566706512123, 5546581.343784033320844 ], [ 1255516.233812646474689, 5546581.343784033320844 ], [ 1255533.525616935454309, 5546572.610350736416876 ] ] ] ] } },
{ "type": "Feature", "properties": { "id": 3870, "street_cells": 844.91392131149757, "yard_cells": 0.0, "num_areas": 1.0 }, "geometry": { "type": "MultiPolygon", "coordinates": [ [ [ [ 1255949.034566706512123, 5546181.343784033320844 ], [ 1256049.034566706512123, 5546181.343784033320844 ], [ 1256049.034566706512123, 5546081.343784033320844 ], [ 1255949.034566706512123, 5546081.343784033320844 ], [ 1255949.034566706512123, 5546181.343784033320844 ] ] ] ] } },
{ "type": "Feature", "properties": { "id": 4028, "street_cells": 1334.4463741231709, "yard_cells": 0.0, "num_areas": 3.0 }, "geometry": { "type": "MultiPolygon", "coordinates": [ [ [ [ 1256049.034566706512123, 5546281.343784033320844 ], [ 1256149.034566706512123, 5546281.343784033320844 ], [ 1256149.034566706512123, 5546181.343784033320844 ], [ 1256049.034566706512123, 5546181.343784033320844 ], [ 1256049.034566706512123, 5546281.343784033320844 ] ] ] ] } },
{ "type": "Feature", "properties": { "id": 4187, "street_cells": 535.54536660183226, "yard_cells": 0.0, "num_areas": 1.0 }, "geometry": { "type": "MultiPolygon", "coordinates": [ [ [ [ 1256156.787521412596107, 5546280.174676707945764 ], [ 1256157.504205605946481, 5546281.343784033320844 ], [ 1256249.034566706512123, 5546281.343784033320844 ], [ 1256249.034566706512123, 5546181.343784033320844 ], [ 1256149.034566706512123, 5546181.343784033320844 ], [ 1256149.034566706512123, 5546281.343784033320844 ], [ 1256153.866195535287261, 5546281.343784033320844 ], [ 1256156.787521412596107, 5546280.174676707945764 ] ] ] ] } },
{ "type": "Feature", "properties": { "id": 12647, "street_cells": 1742.721398217976, "yard_cells": 0.0, "num_areas": 8.0 }, "geometry": { "type": "MultiPolygon", "coordinates": [ [ [ [ 1261449.034566706512123, 5542981.343784033320844 ], [ 1261549.034566706512123, 5542981.343784033320844 ], [ 1261549.034566706512123, 5542881.343784033320844 ], [ 1261449.034566706512123, 5542881.343784033320844 ], [ 1261449.034566706512123, 5542981.343784033320844 ] ] ] ] } },
{ "type": "Feature", "properties": { "id": 12799, "street_cells": 1568.68544799611, "yard_cells": 0.0, "num_areas": 7.0 }, "geometry": { "type": "MultiPolygon", "coordinates": [ [ [ [ 1261549.034566706512123, 5543681.343784033320844 ], [ 1261649.034566706512123, 5543681.343784033320844 ], [ 1261649.034566706512123, 5543581.343784033320844 ], [ 1261549.034566706512123, 5543581.343784033320844 ], [ 1261549.034566706512123, 5543681.343784033320844 ] ] ] ] } },
{ "type": "Feature", "properties": { "id": 12954, "street_cells": 1569.6108285889029, "yard_cells": 0.0, "num_areas": 5.0 }, "geometry": { "type": "MultiPolygon", "coordinates": [ [ [ [ 1261649.034566706512123, 5544081.343784033320844 ], [ 1261749.034566706512123, 5544081.343784033320844 ], [ 1261749.034566706512123, 5543981.343784033320844 ], [ 1261649.034566706512123, 5543981.343784033320844 ], [ 1261649.034566706512123, 5544081.343784033320844 ] ] ] ] } },
{ "type": "Feature", "properties": { "id": 13113, "street_cells": 1312.0230608150359, "yard_cells": 0.0, "num_areas": 5.0 }, "geometry": { "type": "MultiPolygon", "coordinates": [ [ [ [ 1261749.034566706512123, 5544081.343784033320844 ], [ 1261849.034566706512123, 5544081.343784033320844 ], [ 1261849.034566706512123, 5543981.343784033320844 ], [ 1261749.034566706512123, 5543981.343784033320844 ], [ 1261749.034566706512123, 5544081.343784033320844 ] ] ] ] } },
{ "type": "Feature", "properties": { "id": 13123, "street_cells": 1536.8768272310499, "yard_cells": 0.0, "num_areas": 9.0 }, "geometry": { "type": "MultiPolygon", "coordinates": [ [ [ [ 1261749.034566706512123, 5543081.343784033320844 ], [ 1261849.034566706512123, 5543081.343784033320844 ], [ 1261849.034566706512123, 5542981.343784033320844 ], [ 1261749.034566706512123, 5542981.343784033320844 ], [ 1261749.034566706512123, 5543081.343784033320844 ] ] ] ] } },
{ "type": "Feature", "properties": { "id": 13272, "street_cells": 613.84396402835853, "yard_cells": 0.0, "num_areas": 2.0 }, "geometry": { "type": "MultiPolygon", "coordinates": [ [ [ [ 1261849.034566706512123, 5544081.343784033320844 ], [ 1261949.034566706512123, 5544081.343784033320844 ], [ 1261949.034566706512123, 5543981.343784033320844 ], [ 1261849.034566706512123, 5543981.343784033320844 ], [ 1261849.034566706512123, 5544081.343784033320844 ] ] ] ] } },
{ "type": "Feature", "properties": { "id": 13444, "street_cells": 869.76415376826196, "yard_cells": 0.0, "num_areas": 4.0 }, "geometry": { "type": "MultiPolygon", "coordinates": [ [ [ [ 1261949.034566706512123, 5542781.343784033320844 ], [ 1262049.034566706512123, 5542781.343784033320844 ], [ 1262049.034566706512123, 5542681.343784033320844 ], [ 1261949.034566706512123, 5542681.343784033320844 ], [ 1261949.034566706512123, 5542781.343784033320844 ] ] ] ] } },
{ "type": "Feature", "properties": { "id": 13603, "street_cells": 1483.393094307185, "yard_cells": 0.0, "num_areas": 4.0 }, "geometry": { "type": "MultiPolygon", "coordinates": [ [ [ [ 1262049.034566706512123, 5542781.343784033320844 ], [ 1262149.034566706512123, 5542781.343784033320844 ], [ 1262149.034566706512123, 5542681.343784033320844 ], [ 1262049.034566706512123, 5542681.343784033320844 ], [ 1262049.034566706512123, 5542781.343784033320844 ] ] ] ] } },
{ "type": "Feature", "properties": { "id": 13604, "street_cells": 1440.13347388804, "yard_cells": 0.0, "num_areas": 2.0 }, "geometry": { "type": "MultiPolygon", "coordinates": [ [ [ [ 1262049.034566706512123, 5542681.343784033320844 ], [ 1262149.034566706512123, 5542681.343784033320844 ], [ 1262149.034566706512123, 5542581.343784033320844 ], [ 1262049.034566706512123, 5542581.343784033320844 ], [ 1262049.034566706512123, 5542681.343784033320844 ] ] ] ] } },
{ "type": "Feature", "properties": { "id": 13605, "street_cells": 1136.7316502928729, "yard_cells": 0.0, "num_areas": 2.0 }, "geometry": { "type": "MultiPolygon", "coordinates": [ [ [ [ 1262049.034566706512123, 5542581.343784033320844 ], [ 1262149.034566706512123, 5542581.343784033320844 ], [ 1262149.034566706512123, 5542481.343784033320844 ], [ 1262049.034566706512123, 5542481.343784033320844 ], [ 1262049.034566706512123, 5542581.343784033320844 ] ] ] ] } },
{ "type": "Feature", "properties": { "id": 13754, "street_cells": 1181.136093242467, "yard_cells": 0.0, "num_areas": 6.0 }, "geometry": { "type": "MultiPolygon", "coordinates": [ [ [ [ 1262149.034566706512123, 5543581.343784033320844 ], [ 1262249.034566706512123, 5543581.343784033320844 ], [ 1262249.034566706512123, 5543481.343784033320844 ], [ 1262149.034566706512123, 5543481.343784033320844 ], [ 1262149.034566706512123, 5543581.343784033320844 ] ] ] ] } },
{ "type": "Feature", "properties": { "id": 13760, "street_cells": 1445.403298640251, "yard_cells": 0.0, "num_areas": 1.0 }, "geometry": { "type": "MultiPolygon", "coordinates": [ [ [ [ 1262149.034566706512123, 5542981.343784033320844 ], [ 1262249.034566706512123, 5542981.343784033320844 ], [ 1262249.034566706512123, 5542881.343784033320844 ], [ 1262149.034566706512123, 5542881.343784033320844 ], [ 1262149.034566706512123, 5542981.343784033320844 ] ] ] ] } },
{ "type": "Feature", "properties": { "id": 13761, "street_cells": 1236.721829015017, "yard_cells": 0.0, "num_areas": 2.0 }, "geometry": { "type": "MultiPolygon", "coordinates": [ [ [ [ 1262149.034566706512123, 5542881.343784033320844 ], [ 1262249.034566706512123, 5542881.343784033320844 ], [ 1262249.034566706512123, 5542781.343784033320844 ], [ 1262149.034566706512123, 5542781.343784033320844 ], [ 1262149.034566706512123, 5542881.343784033320844 ] ] ] ] } },
{ "type": "Feature", "properties": { "id": 13911, "street_cells": 1390.968947345018, "yard_cells": 0.0, "num_areas": 5.0 }, "geometry": { "type": "MultiPolygon", "coordinates": [ [ [ [ 1262249.034566706512123, 5543781.343784033320844 ], [ 1262349.034566706512123, 5543781.343784033320844 ], [ 1262349.034566706512123, 5543681.343784033320844 ], [ 1262249.034566706512123, 5543681.343784033320844 ], [ 1262249.034566706512123, 5543781.343784033320844 ] ] ] ] } },
{ "type": "Feature", "properties": { "id": 13912, "street_cells": 1722.307745569944, "yard_cells": 0.0, "num_areas": 3.0 }, "geometry": { "type": "MultiPolygon", "coordinates": [ [ [ [ 1262249.034566706512123, 5543681.343784033320844 ], [ 1262349.034566706512123, 5543681.343784033320844 ], [ 1262349.034566706512123, 5543581.343784033320844 ], [ 1262249.034566706512123, 5543581.343784033320844 ], [ 1262249.034566706512123, 5543681.343784033320844 ] ] ] ] } },
{ "type": "Feature", "properties": { "id": 13919, "street_cells": 1434.739047622681, "yard_cells": 0.0, "num_areas": 7.0 }, "geometry": { "type": "MultiPolygon", "coordinates": [ [ [ [ 1262249.034566706512123, 5542981.343784033320844 ], [ 1262349.034566706512123, 5542981.343784033320844 ], [ 1262349.034566706512123, 5542881.343784033320844 ], [ 1262249.034566706512123, 5542881.343784033320844 ], [ 1262249.034566706512123, 5542981.343784033320844 ] ] ] ] } },
{ "type": "Feature", "properties": { "id": 13935, "street_cells": 1417.3909335374831, "yard_cells": 0.0, "num_areas": 7.0 }, "geometry": { "type": "MultiPolygon", "coordinates": [ [ [ [ 1262249.034566706512123, 5541381.343784033320844 ], [ 1262349.034566706512123, 5541381.343784033320844 ], [ 1262349.034566706512123, 5541281.343784033320844 ], [ 1262249.034566706512123, 5541281.343784033320844 ], [ 1262249.034566706512123, 5541381.343784033320844 ] ] ] ] } },
{ "type": "Feature", "properties": { "id": 14028, "street_cells": 1465.28684796691, "yard_cells": 0.0, "num_areas": 1.0 }, "geometry": { "type": "MultiPolygon", "coordinates": [ [ [ [ 1262375.48984845308587, 5547965.865910427644849 ], [ 1262417.790723364334553, 5547955.285331383347511 ], [ 1262449.034566706512123, 5547947.086314657703042 ], [ 1262449.034566706512123, 5547881.343784033320844 ], [ 1262349.034566706512123, 5547881.343784033320844 ], [ 1262349.034566706512123, 5547972.848144100047648 ], [ 1262375.48984845308587, 5547965.865910427644849 ] ] ] ] } },
{ "type": "Feature", "properties": { "id": 14069, "street_cells": 1052.77766469419, "yard_cells": 0.0, "num_areas": 5.0 }, "geometry": { "type": "MultiPolygon", "coordinates": [ [ [ [ 1262349.034566706512123, 5543881.343784033320844 ], [ 1262449.034566706512123, 5543881.343784033320844 ], [ 1262449.034566706512123, 5543781.343784033320844 ], [ 1262349.034566706512123, 5543781.343784033320844 ], [ 1262349.034566706512123, 5543881.343784033320844 ] ] ] ] } },
{ "type": "Feature", "properties": { "id": 14070, "street_cells": 1668.9666350066659, "yard_cells": 0.0, "num_areas": 5.0 }, "geometry": { "type": "MultiPolygon", "coordinates": [ [ [ [ 1262349.034566706512123, 5543781.343784033320844 ], [ 1262449.034566706512123, 5543781.343784033320844 ], [ 1262449.034566706512123, 5543681.343784033320844 ], [ 1262349.034566706512123, 5543681.343784033320844 ], [ 1262349.034566706512123, 5543781.343784033320844 ] ] ] ] } },
{ "type": "Feature", "properties": { "id": 14071, "street_cells": 1264.2905043601991, "yard_cells": 0.0, "num_areas": 5.0 }, "geometry": { "type": "MultiPolygon", "coordinates": [ [ [ [ 1262349.034566706512123, 5543681.343784033320844 ], [ 1262449.034566706512123, 5543681.343784033320844 ], [ 1262449.034566706512123, 5543581.343784033320844 ], [ 1262349.034566706512123, 5543581.343784033320844 ], [ 1262349.034566706512123, 5543681.343784033320844 ] ] ] ] } },
{ "type": "Feature", "properties": { "id": 14082, "street_cells": 795.84867154657843, "yard_cells": 0.0, "num_areas": 4.0 }, "geometry": { "type": "MultiPolygon", "coordinates": [ [ [ [ 1262349.034566706512123, 5542581.343784033320844 ], [ 1262449.034566706512123, 5542581.343784033320844 ], [ 1262449.034566706512123, 5542481.343784033320844 ], [ 1262349.034566706512123, 5542481.343784033320844 ], [ 1262349.034566706512123, 5542581.343784033320844 ] ] ] ] } },
{ "type": "Feature", "properties": { "id": 14223, "street_cells": 913.16126933023338, "yard_cells": 0.0, "num_areas": 2.0 }, "geometry": { "type": "MultiPolygon", "coordinates": [ [ [ [ 1262449.034566706512123, 5544381.343784033320844 ], [ 1262549.034566706512123, 5544381.343784033320844 ], [ 1262549.034566706512123, 5544281.343784033320844 ], [ 1262449.034566706512123, 5544281.343784033320844 ], [ 1262449.034566706512123, 5544381.343784033320844 ] ] ] ] } },
{ "type": "Feature", "properties": { "id": 14226, "street_cells": 1316.840953985602, "yard_cells": 0.0, "num_areas": 4.0 }, "geometry": { "type": "MultiPolygon", "coordinates": [ [ [ [ 1262449.034566706512123, 5544081.343784033320844 ], [ 1262549.034566706512123, 5544081.343784033320844 ], [ 1262549.034566706512123, 5543981.343784033320844 ], [ 1262449.034566706512123, 5543981.343784033320844 ], [ 1262449.034566706512123, 5544081.343784033320844 ] ] ] ] } },
{ "type": "Feature", "properties": { "id": 14228, "street_cells": 1940.8797917783261, "yard_cells": 0.0, "num_areas": 4.0 }, "geometry": { "type": "MultiPolygon", "coordinates": [ [ [ [ 1262449.034566706512123, 5543881.343784033320844 ], [ 1262549.034566706512123, 5543881.343784033320844 ], [ 1262549.034566706512123, 5543781.343784033320844 ], [ 1262449.034566706512123, 5543781.343784033320844 ], [ 1262449.034566706512123, 5543881.343784033320844 ] ] ] ] } },
{ "type": "Feature", "properties": { "id": 14243, "street_cells": 1167.2480982303621, "yard_cells": 0.0, "num_areas": 5.0 }, "geometry": { "type": "MultiPolygon", "coordinates": [ [ [ [ 1262449.034566706512123, 5542381.343784033320844 ], [ 1262549.034566706512123, 5542381.343784033320844 ], [ 1262549.034566706512123, 5542281.343784033320844 ], [ 1262449.034566706512123, 5542281.343784033320844 ], [ 1262449.034566706512123, 5542381.343784033320844 ] ] ] ] } },
{ "type": "Feature", "properties": { "id": 14402, "street_cells": 888.39782275483026, "yard_cells": 0.0, "num_areas": 0.0 }, "geometry": { "type": "MultiPolygon", "coordinates": [ [ [ [ 1262549.034566706512123, 5542381.343784033320844 ], [ 1262649.034566706512123, 5542381.343784033320844 ], [ 1262649.034566706512123, 5542281.343784033320844 ], [ 1262549.034566706512123, 5542281.343784033320844 ], [ 1262549.034566706512123, 5542381.343784033320844 ] ] ] ] } },
{ "type": "Feature", "properties": { "id": 14565, "street_cells": 1045.5621995493771, "yard_cells": 0.0, "num_areas": 4.0 }, "geometry": { "type": "MultiPolygon", "coordinates": [ [ [ [ 1262649.034566706512123, 5541981.343784033320844 ], [ 1262749.034566706512123, 5541981.343784033320844 ], [ 1262749.034566706512123, 5541881.343784033320844 ], [ 1262649.034566706512123, 5541881.343784033320844 ], [ 1262649.034566706512123, 5541981.343784033320844 ] ] ] ] } },
{ "type": "Feature", "properties": { "id": 14704, "street_cells": 1828.7233809441329, "yard_cells": 0.0, "num_areas": 5.0 }, "geometry": { "type": "MultiPolygon", "coordinates": [ [ [ [ 1262749.034566706512123, 5543981.343784033320844 ], [ 1262849.034566706512123, 5543981.343784033320844 ], [ 1262849.034566706512123, 5543881.343784033320844 ], [ 1262749.034566706512123, 5543881.343784033320844 ], [ 1262749.034566706512123, 5543981.343784033320844 ] ] ] ] } },
{ "type": "Feature", "properties": { "id": 14860, "street_cells": 897.60038419738407, "yard_cells": 0.0, "num_areas": 2.0 }, "geometry": { "type": "MultiPolygon", "coordinates": [ [ [ [ 1262849.034566706512123, 5544281.343784033320844 ], [ 1262949.034566706512123, 5544281.343784033320844 ], [ 1262949.034566706512123, 5544181.343784033320844 ], [ 1262849.034566706512123, 5544181.343784033320844 ], [ 1262849.034566706512123, 5544281.343784033320844 ] ] ] ] } },
{ "type": "Feature", "properties": { "id": 15019, "street_cells": 1727.8739809453491, "yard_cells": 0.0, "num_areas": 4.0 }, "geometry": { "type": "MultiPolygon", "coordinates": [ [ [ [ 1262949.034566706512123, 5544281.343784033320844 ], [ 1263049.034566706512123, 5544281.343784033320844 ], [ 1263049.034566706512123, 5544181.343784033320844 ], [ 1262949.034566706512123, 5544181.343784033320844 ], [ 1262949.034566706512123, 5544281.343784033320844 ] ] ] ] } },
{ "type": "Feature", "properties": { "id": 15029, "street_cells": 606.88232388794438, "yard_cells": 0.0, "num_areas": 1.0 }, "geometry": { "type": "MultiPolygon", "coordinates": [ [ [ [ 1262949.034566706512123, 5543281.343784033320844 ], [ 1263049.034566706512123, 5543281.343784033320844 ], [ 1263049.034566706512123, 5543181.343784033320844 ], [ 1262949.034566706512123, 5543181.343784033320844 ], [ 1262949.034566706512123, 5543281.343784033320844 ] ] ] ] } },
{ "type": "Feature", "properties": { "id": 15039, "street_cells": 1628.5461622953419, "yard_cells": 0.0, "num_areas": 3.0 }, "geometry": { "type": "MultiPolygon", "coordinates": [ [ [ [ 1262949.034566706512123, 5542281.343784033320844 ], [ 1263049.034566706512123, 5542281.343784033320844 ], [ 1263049.034566706512123, 5542181.343784033320844 ], [ 1262949.034566706512123, 5542181.343784033320844 ], [ 1262949.034566706512123, 5542281.343784033320844 ] ] ] ] } },
{ "type": "Feature", "properties": { "id": 15175, "street_cells": 1558.2061469733719, "yard_cells": 0.0, "num_areas": 7.0 }, "geometry": { "type": "MultiPolygon", "coordinates": [ [ [ [ 1263049.034566706512123, 5544581.343784033320844 ], [ 1263149.034566706512123, 5544581.343784033320844 ], [ 1263149.034566706512123, 5544481.343784033320844 ], [ 1263049.034566706512123, 5544481.343784033320844 ], [ 1263049.034566706512123, 5544581.343784033320844 ] ] ] ] } },
{ "type": "Feature", "properties": { "id": 15176, "street_cells": 1842.431815144419, "yard_cells": 0.0, "num_areas": 5.0 }, "geometry": { "type": "MultiPolygon", "coordinates": [ [ [ [ 1263049.034566706512123, 5544481.343784033320844 ], [ 1263149.034566706512123, 5544481.343784033320844 ], [ 1263149.034566706512123, 5544381.343784033320844 ], [ 1263049.034566706512123, 5544381.343784033320844 ], [ 1263049.034566706512123, 5544481.343784033320844 ] ] ] ] } },
{ "type": "Feature", "properties": { "id": 15335, "street_cells": 936.68925000056629, "yard_cells": 0.0, "num_areas": 5.0 }, "geometry": { "type": "MultiPolygon", "coordinates": [ [ [ [ 1263149.034566706512123, 5544481.343784033320844 ], [ 1263249.034566706512123, 5544481.343784033320844 ], [ 1263249.034566706512123, 5544381.343784033320844 ], [ 1263149.034566706512123, 5544381.343784033320844 ], [ 1263149.034566706512123, 5544481.343784033320844 ] ] ] ] } },
{ "type": "Feature", "properties": { "id": 15659, "street_cells": 1848.2827634036539, "yard_cells": 0.0, "num_areas": 8.0 }, "geometry": { "type": "MultiPolygon", "coordinates": [ [ [ [ 1263349.034566706512123, 5543881.343784033320844 ], [ 1263449.034566706512123, 5543881.343784033320844 ], [ 1263449.034566706512123, 5543781.343784033320844 ], [ 1263349.034566706512123, 5543781.343784033320844 ], [ 1263349.034566706512123, 5543881.343784033320844 ] ] ] ] } },
{ "type": "Feature", "properties": { "id": 16125, "street_cells": 902.61655021607874, "yard_cells": 0.0, "num_areas": 2.0 }, "geometry": { "type": "MultiPolygon", "coordinates": [ [ [ [ 1263649.034566706512123, 5544981.343784033320844 ], [ 1263749.034566706512123, 5544981.343784033320844 ], [ 1263749.034566706512123, 5544881.343784033320844 ], [ 1263649.034566706512123, 5544881.343784033320844 ], [ 1263649.034566706512123, 5544981.343784033320844 ] ] ] ] } },
{ "type": "Feature", "properties": { "id": 16280, "street_cells": 1801.427412211895, "yard_cells": 0.0, "num_areas": 4.0 }, "geometry": { "type": "MultiPolygon", "coordinates": [ [ [ [ 1263749.034566706512123, 5545381.343784033320844 ], [ 1263849.034566706512123, 5545381.343784033320844 ], [ 1263849.034566706512123, 5545281.343784033320844 ], [ 1263749.034566706512123, 5545281.343784033320844 ], [ 1263749.034566706512123, 5545381.343784033320844 ] ] ] ] } },
{ "type": "Feature", "properties": { "id": 16731, "street_cells": 951.74081876724961, "yard_cells": 0.0, "num_areas": 1.0 }, "geometry": { "type": "MultiPolygon", "coordinates": [ [ [ [ 1264049.034566706512123, 5547981.343784033320844 ], [ 1264149.034566706512123, 5547981.343784033320844 ], [ 1264149.034566706512123, 5547881.343784033320844 ], [ 1264049.034566706512123, 5547881.343784033320844 ], [ 1264049.034566706512123, 5547981.343784033320844 ] ] ] ] } },
{ "type": "Feature", "properties": { "id": 17095, "street_cells": 1383.824653363228, "yard_cells": 0.0, "num_areas": 4.0 }, "geometry": { "type": "MultiPolygon", "coordinates": [ [ [ [ 1264249.034566706512123, 5543381.343784033320844 ], [ 1264349.034566706512123, 5543381.343784033320844 ], [ 1264349.034566706512123, 5543281.343784033320844 ], [ 1264249.034566706512123, 5543281.343784033320844 ], [ 1264249.034566706512123, 5543381.343784033320844 ] ] ] ] } },
{ "type": "Feature", "properties": { "id": 19790, "street_cells": 1076.5883107922971, "yard_cells": 0.0, "num_areas": 3.0 }, "geometry": { "type": "MultiPolygon", "coordinates": [ [ [ [ 1265949.034566706512123, 5544181.343784033320844 ], [ 1266049.034566706512123, 5544181.343784033320844 ], [ 1266049.034566706512123, 5544081.343784033320844 ], [ 1265949.034566706512123, 5544081.343784033320844 ], [ 1265949.034566706512123, 5544181.343784033320844 ] ] ] ] } },
{ "type": "Feature", "properties": { "id": 25385, "street_cells": 1158.612086240202, "yard_cells": 0.0, "num_areas": 2.0 }, "geometry": { "type": "MultiPolygon", "coordinates": [ [ [ [ 1269449.034566706512123, 5541181.343784033320844 ], [ 1269549.034566706512123, 5541181.343784033320844 ], [ 1269549.034566706512123, 5541081.343784033320844 ], [ 1269449.034566706512123, 5541081.343784033320844 ], [ 1269449.034566706512123, 5541181.343784033320844 ] ] ] ] } },
{ "type": "Feature", "properties": { "id": 25687, "street_cells": 943.74533440768721, "yard_cells": 0.0, "num_areas": 1.0 }, "geometry": { "type": "MultiPolygon", "coordinates": [ [ [ [ 1269649.034566706512123, 5542781.343784033320844 ], [ 1269749.034566706512123, 5542781.343784033320844 ], [ 1269749.034566706512123, 5542681.343784033320844 ], [ 1269649.034566706512123, 5542681.343784033320844 ], [ 1269649.034566706512123, 5542781.343784033320844 ] ] ] ] } },
{ "type": "Feature", "properties": { "id": 26661, "street_cells": 1694.990135526657, "yard_cells": 0.0, "num_areas": 2.0 }, "geometry": { "type": "MultiPolygon", "coordinates": [ [ [ [ 1270249.034566706512123, 5540711.852784902788699 ], [ 1270249.034566706512123, 5540781.343784033320844 ], [ 1270349.034566706512123, 5540781.343784033320844 ], [ 1270349.034566706512123, 5540681.343784033320844 ], [ 1270314.085003803484142, 5540681.343784033320844 ], [ 1270249.034566706512123, 5540711.852784902788699 ] ] ] ] } },
{ "type": "Feature", "properties": { "id": 26980, "street_cells": 1406.195947386324, "yard_cells": 0.0, "num_areas": 1.0 }, "geometry": { "type": "MultiPolygon", "coordinates": [ [ [ [ 1270449.034566706512123, 5540618.051721509546041 ], [ 1270449.034566706512123, 5540681.343784033320844 ], [ 1270549.034566706512123, 5540681.343784033320844 ], [ 1270549.034566706512123, 5540581.343784033320844 ], [ 1270527.302202803315595, 5540581.343784033320844 ], [ 1270449.034566706512123, 5540618.051721509546041 ] ] ] ] } }
]
}
