{
"type": "FeatureCollection",
"name": "result",
"crs": { "type": "name", "properties": { "name": "urn:ogc:def:crs:EPSG::3857" } },
"features": [
{ "type": "Feature", "properties": { "id": 1011, "street_cells": 0.0, "yard_cells": 3544.647637635469, "num_areas": 1.0 }, "geometry": { "type": "MultiPolygon", "coordinates": [ [ [ [ 1254149.034566706512123, 5545881.343784033320844 ], [ 1254249.034566706512123, 5545881.343784033320844 ], [ 1254249.034566706512123, 5545781.343784033320844 ], [ 1254149.034566706512123, 5545781.343784033320844 ], [ 1254149.034566706512123, 5545881.343784033320844 ] ] ] ] } },
{ "type": "Feature", "properties": { "id": 3871, "street_cells": 2803.432702708245, "yard_cells": 2991.4182432740931, "num_areas": 2.0 }, "geometry": { "type": "MultiPolygon", "coordinates": [ [ [ [ 1255949.034566706512123, 5546081.343784033320844 ], [ 1256049.034566706512123, 5546081.343784033320844 ], [ 1256049.034566706512123, 5545981.343784033320844 ], [ 1255949.034566706512123, 5545981.343784033320844 ], [ 1255949.034566706512123, 5546081.343784033320844 ] ] ] ] } },
{ "type": "Feature", "properties": { "id": 4029, "street_cells": 2236.844384583459, "yard_cells": 4407.8890385776767, "num_areas": 2.0 }, "geometry": { "type": "MultiPolygon", "coordinates": [ [ [ [ 1256049.034566706512123, 5546181.343784033320844 ], [ 1256149.034566706512123, 5546181.343784033320844 ], [ 1256149.034566706512123, 5546081.343784033320844 ], [ 1256049.034566706512123, 5546081.343784033320844 ], [ 1256049.034566706512123, 5546181.343784033320844 ] ] ] ] } },
{ "type": "Feature", "properties": { "id": 4187, "street_cells": 535.54536660183226, "yard_cells": 4894.5001109577724, "num_areas": 1.0 }, "geometry": { "type": "MultiPolygon", "coordinates": [ [ [ [ 1256156.787521412596107, 5546280.174676707945764 ], [ 1256157.504205605946481, 5546281.343784033320844 ], [ 1256249.034566706512123, 5546281.343784033320844 ], [ 1256249.034566706512123, 5546181.343784033320844 ], [ 1256149.034566706512123, 5546181.343784033320844 ], [ 1256149.034566706512123, 5546281.343784033320844 ], [ 1256153.866195535287261, 5546281.343784033320844 ], [ 1256156.787521412596107, 5546280.174676707945764 ] ] ] ] } },
{ "type": "Feature", "properties": { "id": 4669, "street_cells": 0.0, "yard_cells": 6462.2300612442205, "num_areas": 2.0 }, "geometry": { "type": "MultiPolygon", "coordinates": [ [ [ [ 1256449.034566706512123, 5545781.343784033320844 ], [ 1256549.034566706512123, 5545781.343784033320844 ], [ 1256549.034566706512123, 5545681.343784033320844 ], [ 1256449.034566706512123, 5545681.343784033320844 ], [ 1256449.034566706512123, 5545781.343784033320844 ] ] ] ] } },
{ "type": "Feature", "properties": { "id": 4828, "street_cells": 0.0, "yard_cells": 6172.3530108258128, "num_areas": 2.0 }, "geometry": { "type": "MultiPolygon", "coordinates": [ [ [ [ 1256549.034566706512123, 5545781.343784033320844 ], [ 1256649.034566706512123, 5545781.343784033320844 ], [ 1256649.034566706512123, 5545681.343784033320844 ], [ 1256549.034566706512123, 5545681.343784033320844 ], [ 1256549.034566706512123, 5545781.343784033320844 ] ] ] ] } },
{ "type": "Feature", "properties": { "id": 6583, "street_cells": 0.0, "yard_cells": 4432.7083199284971, "num_areas": 1.0 }, "geometry": { "type": "MultiPolygon", "coordinates": [ [ [ [ 1257649.034566706512123, 5545181.343784033320844 ], [ 1257749.034566706512123, 5545181.343784033320844 ], [ 1257749.034566706512123, 5545081.343784033320844 ], [ 1257649.034566706512123, 5545081.343784033320844 ], [ 1257649.034566706512123, 5545181.343784033320844 ] ] ] ] } },
{ "type": "Feature", "properties": { "id": 6899, "street_cells": 0.0, "yard_cells": 4983.0809635519981, "num_areas": 1.0 }, "geometry": { "type": "MultiPolygon", "coordinates": [ [ [ [ 1257849.034566706512123, 5545381.343784033320844 ], [ 1257949.034566706512123, 5545381.343784033320844 ], [ 1257949.034566706512123, 5545281.343784033320844 ], [ 1257849.034566706512123, 5545281.343784033320844 ], [ 1257849.034566706512123, 5545381.343784033320844 ] ] ] ] } },
{ "type": "Feature", "properties": { "id": 8168, "street_cells": 108.17653667032759, "yard_cells": 6201.5645427964628, "num_areas": 1.0 }, "geometry": { "type": "MultiPolygon", "coordinates": [ [ [ [ 1258657.456613904098049, 5545597.839171510189772 ], [ 1258649.752302787732333, 5545625.118757156655192 ], [ 1258649.034566706512123, 5545629.233006653375924 ], [ 1258649.034566706512123, 5545681.343784033320844 ], [ 1258749.034566706512123, 5545681.343784033320844 ], [ 1258749.034566706512123, 5545581.343784033320844 ], [ 1258662.115259416401386, 5545581.343784033320844 ], [ 1258657.456613904098049, 5545597.839171510189772 ] ] ] ] } },
{ "type": "Feature", "properties": { "id": 9605, "street_cells": 0.0, "yard_cells": 3291.2191305011511, "num_areas": 1.0 }, "geometry": { "type": "MultiPolygon", "coordinates": [ [ [ [ 1259549.034566706512123, 5545081.343784033320844 ], [ 1259649.034566706512123, 5545081.343784033320844 ], [ 1259649.034566706512123, 5544981.343784033320844 ], [ 1259549.034566706512123, 5544981.343784033320844 ], [ 1259549.034566706512123, 5545081.343784033320844 ] ] ] ] } },
{ "type": "Feature", "properties": { "id": 10283, "street_cells": 0.0, "yard_cells": 6115.16, "num_areas": 1.0 }, "geometry": { "type": "MultiPolygon", "coordinates": [ [ [ [ 1259991.531665486982092, 5540782.339297270402312 ], [ 1259990.901164243463427, 5540791.726616402156651 ], [ 1259988.733018100494519, 5540816.046203444711864 ], [ 1259986.528837798163295, 5540849.934372566640377 ], [ 1259985.24576376657933, 5540870.899737938307226 ], [ 1259984.635777883464471, 5540877.547364983707666 ], [ 1259984.258464773185551, 5540881.343784033320844 ], [ 1260049.034566706512123, 5540881.343784033320844 ], [ 1260049.034566706512123, 5540781.343784033320844 ], [ 1259991.588462043786421, 5540781.343784033320844 ], [ 1259991.531665486982092, 5540782.339297270402312 ] ] ] ] } },
{ "type": "Feature", "properties": { "id": 11238, "street_cells": 0.0, "yard_cells": 5462.84, "num_areas": 1.0 }, "geometry": { "type": "MultiPolygon", "coordinates": [ [ [ [ 1260549.034566706512123, 5540714.097810216248035 ], [ 1260549.034566706512123, 5540781.343784033320844 ], [ 1260649.034566706512123, 5540781.343784033320844 ], [ 1260649.034566706512123, 5540739.312968728132546 ], [ 1260549.034566706512123, 5540714.097810216248035 ] ] ] ] } },
{ "type": "Feature", "properties": { "id": 11355, "street_cells": 0.0, "yard_cells": 4250.3722271323204, "num_areas": 1.0 }, "geometry": { "type": "MultiPolygon", "coordinates": [ [ [ [ 1260649.034566706512123, 5544981.343784033320844 ], [ 1260749.034566706512123, 5544981.343784033320844 ], [ 1260749.034566706512123, 5544881.343784033320844 ], [ 1260649.034566706512123, 5544881.343784033320844 ], [ 1260649.034566706512123, 5544981.343784033320844 ] ] ] ] } },
{ "type": "Feature", "properties": { "id": 11714, "street_cells": 0.0, "yard_cells": 7356.32, "num_areas": 1.0 }, "geometry": { "type": "MultiPolygon", "coordinates": [ [ [ [ 1260936.201223591342568, 5540867.225848003290594 ], [ 1260932.198500712634996, 5540853.459964393638074 ], [ 1260923.748987213242799, 5540830.252556262537837 ], [ 1260917.643438804661855, 5540816.938298035413027 ], [ 1260912.077890146989375, 5540802.485845232382417 ], [ 1260911.747216789517552, 5540801.824863846413791 ], [ 1260910.528916419716552, 5540802.294111916795373 ], [ 1260904.576178740477189, 5540790.342997859232128 ], [ 1260899.686977982753888, 5540781.343784033320844 ], [ 1260849.034566706512123, 5540781.343784033320844 ], [ 1260849.034566706512123, 5540881.343784033320844 ], [ 1260940.065083894878626, 5540881.343784033320844 ], [ 1260936.201223591342568, 5540867.225848003290594 ] ] ] ] } },
{ "type": "Feature", "properties": { "id": 12836, "street_cells": 0.0, "yard_cells": 6823.67, "num_areas": 1.0 }, "geometry": { "type": "MultiPolygon", "coordinates": [ [ [ [ 1261578.202730288961902, 5539930.664667403325438 ], [ 1261612.989868142176419, 5539956.984068291261792 ], [ 1261617.344235641881824, 5539968.283311923965812 ], [ 1261616.181804121937603, 5539981.343784033320844 ], [ 1261649.034566706512123, 5539981.343784033320844 ], [ 1261649.034566706512123, 5539881.343784033320844 ], [ 1261549.034566706512123, 5539881.343784033320844 ], [ 1261549.034566706512123, 5539908.856879245489836 ], [ 1261578.202730288961902, 5539930.664667403325438 ] ] ] ] } },
{ "type": "Feature", "properties": { "id": 12848, "street_cells": 0.0, "yard_cells": 6044.06, "num_areas": 1.0 }, "geometry": { "type": "MultiPolygon", "coordinates": [ [ [ [ 1261606.745818680617958, 5538683.880728947930038 ], [ 1261559.657824468566105, 5538701.427439990453422 ], [ 1261549.034566706512123, 5538704.92969807703048 ], [ 1261549.034566706512123, 5538781.343784033320844 ], [ 1261628.05568180186674, 5538781.343784033320844 ], [ 1261606.745818680617958, 5538683.880728947930038 ] ] ] ] } },
{ "type": "Feature", "properties": { "id": 12994, "street_cells": 0.0, "yard_cells": 7080.38, "num_areas": 1.0 }, "geometry": { "type": "MultiPolygon", "coordinates": [ [ [ [ 1261664.217063456075266, 5540025.135464675724506 ], [ 1261673.532795017352328, 5540047.639998783357441 ], [ 1261694.968487672274932, 5540045.354863519780338 ], [ 1261745.741891429759562, 5540081.343784033320844 ], [ 1261749.034566706512123, 5540081.343784033320844 ], [ 1261749.034566706512123, 5539981.343784033320844 ], [ 1261649.034566706512123, 5539981.343784033320844 ], [ 1261649.034566706512123, 5540026.99965603929013 ], [ 1261664.217063456075266, 5540025.135464675724506 ] ] ] ] } },
{ "type": "Feature", "properties": { "id": 13269, "street_cells": 0.0, "yard_cells": 5781.3374241590509, "num_areas": 1.0 }, "geometry": { "type": "MultiPolygon", "coordinates": [ [ [ [ 1261849.034566706512123, 5544381.343784033320844 ], [ 1261949.034566706512123, 5544381.343784033320844 ], [ 1261949.034566706512123, 5544281.343784033320844 ], [ 1261849.034566706512123, 5544281.343784033320844 ], [ 1261849.034566706512123, 5544381.343784033320844 ] ] ] ] } },
{ "type": "Feature", "properties": { "id": 13271, "street_cells": 0.0, "yard_cells": 5188.0943920463324, "num_areas": 1.0 }, "geometry": { "type": "MultiPolygon", "coordinates": [ [ [ [ 1261849.034566706512123, 5544181.343784033320844 ], [ 1261949.034566706512123, 5544181.343784033320844 ], [ 1261949.034566706512123, 5544081.343784033320844 ], [ 1261849.034566706512123, 5544081.343784033320844 ], [ 1261849.034566706512123, 5544181.343784033320844 ] ] ] ] } },
{ "type": "Feature", "properties": { "id": 13272, "street_cells": 613.84396402835841, "yard_cells": 5303.8178138281219, "num_areas": 2.0 }, "geometry": { "type": "MultiPolygon", "coordinates": [ [ [ [ 1261849.034566706512123, 5544081.343784033320844 ], [ 1261949.034566706512123, 5544081.343784033320844 ], [ 1261949.034566706512123, 5543981.343784033320844 ], [ 1261849.034566706512123, 5543981.343784033320844 ], [ 1261849.034566706512123, 5544081.343784033320844 ] ] ] ] } },
{ "type": "Feature", "properties": { "id": 13323, "street_cells": 0.0, "yard_cells": 6382.3726268857718, "num_areas": 1.0 }, "geometry": { "type": "MultiPolygon", "coordinates": [ [ [ [ 1261898.397833101917058, 5538942.569256057962775 ], [ 1261860.331842046696693, 5538939.009273703210056 ], [ 1261849.034566706512123, 5538891.491258864291012 ], [ 1261849.034566706512123, 5538981.343784033320844 ], [ 1261949.034566706512123, 5538981.343784033320844 ], [ 1261949.034566706512123, 5538881.343784033320844 ], [ 1261916.875458447495475, 5538881.343784033320844 ], [ 1261901.28469326486811, 5538940.323668002150953 ], [ 1261899.048341100336984, 5538940.118713895790279 ], [ 1261898.397833101917058, 5538942.569256057962775 ] ] ] ] } },
{ "type": "Feature", "properties": { "id": 13760, "street_cells": 1445.403298640251, "yard_cells": 15.746275370941509, "num_areas": 1.0 }, "geometry": { "type": "MultiPolygon", "coordinates": [ [ [ [ 1262149.034566706512123, 5542981.343784033320844 ], [ 1262249.034566706512123, 5542981.343784033320844 ], [ 1262249.034566706512123, 5542881.343784033320844 ], [ 1262149.034566706512123, 5542881.343784033320844 ], [ 1262149.034566706512123, 5542981.343784033320844 ] ] ] ] } },
{ "type": "Feature", "properties": { "id": 13802, "street_cells": 189.65101115703581, "yard_cells": 7136.9806219562879, "num_areas": 1.0 }, "geometry": { "type": "MultiPolygon", "coordinates": [ [ [ [ 1262171.915003328118473, 5538687.665571941062808 ], [ 1262169.601003646152094, 5538697.319710365496576 ], [ 1262167.743318886030465, 5538701.968175245448947 ], [ 1262163.26491667330265, 5538712.483548709191382 ], [ 1262156.696069306926802, 5538726.454741650260985 ], [ 1262154.908804011298344, 5538734.457685551606119 ], [ 1262153.46493012085557, 5538741.741563105024397 ], [ 1262153.343315846519545, 5538748.178565218113363 ], [ 1262157.301770348101854, 5538769.206668749451637 ], [ 1262160.167399529367685, 5538781.343784033320844 ], [ 1262249.034566706512123, 5538781.343784033320844 ], [ 1262249.034566706512123, 5538681.343784033320844 ], [ 1262172.24741917103529, 5538681.343784033320844 ], [ 1262171.915003328118473, 5538687.665571941062808 ] ] ] ] } },
{ "type": "Feature", "properties": { "id": 13912, "street_cells": 1722.307745569944, "yard_cells": 1486.5321090109651, "num_areas": 3.0 }, "geometry": { "type": "MultiPolygon", "coordinates": [ [ [ [ 1262249.034566706512123, 5543681.343784033320844 ], [ 1262349.034566706512123, 5543681.343784033320844 ], [ 1262349.034566706512123, 5543581.343784033320844 ], [ 1262249.034566706512123, 5543581.343784033320844 ], [ 1262249.034566706512123, 5543681.343784033320844 ] ] ] ] } },
{ "type": "Feature", "properties": { "id": 14028, "street_cells": 1465.28684796691, "yard_cells": 4198.2739791832864, "num_areas": 1.0 }, "geometry": { "type": "MultiPolygon", "coordinates": [ [ [ [ 1262375.48984845308587, 5547965.865910427644849 ], [ 1262417.790723364334553, 5547955.285331383347511 ], [ 1262449.034566706512123, 5547947.086314657703042 ], [ 1262449.034566706512123, 5547881.343784033320844 ], [ 1262349.034566706512123, 5547881.343784033320844 ], [ 1262349.034566706512123, 5547972.848144100047648 ], [ 1262375.48984845308587, 5547965.865910427644849 ] ] ] ] } },
{ "type": "Feature", "properties": { "id": 14223, "street_cells": 913.16126933023338, "yard_cells": 5990.4139384850869, "num_areas": 2.0 }, "geometry": { "type": "MultiPolygon", "coordinates": [ [ [ [ 1262449.034566706512123, 5544381.343784033320844 ], [ 1262549.034566706512123, 5544381.343784033320844 ], [ 1262549.034566706512123, 5544281.343784033320844 ], [ 1262449.034566706512123, 5544281.343784033320844 ], [ 1262449.034566706512123, 5544381.343784033320844 ] ] ] ] } },
{ "type": "Feature", "properties": { "id": 14402, "street_cells": 888.39782275483014, "yard_cells": 0.0, "num_areas": 0.0 }, "geometry": { "type": "MultiPolygon", "coordinates": [ [ [ [ 1262549.034566706512123, 5542381.343784033320844 ], [ 1262649.034566706512123, 5542381.343784033320844 ], [ 1262649.034566706512123, 5542281.343784033320844 ], [ 1262549.034566706512123, 5542281.343784033320844 ], [ 1262549.034566706512123, 5542381.343784033320844 ] ] ] ] } },
{ "type": "Feature", "properties": { "id": 14746, "street_cells": 0.0, "yard_cells": 7426.5785875990987, "num_areas": 2.0 }, "geometry": { "type": "MultiPolygon", "coordinates": [ [ [ [ 1262749.034566706512123, 5539781.343784033320844 ], [ 1262849.034566706512123, 5539781.343784033320844 ], [ 1262849.034566706512123, 5539681.343784033320844 ], [ 1262749.034566706512123, 5539681.343784033320844 ], [ 1262749.034566706512123, 5539781.343784033320844 ] ] ] ] } },
{ "type": "Feature", "properties": { "id": 14815, "street_cells": 0.0, "yard_cells": 5709.8686318099499, "num_areas": 1.0 }, "geometry": { "type": "MultiPolygon", "coordinates": [ [ [ [ 1262856.824378832709044, 5548692.623615019954741 ], [ 1262864.960433744592592, 5548701.918475833721459 ], [ 1262868.973779294174165, 5548709.428520628251135 ], [ 1262873.988727199379355, 5548723.443007201887667 ], [ 1262875.965886457124725, 5548735.640024397522211 ], [ 1262877.927452964475378, 5548747.292009118013084 ], [ 1262879.362834818661213, 5548759.504668554291129 ], [ 1262876.957076710648835, 5548779.723706606775522 ], [ 1262876.735392647795379, 5548781.343784033320844 ], [ 1262949.034566706512123, 5548781.343784033320844 ], [ 1262949.034566706512123, 5548681.343784033320844 ], [ 1262849.034566706512123, 5548681.343784033320844 ], [ 1262849.034566706512123, 5548682.640940180979669 ], [ 1262856.824378832709044, 5548692.623615019954741 ] ] ] ] } },
{ "type": "Feature", "properties": { "id": 14860, "street_cells": 897.60038419738419, "yard_cells": 6583.1357658728957, "num_areas": 2.0 }, "geometry": { "type": "MultiPolygon", "coordinates": [ [ [ [ 1262849.034566706512123, 5544281.343784033320844 ], [ 1262949.034566706512123, 5544281.343784033320844 ], [ 1262949.034566706512123, 5544181.343784033320844 ], [ 1262849.034566706512123, 5544181.343784033320844 ], [ 1262849.034566706512123, 5544281.343784033320844 ] ] ] ] } },
{ "type": "Feature", "properties": { "id": 15336, "street_cells": 4.4756828933956641, "yard_cells": 7012.5850294806442, "num_areas": 3.0 }, "geometry": { "type": "MultiPolygon", "coordinates": [ [ [ [ 1263149.034566706512123, 5544381.343784033320844 ], [ 1263249.034566706512123, 5544381.343784033320844 ], [ 1263249.034566706512123, 5544281.343784033320844 ], [ 1263149.034566706512123, 5544281.343784033320844 ], [ 1263149.034566706512123, 5544381.343784033320844 ] ] ] ] } },
{ "type": "Feature", "properties": { "id": 15440, "street_cells": 0.0, "yard_cells": 5350.52, "num_areas": 1.0 }, "geometry": { "type": "MultiPolygon", "coordinates": [ [ [ [ 1263269.841309723211452, 5549839.086666585877538 ], [ 1263249.034566706512123, 5549847.456630002707243 ], [ 1263249.034566706512123, 5549881.343784033320844 ], [ 1263349.034566706512123, 5549881.343784033320844 ], [ 1263349.034566706512123, 5549808.455762721598148 ], [ 1263269.841309723211452, 5549839.086666585877538 ] ] ] ] } },
{ "type": "Feature", "properties": { "id": 15655, "street_cells": 0.0, "yard_cells": 6607.2214195476836, "num_areas": 2.0 }, "geometry": { "type": "MultiPolygon", "coordinates": [ [ [ [ 1263349.034566706512123, 5544281.343784033320844 ], [ 1263449.034566706512123, 5544281.343784033320844 ], [ 1263449.034566706512123, 5544181.343784033320844 ], [ 1263349.034566706512123, 5544181.343784033320844 ], [ 1263349.034566706512123, 5544281.343784033320844 ] ] ] ] } },
{ "type": "Feature", "properties": { "id": 16124, "street_cells": 165.27221418023109, "yard_cells": 5345.1942440867406, "num_areas": 1.0 }, "geometry": { "type": "MultiPolygon", "coordinates": [ [ [ [ 1263649.034566706512123, 5545081.343784033320844 ], [ 1263749.034566706512123, 5545081.343784033320844 ], [ 1263749.034566706512123, 5544981.343784033320844 ], [ 1263649.034566706512123, 5544981.343784033320844 ], [ 1263649.034566706512123, 5545081.343784033320844 ] ] ] ] } },
{ "type": "Feature", "properties": { "id": 16456, "street_cells": 71.049940407275841, "yard_cells": 6321.5190227478743, "num_areas": 1.0 }, "geometry": { "type": "MultiPolygon", "coordinates": [ [ [ [ 1263849.034566706512123, 5543681.343784033320844 ], [ 1263949.034566706512123, 5543681.343784033320844 ], [ 1263949.034566706512123, 5543581.343784033320844 ], [ 1263849.034566706512123, 5543581.343784033320844 ], [ 1263849.034566706512123, 5543681.343784033320844 ] ] ] ] } },
{ "type": "Feature", "properties": { "id": 20142, "street_cells": 0.0, "yard_cells": 2229.5553885996342, "num_areas": 1.0 }, "geometry": { "type": "MultiPolygon", "coordinates": [ [ [ [ 1266149.034566706512123, 5540781.343784033320844 ], [ 1266249.034566706512123, 5540781.343784033320844 ], [ 1266249.034566706512123, 5540681.343784033320844 ], [ 1266149.034566706512123, 5540681.343784033320844 ], [ 1266149.034566706512123, 5540781.343784033320844 ] ] ] ] } },
{ "type": "Feature", "properties": { "id": 20735, "street_cells": 0.0, "yard_cells": 6652.75, "num_areas": 1.0 }, "geometry": { "type": "MultiPolygon", "coordinates": [ [ [ [ 1266618.209563012002036, 5545081.343784033320844 ], [ 1266649.034566706512123, 5545081.343784033320844 ], [ 1266649.034566706512123, 5544981.343784033320844 ], [ 1266549.034566706512123, 5544981.343784033320844 ], [ 1266549.034566706512123, 5544984.5963727645576 ], [ 1266618.209563012002036, 5545081.343784033320844 ] ] ] ] } },
{ "type": "Feature", "properties": { "id": 23782, "street_cells": 0.0, "yard_cells": 5864.9924137294292, "num_areas": 1.0 }, "geometry": { "type": "MultiPolygon", "coordinates": [ [ [ [ 1268449.034566706512123, 5542481.343784033320844 ], [ 1268549.034566706512123, 5542481.343784033320844 ], [ 1268549.034566706512123, 5542381.343784033320844 ], [ 1268449.034566706512123, 5542381.343784033320844 ], [ 1268449.034566706512123, 5542481.343784033320844 ] ] ] ] } },
{ "type": "Feature", "properties": { "id": 24564, "street_cells": 0.0, "yard_cells": 4816.0436545610428, "num_areas": 1.0 }, "geometry": { "type": "MultiPolygon", "coordinates": [ [ [ [ 1268949.034566706512123, 5543781.343784033320844 ], [ 1269049.034566706512123, 5543781.343784033320844 ], [ 1269049.034566706512123, 5543681.343784033320844 ], [ 1268949.034566706512123, 5543681.343784033320844 ], [ 1268949.034566706512123, 5543781.343784033320844 ] ] ] ] } },
{ "type": "Feature", "properties": { "id": 24568, "street_cells": 0.0, "yard_cells": 6515.0675870478162, "num_areas": 1.0 }, "geometry": { "type": "MultiPolygon", "coordinates": [ [ [ [ 1268949.034566706512123, 5543381.343784033320844 ], [ 1269049.034566706512123, 5543381.343784033320844 ], [ 1269049.034566706512123, 5543281.343784033320844 ], [ 1268949.034566706512123, 5543281.343784033320844 ], [ 1268949.034566706512123, 5543381.343784033320844 ] ] ] ] } },
{ "type": "Feature", "properties": { "id": 25332, "street_cells": 184.39687976539139, "yard_cells": 7359.066795042716, "num_areas": 1.0 }, "geometry": { "type": "MultiPolygon", "coordinates": [ [ [ [ 1269479.190459117293358, 5546481.343784033320844 ], [ 1269549.034566706512123, 5546481.343784033320844 ], [ 1269549.034566706512123, 5546381.343784033320844 ], [ 1269449.034566706512123, 5546381.343784033320844 ], [ 1269449.034566706512123, 5546458.175670192576945 ], [ 1269479.190459117293358, 5546481.343784033320844 ] ] ] ] } },
{ "type": "Feature", "properties": { "id": 25385, "street_cells": 1158.612086240202, "yard_cells": 7103.4697844549082, "num_areas": 2.0 }, "geometry": { "type": "MultiPolygon", "coordinates": [ [ [ [ 1269449.034566706512123, 5541181.343784033320844 ], [ 1269549.034566706512123, 5541181.343784033320844 ], [ 1269549.034566706512123, 5541081.343784033320844 ], [ 1269449.034566706512123, 5541081.343784033320844 ], [ 1269449.034566706512123, 5541181.343784033320844 ] ] ] ] } },
{ "type": "Feature", "properties": { "id": 26608, "street_cells": 0.0, "yard_cells": 6022.1834826953709, "num_areas": 1.0 }, "geometry": { "type": "MultiPolygon", "coordinates": [ [ [ [ 1270249.034566706512123, 5546081.343784033320844 ], [ 1270349.034566706512123, 5546081.343784033320844 ], [ 1270349.034566706512123, 5545981.343784033320844 ], [ 1270249.034566706512123, 5545981.343784033320844 ], [ 1270249.034566706512123, 5546081.343784033320844 ] ] ] ] } },
{ "type": "Feature", "properties": { "id": 26766, "street_cells": 0.0, "yard_cells": 3798.6092967689042, "num_areas": 1.0 }, "geometry": { "type": "MultiPolygon", "coordinates": [ [ [ [ 1270349.034566706512123, 5546181.343784033320844 ], [ 1270449.034566706512123, 5546181.343784033320844 ], [ 1270449.034566706512123, 5546081.343784033320844 ], [ 1270349.034566706512123, 5546081.343784033320844 ], [ 1270349.034566706512123, 5546181.343784033320844 ] ] ] ] } },
{ "type": "Feature", "properties": { "id": 26924, "street_cells": 0.0, "yard_cells": 5830.9248507618904, "num_areas": 1.0 }, "geometry": { "type": "MultiPolygon", "coordinates": [ [ [ [ 1270449.034566706512123, 5546281.343784033320844 ], [ 1270549.034566706512123, 5546281.343784033320844 ], [ 1270549.034566706512123, 5546181.343784033320844 ], [ 1270449.034566706512123, 5546181.343784033320844 ], [ 1270449.034566706512123, 5546281.343784033320844 ] ] ] ] } },
{ "type": "Feature", "properties": { "id": 26927, "street_cells": 0.0, "yard_cells": 5650.6880996748814, "num_areas": 1.0 }, "geometry": { "type": "MultiPolygon", "coordinates": [ [ [ [ 1270449.034566706512123, 5545981.343784033320844 ], [ 1270549.034566706512123, 5545981.343784033320844 ], [ 1270549.034566706512123, 5545881.343784033320844 ], [ 1270449.034566706512123, 5545881.343784033320844 ], [ 1270449.034566706512123, 5545981.343784033320844 ] ] ] ] } },
{ "type": "Feature", "properties": { "id": 26980, "street_cells": 1406.195947386324, "yard_cells": 5047.9883853457859, "num_areas": 1.0 }, "geometry": { "type": "MultiPolygon", "coordinates": [ [ [ [ 1270449.034566706512123, 5540618.051721509546041 ], [ 1270449.034566706512123, 5540681.343784033320844 ], [ 1270549.034566706512123, 5540681.343784033320844 ], [ 1270549.034566706512123, 5540581.343784033320844 ], [ 1270527.302202803315595, 5540581.343784033320844 ], [ 1270449.034566706512123, 5540618.051721509546041 ] ] ] ] } },
{ "type": "Feature", "properties": { "id": 27243, "street_cells": 0.0, "yard_cells": 5446.1524018645287, "num_areas": 1.0 }, "geometry": { "type": "MultiPolygon", "coordinates": [ [ [ [ 1270649.034566706512123, 5546181.343784033320844 ], [ 1270749.034566706512123, 5546181.343784033320844 ], [ 1270749.034566706512123, 5546081.343784033320844 ], [ 1270649.034566706512123, 5546081.343784033320844 ], [ 1270649.034566706512123, 5546181.343784033320844 ] ] ] ] } },
{ "type": "Feature", "properties": { "id": 27244, "street_cells": 0.0, "yard_cells": 6364.5343293156466, "num_areas": 1.0 }, "geometry": { "type": "MultiPolygon", "coordinates": [ [ [ [ 1270649.034566706512123, 5546081.343784033320844 ], [ 1270749.034566706512123, 5546081.343784033320844 ], [ 1270749.034566706512123, 5545981.343784033320844 ], [ 1270649.034566706512123, 5545981.343784033320844 ], [ 1270649.034566706512123, 5546081.343784033320844 ] ] ] ] } },
{ "type": "Feature", "properties": { "id": 29173, "street_cells": 0.0, "yard_cells": 6347.4531838707626, "num_areas": 1.0 }, "geometry": { "type": "MultiPolygon", "coordinates": [ [ [ [ 1271849.034566706512123, 5543981.343784033320844 ], [ 1271949.034566706512123, 5543981.343784033320844 ], [ 1271949.034566706512123, 5543881.343784033320844 ], [ 1271849.034566706512123, 5543881.343784033320844 ], [ 1271849.034566706512123, 5543981.343784033320844 ] ] ] ] } }
]
}
