{
"type": "FeatureCollection",
"name": "no_street_center",
"crs": { "type": "name", "properties": { "name": "urn:ogc:def:crs:EPSG::3857" } },
"features": [
{ "type": "Feature", "properties": { "id": 82, "street_cells": 0.0, "yard_cells": 3460.6408679503952, "utility": 1.6013866194925721, "num_areas": 2.0 }, "geometry": { "type": "MultiPolygon", "coordinates": [ [ [ [ 1261093.896874761208892, 5543069.404702704399824 ], [ 1261193.896874761208892, 5543069.404702704399824 ], [ 1261193.896874761208892, 5542969.404702704399824 ], [ 1261093.896874761208892, 5542969.404702704399824 ], [ 1261093.896874761208892, 5543069.404702704399824 ] ] ] ] } },
{ "type": "Feature", "properties": { "id": 86, "street_cells": 0.0, "yard_cells": 2633.947555605409, "utility": 2.1730496763100948, "num_areas": 1.0 }, "geometry": { "type": "MultiPolygon", "coordinates": [ [ [ [ 1261093.896874761208892, 5542669.404702704399824 ], [ 1261193.896874761208892, 5542669.404702704399824 ], [ 1261193.896874761208892, 5542569.404702704399824 ], [ 1261093.896874761208892, 5542569.404702704399824 ], [ 1261093.896874761208892, 5542669.404702704399824 ] ] ] ] } },
{ "type": "Feature", "properties": { "id": 153, "street_cells": 0.0, "yard_cells": 3996.2954116422502, "utility": 16.887417224735529, "num_areas": 0.0 }, "geometry": { "type": "MultiPolygon", "coordinates": [ [ [ [ 1261293.896874761208892, 5542969.404702704399824 ], [ 1261393.896874761208892, 5542969.404702704399824 ], [ 1261393.896874761208892, 5542869.404702704399824 ], [ 1261293.896874761208892, 5542869.404702704399824 ], [ 1261293.896874761208892, 5542969.404702704399824 ] ] ] ] } },
{ "type": "Feature", "properties": { "id": 188, "street_cells": 0.0, "yard_cells": 1861.0597625309199, "utility": 1.6310598816151569, "num_areas": 1.0 }, "geometry": { "type": "MultiPolygon", "coordinates": [ [ [ [ 1261393.896874761208892, 5542969.404702704399824 ], [ 1261493.896874761208892, 5542969.404702704399824 ], [ 1261493.896874761208892, 5542869.404702704399824 ], [ 1261393.896874761208892, 5542869.404702704399824 ], [ 1261393.896874761208892, 5542969.404702704399824 ] ] ] ] } },
{ "type": "Feature", "properties": { "id": 200, "street_cells": 0.0, "yard_cells": 2900.5797455409652, "utility": 1.5777205011029629, "num_areas": 0.0 }, "geometry": { "type": "MultiPolygon", "coordinates": [ [ [ [ 1261393.896874761208892, 5541769.404702704399824 ], [ 1261493.896874761208892, 5541769.404702704399824 ], [ 1261493.896874761208892, 5541669.404702704399824 ], [ 1261393.896874761208892, 5541669.404702704399824 ], [ 1261393.896874761208892, 5541769.404702704399824 ] ] ] ] } },
{ "type": "Feature", "properties": { "id": 219, "street_cells": 0.0, "yard_cells": 4351.6500350309771, "utility": 5.2106889078789767, "num_areas": 0.0 }, "geometry": { "type": "MultiPolygon", "coordinates": [ [ [ [ 1261493.896874761208892, 5543369.404702704399824 ], [ 1261593.896874761208892, 5543369.404702704399824 ], [ 1261593.896874761208892, 5543269.404702704399824 ], [ 1261493.896874761208892, 5543269.404702704399824 ], [ 1261493.896874761208892, 5543369.404702704399824 ] ] ] ] } },
{ "type": "Feature", "properties": { "id": 355, "street_cells": 0.0, "yard_cells": 1492.9414071534311, "utility": 1.5805370726983869, "num_areas": 0.0 }, "geometry": { "type": "MultiPolygon", "coordinates": [ [ [ [ 1261925.063009248580784, 5543769.404702704399824 ], [ 1261993.896874761208892, 5543769.404702704399824 ], [ 1261993.896874761208892, 5543669.404702704399824 ], [ 1261893.896874761208892, 5543669.404702704399824 ], [ 1261893.896874761208892, 5543746.960106708109379 ], [ 1261925.063009248580784, 5543769.404702704399824 ] ] ] ] } },
{ "type": "Feature", "properties": { "id": 366, "street_cells": 0.0, "yard_cells": 1925.641901831556, "utility": 1.687660609116189, "num_areas": 1.0 }, "geometry": { "type": "MultiPolygon", "coordinates": [ [ [ [ 1261893.896874761208892, 5542669.404702704399824 ], [ 1261993.896874761208892, 5542669.404702704399824 ], [ 1261993.896874761208892, 5542569.404702704399824 ], [ 1261893.896874761208892, 5542569.404702704399824 ], [ 1261893.896874761208892, 5542669.404702704399824 ] ] ] ] } },
{ "type": "Feature", "properties": { "id": 428, "street_cells": 0.0, "yard_cells": 3348.4963877926839, "utility": 3.2077827013046321, "num_areas": 0.0 }, "geometry": { "type": "MultiPolygon", "coordinates": [ [ [ [ 1262093.896874761208892, 5543469.404702704399824 ], [ 1262193.896874761208892, 5543469.404702704399824 ], [ 1262193.896874761208892, 5543369.404702704399824 ], [ 1262093.896874761208892, 5543369.404702704399824 ], [ 1262093.896874761208892, 5543469.404702704399824 ] ] ] ] } },
{ "type": "Feature", "properties": { "id": 459, "street_cells": 0.0, "yard_cells": 2882.125693218783, "utility": 1.5920851277534009, "num_areas": 1.0 }, "geometry": { "type": "MultiPolygon", "coordinates": [ [ [ [ 1262193.896874761208892, 5543869.404702704399824 ], [ 1262293.896874761208892, 5543869.404702704399824 ], [ 1262293.896874761208892, 5543769.404702704399824 ], [ 1262193.896874761208892, 5543769.404702704399824 ], [ 1262193.896874761208892, 5543869.404702704399824 ] ] ] ] } },
{ "type": "Feature", "properties": { "id": 462, "street_cells": 0.0, "yard_cells": 1127.8267574304109, "utility": 1.5924414044655411, "num_areas": 0.0 }, "geometry": { "type": "MultiPolygon", "coordinates": [ [ [ [ 1262193.896874761208892, 5543569.404702704399824 ], [ 1262293.896874761208892, 5543569.404702704399824 ], [ 1262293.896874761208892, 5543469.404702704399824 ], [ 1262193.896874761208892, 5543469.404702704399824 ], [ 1262193.896874761208892, 5543569.404702704399824 ] ] ] ] } },
{ "type": "Feature", "properties": { "id": 463, "street_cells": 0.0, "yard_cells": 4106.7519610091249, "utility": 3.1732485849956862, "num_areas": 0.0 }, "geometry": { "type": "MultiPolygon", "coordinates": [ [ [ [ 1262193.896874761208892, 5543469.404702704399824 ], [ 1262293.896874761208892, 5543469.404702704399824 ], [ 1262293.896874761208892, 5543369.404702704399824 ], [ 1262193.896874761208892, 5543369.404702704399824 ], [ 1262193.896874761208892, 5543469.404702704399824 ] ] ] ] } },
{ "type": "Feature", "properties": { "id": 496, "street_cells": 0.0, "yard_cells": 1925.435383333072, "utility": 1.687479613296242, "num_areas": 1.0 }, "geometry": { "type": "MultiPolygon", "coordinates": [ [ [ [ 1262293.896874761208892, 5543669.404702704399824 ], [ 1262393.896874761208892, 5543669.404702704399824 ], [ 1262393.896874761208892, 5543569.404702704399824 ], [ 1262293.896874761208892, 5543569.404702704399824 ], [ 1262293.896874761208892, 5543669.404702704399824 ] ] ] ] } },
{ "type": "Feature", "properties": { "id": 533, "street_cells": 0.0, "yard_cells": 3175.197675154438, "utility": 2.5366997921955901, "num_areas": 1.0 }, "geometry": { "type": "MultiPolygon", "coordinates": [ [ [ [ 1262393.896874761208892, 5543469.404702704399824 ], [ 1262493.896874761208892, 5543469.404702704399824 ], [ 1262493.896874761208892, 5543369.404702704399824 ], [ 1262393.896874761208892, 5543369.404702704399824 ], [ 1262393.896874761208892, 5543469.404702704399824 ] ] ] ] } },
{ "type": "Feature", "properties": { "id": 565, "street_cells": 0.0, "yard_cells": 1986.3737630331891, "utility": 2.883700864718918, "num_areas": 0.0 }, "geometry": { "type": "MultiPolygon", "coordinates": [ [ [ [ 1262493.896874761208892, 5543769.404702704399824 ], [ 1262593.896874761208892, 5543769.404702704399824 ], [ 1262593.896874761208892, 5543669.404702704399824 ], [ 1262493.896874761208892, 5543669.404702704399824 ], [ 1262493.896874761208892, 5543769.404702704399824 ] ] ] ] } },
{ "type": "Feature", "properties": { "id": 672, "street_cells": 0.0, "yard_cells": 2470.3223419402639, "utility": 1.7884759227986891, "num_areas": 1.0 }, "geometry": { "type": "MultiPolygon", "coordinates": [ [ [ [ 1262793.896874761208892, 5543569.404702704399824 ], [ 1262893.896874761208892, 5543569.404702704399824 ], [ 1262893.896874761208892, 5543469.404702704399824 ], [ 1262793.896874761208892, 5543469.404702704399824 ], [ 1262793.896874761208892, 5543569.404702704399824 ] ] ] ] } },
{ "type": "Feature", "properties": { "id": 757, "street_cells": 0.0, "yard_cells": 1555.135700156912, "utility": 1.9537547480105759, "num_areas": 0.0 }, "geometry": { "type": "MultiPolygon", "coordinates": [ [ [ [ 1262993.896874761208892, 5542069.404702704399824 ], [ 1263093.896874761208892, 5542069.404702704399824 ], [ 1263093.896874761208892, 5541969.404702704399824 ], [ 1262993.896874761208892, 5541969.404702704399824 ], [ 1262993.896874761208892, 5542069.404702704399824 ] ] ] ] } },
{ "type": "Feature", "properties": { "id": 941, "street_cells": 0.0, "yard_cells": 2900.3655351489929, "utility": 1.690379837704491, "num_areas": 2.0 }, "geometry": { "type": "MultiPolygon", "coordinates": [ [ [ [ 1263493.896874761208892, 5541169.404702704399824 ], [ 1263593.896874761208892, 5541169.404702704399824 ], [ 1263593.896874761208892, 5541069.404702704399824 ], [ 1263493.896874761208892, 5541069.404702704399824 ], [ 1263493.896874761208892, 5541169.404702704399824 ] ] ] ] } },
{ "type": "Feature", "properties": { "id": 950, "street_cells": 0.0, "yard_cells": 7500.8928665458216, "utility": 11.845727746472591, "num_areas": 0.0 }, "geometry": { "type": "MultiPolygon", "coordinates": [ [ [ [ 1263593.896874761208892, 5543769.404702704399824 ], [ 1263693.896874761208892, 5543769.404702704399824 ], [ 1263693.896874761208892, 5543669.404702704399824 ], [ 1263593.896874761208892, 5543669.404702704399824 ], [ 1263593.896874761208892, 5543769.404702704399824 ] ] ] ] } },
{ "type": "Feature", "properties": { "id": 989, "street_cells": 0.0, "yard_cells": 4359.5719441011097, "utility": 4.7191060460727119, "num_areas": 0.0 }, "geometry": { "type": "MultiPolygon", "coordinates": [ [ [ [ 1263693.896874761208892, 5543369.404702704399824 ], [ 1263793.896874761208892, 5543369.404702704399824 ], [ 1263793.896874761208892, 5543269.404702704399824 ], [ 1263693.896874761208892, 5543269.404702704399824 ], [ 1263693.896874761208892, 5543369.404702704399824 ] ] ] ] } }
]
}
