{
"type": "FeatureCollection",
"name": "no_yard_center",
"crs": { "type": "name", "properties": { "name": "urn:ogc:def:crs:EPSG::3857" } },
"features": [
{ "type": "Feature", "properties": { "id": 12, "street_cells": 1556.9910111602401, "yard_cells": 0.0, "utility": 0.77747298969458445, "num_areas": 1.0 }, "geometry": { "type": "MultiPolygon", "coordinates": [ [ [ [ 1260914.198410561075434, 5542976.156160749495029 ], [ 1260908.247086662100628, 5543009.000456146895885 ], [ 1260893.896874761208892, 5543021.315491466782987 ], [ 1260894.340759731363505, 5543036.955018002539873 ], [ 1260903.687468244461343, 5543053.878676893189549 ], [ 1260909.954842771170661, 5543064.578869609162211 ], [ 1260935.201771445339546, 5543066.467886147089303 ], [ 1260939.316545146051794, 5543069.404702704399824 ], [ 1260993.896874761208892, 5543069.404702704399824 ], [ 1260993.896874761208892, 5542969.404702704399824 ], [ 1260915.730025104247034, 5542969.404702704399824 ], [ 1260914.198410561075434, 5542976.156160749495029 ] ] ] ] } },
{ "type": "Feature", "properties": { "id": 154, "street_cells": 1195.4896381332769, "yard_cells": 0.0, "utility": 0.98099792024819465, "num_areas": 1.0 }, "geometry": { "type": "MultiPolygon", "coordinates": [ [ [ [ 1261293.896874761208892, 5542869.404702704399824 ], [ 1261393.896874761208892, 5542869.404702704399824 ], [ 1261393.896874761208892, 5542769.404702704399824 ], [ 1261293.896874761208892, 5542769.404702704399824 ], [ 1261293.896874761208892, 5542869.404702704399824 ] ] ] ] } },
{ "type": "Feature", "properties": { "id": 220, "street_cells": 1044.3112867131831, "yard_cells": 0.0, "utility": 0.81801088751929263, "num_areas": 1.0 }, "geometry": { "type": "MultiPolygon", "coordinates": [ [ [ [ 1261493.896874761208892, 5543269.404702704399824 ], [ 1261593.896874761208892, 5543269.404702704399824 ], [ 1261593.896874761208892, 5543169.404702704399824 ], [ 1261493.896874761208892, 5543169.404702704399824 ], [ 1261493.896874761208892, 5543269.404702704399824 ] ] ] ] } },
{ "type": "Feature", "properties": { "id": 293, "street_cells": 1163.9188256859779, "yard_cells": 0.0, "utility": 1.1788096672900079, "num_areas": 1.0 }, "geometry": { "type": "MultiPolygon", "coordinates": [ [ [ [ 1261693.896874761208892, 5542969.404702704399824 ], [ 1261793.896874761208892, 5542969.404702704399824 ], [ 1261793.896874761208892, 5542869.404702704399824 ], [ 1261693.896874761208892, 5542869.404702704399824 ], [ 1261693.896874761208892, 5542969.404702704399824 ] ] ] ] } },
{ "type": "Feature", "properties": { "id": 328, "street_cells": 1103.6427692551169, "yard_cells": 0.0, "utility": 1.8420064846127899, "num_areas": 0.0 }, "geometry": { "type": "MultiPolygon", "coordinates": [ [ [ [ 1261793.896874761208892, 5542969.404702704399824 ], [ 1261893.896874761208892, 5542969.404702704399824 ], [ 1261893.896874761208892, 5542869.404702704399824 ], [ 1261793.896874761208892, 5542869.404702704399824 ], [ 1261793.896874761208892, 5542969.404702704399824 ] ] ] ] } },
{ "type": "Feature", "properties": { "id": 363, "street_cells": 864.61206184327602, "yard_cells": 0.0, "utility": 0.75330941299926657, "num_areas": 1.0 }, "geometry": { "type": "MultiPolygon", "coordinates": [ [ [ [ 1261893.896874761208892, 5542969.404702704399824 ], [ 1261993.896874761208892, 5542969.404702704399824 ], [ 1261993.896874761208892, 5542869.404702704399824 ], [ 1261893.896874761208892, 5542869.404702704399824 ], [ 1261893.896874761208892, 5542969.404702704399824 ] ] ] ] } },
{ "type": "Feature", "properties": { "id": 402, "street_cells": 1015.673298883811, "yard_cells": 0.0, "utility": 1.781922627774934, "num_areas": 0.0 }, "geometry": { "type": "MultiPolygon", "coordinates": [ [ [ [ 1261993.896874761208892, 5542569.404702704399824 ], [ 1262093.896874761208892, 5542569.404702704399824 ], [ 1262093.896874761208892, 5542469.404702704399824 ], [ 1261993.896874761208892, 5542469.404702704399824 ], [ 1261993.896874761208892, 5542569.404702704399824 ] ] ] ] } },
{ "type": "Feature", "properties": { "id": 462, "street_cells": 668.4766794346275, "yard_cells": 0.0, "utility": 1.1367741624780481, "num_areas": 0.0 }, "geometry": { "type": "MultiPolygon", "coordinates": [ [ [ [ 1262193.896874761208892, 5543569.404702704399824 ], [ 1262293.896874761208892, 5543569.404702704399824 ], [ 1262293.896874761208892, 5543469.404702704399824 ], [ 1262193.896874761208892, 5543469.404702704399824 ], [ 1262193.896874761208892, 5543569.404702704399824 ] ] ] ] } },
{ "type": "Feature", "properties": { "id": 466, "street_cells": 1159.3329468831421, "yard_cells": 0.0, "utility": 1.2237272482169119, "num_areas": 1.0 }, "geometry": { "type": "MultiPolygon", "coordinates": [ [ [ [ 1262193.896874761208892, 5543169.404702704399824 ], [ 1262293.896874761208892, 5543169.404702704399824 ], [ 1262293.896874761208892, 5543069.404702704399824 ], [ 1262193.896874761208892, 5543069.404702704399824 ], [ 1262193.896874761208892, 5543169.404702704399824 ] ] ] ] } },
{ "type": "Feature", "properties": { "id": 467, "street_cells": 887.42400011122231, "yard_cells": 0.0, "utility": 0.94438010362362235, "num_areas": 1.0 }, "geometry": { "type": "MultiPolygon", "coordinates": [ [ [ [ 1262193.896874761208892, 5543069.404702704399824 ], [ 1262293.896874761208892, 5543069.404702704399824 ], [ 1262293.896874761208892, 5542969.404702704399824 ], [ 1262193.896874761208892, 5542969.404702704399824 ], [ 1262193.896874761208892, 5543069.404702704399824 ] ] ] ] } },
{ "type": "Feature", "properties": { "id": 475, "street_cells": 784.00893636657861, "yard_cells": 0.0, "utility": 1.2532669368584619, "num_areas": 0.0 }, "geometry": { "type": "MultiPolygon", "coordinates": [ [ [ [ 1262193.896874761208892, 5542269.404702704399824 ], [ 1262293.896874761208892, 5542269.404702704399824 ], [ 1262293.896874761208892, 5542169.404702704399824 ], [ 1262193.896874761208892, 5542169.404702704399824 ], [ 1262193.896874761208892, 5542269.404702704399824 ] ] ] ] } },
{ "type": "Feature", "properties": { "id": 527, "street_cells": 737.00134105384359, "yard_cells": 0.0, "utility": 1.1522581627844719, "num_areas": 0.0 }, "geometry": { "type": "MultiPolygon", "coordinates": [ [ [ [ 1262393.896874761208892, 5544069.404702704399824 ], [ 1262493.896874761208892, 5544069.404702704399824 ], [ 1262493.896874761208892, 5543969.404702704399824 ], [ 1262393.896874761208892, 5543969.404702704399824 ], [ 1262393.896874761208892, 5544069.404702704399824 ] ] ] ] } },
{ "type": "Feature", "properties": { "id": 545, "street_cells": 1172.9478274622929, "yard_cells": 0.0, "utility": 1.4359752953274549, "num_areas": 0.0 }, "geometry": { "type": "MultiPolygon", "coordinates": [ [ [ [ 1262393.896874761208892, 5542269.404702704399824 ], [ 1262493.896874761208892, 5542269.404702704399824 ], [ 1262493.896874761208892, 5542169.404702704399824 ], [ 1262393.896874761208892, 5542169.404702704399824 ], [ 1262393.896874761208892, 5542269.404702704399824 ] ] ] ] } },
{ "type": "Feature", "properties": { "id": 562, "street_cells": 730.96188900247216, "yard_cells": 0.0, "utility": 1.278058807806179, "num_areas": 0.0 }, "geometry": { "type": "MultiPolygon", "coordinates": [ [ [ [ 1262493.896874761208892, 5544069.404702704399824 ], [ 1262593.896874761208892, 5544069.404702704399824 ], [ 1262593.896874761208892, 5543969.404702704399824 ], [ 1262493.896874761208892, 5543969.404702704399824 ], [ 1262493.896874761208892, 5544069.404702704399824 ] ] ] ] } },
{ "type": "Feature", "properties": { "id": 597, "street_cells": 954.91566948741684, "yard_cells": 0.0, "utility": 1.669633397393717, "num_areas": 0.0 }, "geometry": { "type": "MultiPolygon", "coordinates": [ [ [ [ 1262593.896874761208892, 5544069.404702704399824 ], [ 1262693.896874761208892, 5544069.404702704399824 ], [ 1262693.896874761208892, 5543969.404702704399824 ], [ 1262593.896874761208892, 5543969.404702704399824 ], [ 1262593.896874761208892, 5544069.404702704399824 ] ] ] ] } },
{ "type": "Feature", "properties": { "id": 632, "street_cells": 1181.47888789028, "yard_cells": 0.0, "utility": 1.0266865020966449, "num_areas": 0.0 }, "geometry": { "type": "MultiPolygon", "coordinates": [ [ [ [ 1262693.896874761208892, 5544069.404702704399824 ], [ 1262793.896874761208892, 5544069.404702704399824 ], [ 1262793.896874761208892, 5543969.404702704399824 ], [ 1262693.896874761208892, 5543969.404702704399824 ], [ 1262693.896874761208892, 5544069.404702704399824 ] ] ] ] } },
{ "type": "Feature", "properties": { "id": 668, "street_cells": 1185.7698014035821, "yard_cells": 0.0, "utility": 1.196737376512319, "num_areas": 1.0 }, "geometry": { "type": "MultiPolygon", "coordinates": [ [ [ [ 1262793.896874761208892, 5543969.404702704399824 ], [ 1262893.896874761208892, 5543969.404702704399824 ], [ 1262893.896874761208892, 5543869.404702704399824 ], [ 1262793.896874761208892, 5543869.404702704399824 ], [ 1262793.896874761208892, 5543969.404702704399824 ] ] ] ] } },
{ "type": "Feature", "properties": { "id": 703, "street_cells": 1340.8429947465661, "yard_cells": 0.0, "utility": 1.0228889969616499, "num_areas": 0.0 }, "geometry": { "type": "MultiPolygon", "coordinates": [ [ [ [ 1262893.896874761208892, 5543969.404702704399824 ], [ 1262993.896874761208892, 5543969.404702704399824 ], [ 1262993.896874761208892, 5543869.404702704399824 ], [ 1262893.896874761208892, 5543869.404702704399824 ], [ 1262893.896874761208892, 5543969.404702704399824 ] ] ] ] } },
{ "type": "Feature", "properties": { "id": 758, "street_cells": 877.12093206569557, "yard_cells": 0.0, "utility": 1.3271747072370541, "num_areas": 0.0 }, "geometry": { "type": "MultiPolygon", "coordinates": [ [ [ [ 1262993.896874761208892, 5541969.404702704399824 ], [ 1263093.896874761208892, 5541969.404702704399824 ], [ 1263093.896874761208892, 5541869.404702704399824 ], [ 1262993.896874761208892, 5541869.404702704399824 ], [ 1262993.896874761208892, 5541969.404702704399824 ] ] ] ] } },
{ "type": "Feature", "properties": { "id": 879, "street_cells": 755.98341311216359, "yard_cells": 0.0, "utility": 0.99377340031575445, "num_areas": 0.0 }, "geometry": { "type": "MultiPolygon", "coordinates": [ [ [ [ 1263393.896874761208892, 5543869.404702704399824 ], [ 1263493.896874761208892, 5543869.404702704399824 ], [ 1263493.896874761208892, 5543769.404702704399824 ], [ 1263393.896874761208892, 5543769.404702704399824 ], [ 1263393.896874761208892, 5543869.404702704399824 ] ] ] ] } }
]
}
