{
"type": "FeatureCollection",
"name": "giardini_margherita",
"crs": { "type": "name", "properties": { "name": "urn:ogc:def:crs:OGC:1.3:CRS84" } },
"features": [
{ "type": "Feature", "properties": { "codice_area_statistica": 55, "geo_point_2d": { "lon": 11.3528700213222, "lat": 44.482465812849206 }, "area_statistica": "GIARDINI MARGHERITA", "cod_quar": 15, "quartiere": "Santo Stefano", "cod_zona": "O", "zona": "Murri" }, "geometry": { "type": "Polygon", "coordinates": [ [ [ 11.353281172564866, 44.484776148866516 ], [ 11.350297152773237, 44.485134423040698 ], [ 11.349247291689069, 44.485261832152574 ], [ 11.349216205671473, 44.485183249043281 ], [ 11.349153355011, 44.485030472023404 ], [ 11.349136792377315, 44.485000077998151 ], [ 11.349080218043573, 44.484889285921021 ], [ 11.349050471115707, 44.484835585390385 ], [ 11.349075609399682, 44.484825246261302 ], [ 11.349127389093017, 44.48481193718861 ], [ 11.349133998262529, 44.484826205335416 ], [ 11.349525242620944, 44.484786005111324 ], [ 11.349938330413867, 44.484648134844335 ], [ 11.349892403490832, 44.484537898203811 ], [ 11.349778189313122, 44.484236600685897 ], [ 11.349704848450823, 44.483963540114921 ], [ 11.349683516679161, 44.483920856756171 ], [ 11.349690547039902, 44.483911169293336 ], [ 11.349447725099653, 44.483329215778916 ], [ 11.34946171351892, 44.48330804184863 ], [ 11.349479853969695, 44.483280660693957 ], [ 11.349459236742463, 44.483254194267289 ], [ 11.349442288880528, 44.483223592144441 ], [ 11.349446076446799, 44.483180751847911 ], [ 11.34949747242136, 44.483146339408812 ], [ 11.349465300267518, 44.483018453458321 ], [ 11.349308808445137, 44.483007630138964 ], [ 11.349318273811535, 44.482958371175798 ], [ 11.349309914837518, 44.482878600126334 ], [ 11.34929743470158, 44.482768224028604 ], [ 11.34929503199487, 44.482705255281893 ], [ 11.349277119053834, 44.482634953524958 ], [ 11.349255742698734, 44.482597402476436 ], [ 11.349225696994381, 44.48257569435733 ], [ 11.349163296155202, 44.482571847032332 ], [ 11.349109159282866, 44.482582773929281 ], [ 11.349064130330715, 44.48259504381987 ], [ 11.349007637487579, 44.482600536566743 ], [ 11.348970306037677, 44.48260094464527 ], [ 11.348886654897218, 44.482588990971543 ], [ 11.348928080414451, 44.482479135098487 ], [ 11.349018603933471, 44.482246949864496 ], [ 11.349086867582855, 44.482105239620473 ], [ 11.349140289501896, 44.482029850824368 ], [ 11.349312974831781, 44.482005591077758 ], [ 11.349687000718436, 44.481820487699636 ], [ 11.35022362869398, 44.481543332903591 ], [ 11.350648299117905, 44.481332543556043 ], [ 11.351120971344947, 44.48109032619147 ], [ 11.351169270317456, 44.481059334746682 ], [ 11.351233989397352, 44.481020460897305 ], [ 11.351301922076424, 44.480978009804076 ], [ 11.351411023165568, 44.480896422603301 ], [ 11.35152412748433, 44.480787420934497 ], [ 11.35157835663485, 44.480705316420824 ], [ 11.351815899725576, 44.480379543039184 ], [ 11.351918903717758, 44.480241103490748 ], [ 11.35200894032295, 44.480120116993071 ], [ 11.352191627670958, 44.479863748767556 ], [ 11.352268509538396, 44.479755879831366 ], [ 11.352360484706022, 44.479623095703069 ], [ 11.35243838781709, 44.479507490373521 ], [ 11.35250874301734, 44.479423711696185 ], [ 11.352609281913063, 44.479327247432224 ], [ 11.352660364250545, 44.479277031444489 ], [ 11.352704607829965, 44.479304729870485 ], [ 11.352807218199082, 44.479264173917983 ], [ 11.352925597635767, 44.479228334302455 ], [ 11.352930062762447, 44.479226801851325 ], [ 11.352934653527766, 44.479225266810381 ], [ 11.352953027437904, 44.479219396499204 ], [ 11.352962219817236, 44.479216596269751 ], [ 11.35299491558755, 44.479207279835201 ], [ 11.353037741066714, 44.479196584251333 ], [ 11.353071403099419, 44.479189408502258 ], [ 11.353115220159737, 44.47918148325676 ], [ 11.353144844616567, 44.479177091495544 ], [ 11.35323940523403, 44.479167760071107 ], [ 11.35329967528317, 44.479165608349582 ], [ 11.353324821114688, 44.479165540092545 ], [ 11.353364972218623, 44.479166512877356 ], [ 11.353430022480483, 44.479170663390448 ], [ 11.353489649566271, 44.479177536430022 ], [ 11.353516850026391, 44.479181656994371 ], [ 11.353507794242091, 44.47925350441993 ], [ 11.35383961673929, 44.479319124722664 ], [ 11.353842648979423, 44.479338237742958 ], [ 11.353850801874753, 44.479362736763449 ], [ 11.353859401037754, 44.479379574368579 ], [ 11.353867973866489, 44.479392631422741 ], [ 11.353880668472538, 44.479408124213208 ], [ 11.353895340745655, 44.479422765987771 ], [ 11.353908479013107, 44.479433658299065 ], [ 11.353930327212503, 44.479448512202012 ], [ 11.353954486577383, 44.479461427895906 ], [ 11.354149905684912, 44.479592410051552 ], [ 11.354261007585933, 44.479666658917282 ], [ 11.354492334671049, 44.479812492432437 ], [ 11.354572172186048, 44.479871613274753 ], [ 11.354620364507992, 44.479838353908853 ], [ 11.35464698422097, 44.479855530952619 ], [ 11.354847787575116, 44.47997587679972 ], [ 11.355050260413382, 44.480137680840599 ], [ 11.35526936058727, 44.480301113026186 ], [ 11.355361907994395, 44.480364184291275 ], [ 11.355431239267649, 44.480414356654769 ], [ 11.355581371685274, 44.48051005329733 ], [ 11.356088323212772, 44.480800656137575 ], [ 11.356469294230227, 44.481106253966281 ], [ 11.3565836513646, 44.481204668350252 ], [ 11.356608629519622, 44.481211966956927 ], [ 11.356631924026342, 44.481222109127302 ], [ 11.356684176570001, 44.48124875840341 ], [ 11.356638897001803, 44.481295327363966 ], [ 11.356611408458834, 44.481330914960765 ], [ 11.356587339365833, 44.481410814778265 ], [ 11.35656324992906, 44.481552652897278 ], [ 11.3564976416819, 44.481787615740679 ], [ 11.356444285233978, 44.481958056072131 ], [ 11.356430466005323, 44.482002093970721 ], [ 11.356414513764769, 44.482083716736838 ], [ 11.356469671985979, 44.482085080844037 ], [ 11.356438158353347, 44.482121588726727 ], [ 11.356394432363869, 44.482158357694885 ], [ 11.35630881927338, 44.482216985329352 ], [ 11.356207618499159, 44.482282929659696 ], [ 11.356060921305902, 44.482371671236521 ], [ 11.355953501358064, 44.482448069680778 ], [ 11.355867241609964, 44.482494718866377 ], [ 11.355783010862456, 44.482542730519555 ], [ 11.355615806652519, 44.482621892834551 ], [ 11.355450618557157, 44.48270241770863 ], [ 11.355395004805924, 44.482731608324912 ], [ 11.355370463873653, 44.4827545491639 ], [ 11.355355429034613, 44.482770289835337 ], [ 11.355355075513621, 44.482788059256272 ], [ 11.35543017907152, 44.48292437539628 ], [ 11.355787376046264, 44.483623654394393 ], [ 11.355829900257229, 44.483706906085658 ], [ 11.355948427745908, 44.483918145571558 ], [ 11.356145837025029, 44.484329117897452 ], [ 11.35615105651242, 44.48440813398468 ], [ 11.356087308011436, 44.484403670081008 ], [ 11.356025582310307, 44.484406654553005 ], [ 11.355954699796285, 44.484418335427918 ], [ 11.355862705500105, 44.484437257921144 ], [ 11.355754405184634, 44.484465033299848 ], [ 11.354117050455587, 44.484662325310019 ], [ 11.353281172564866, 44.484776148866516 ] ] ] } }
]
}
