{
"type": "FeatureCollection",
"name": "default",
"crs": { "type": "name", "properties": { "name": "urn:ogc:def:crs:EPSG::3857" } },
"features": [
{ "type": "Feature", "properties": { "id": 2595, "street_cells": 429.91306012049318, "yard_cells": 3360.2875758210198, "utility": 2.895496169733685, "num_areas": 0.0 }, "geometry": { "type": "MultiPolygon", "coordinates": [ [ [ [ 1255149.034566706512123, 5546481.343784033320844 ], [ 1255249.034566706512123, 5546481.343784033320844 ], [ 1255249.034566706512123, 5546381.343784033320844 ], [ 1255149.034566706512123, 5546381.343784033320844 ], [ 1255149.034566706512123, 5546481.343784033320844 ] ] ] ] } },
{ "type": "Feature", "properties": { "id": 3106, "street_cells": 122.5628733821213, "yard_cells": 6458.5989003239201, "utility": 2.71443897379935, "num_areas": 0.0 }, "geometry": { "type": "MultiPolygon", "coordinates": [ [ [ [ 1255449.034566706512123, 5543081.343784033320844 ], [ 1255549.034566706512123, 5543081.343784033320844 ], [ 1255549.034566706512123, 5542981.343784033320844 ], [ 1255449.034566706512123, 5542981.343784033320844 ], [ 1255449.034566706512123, 5543081.343784033320844 ] ] ] ] } },
{ "type": "Feature", "properties": { "id": 5487, "street_cells": 0.0, "yard_cells": 3913.1301910458128, "utility": 2.30267111103525, "num_areas": 0.0 }, "geometry": { "type": "MultiPolygon", "coordinates": [ [ [ [ 1256949.034566706512123, 5543481.343784033320844 ], [ 1257049.034566706512123, 5543481.343784033320844 ], [ 1257049.034566706512123, 5543381.343784033320844 ], [ 1256949.034566706512123, 5543381.343784033320844 ], [ 1256949.034566706512123, 5543481.343784033320844 ] ] ] ] } },
{ "type": "Feature", "properties": { "id": 5960, "street_cells": 469.22495975792413, "yard_cells": 3753.2990804404021, "utility": 2.6369058476707541, "num_areas": 0.0 }, "geometry": { "type": "MultiPolygon", "coordinates": [ [ [ [ 1257249.034566706512123, 5543881.343784033320844 ], [ 1257349.034566706512123, 5543881.343784033320844 ], [ 1257349.034566706512123, 5543781.343784033320844 ], [ 1257249.034566706512123, 5543781.343784033320844 ], [ 1257249.034566706512123, 5543881.343784033320844 ] ] ] ] } },
{ "type": "Feature", "properties": { "id": 6119, "street_cells": 549.04625656604765, "yard_cells": 2012.620031294786, "utility": 1.9769536174218949, "num_areas": 0.0 }, "geometry": { "type": "MultiPolygon", "coordinates": [ [ [ [ 1257349.034566706512123, 5543881.343784033320844 ], [ 1257449.034566706512123, 5543881.343784033320844 ], [ 1257449.034566706512123, 5543781.343784033320844 ], [ 1257349.034566706512123, 5543781.343784033320844 ], [ 1257349.034566706512123, 5543881.343784033320844 ] ] ] ] } },
{ "type": "Feature", "properties": { "id": 6429, "street_cells": 362.51724500767892, "yard_cells": 3601.871177764237, "utility": 3.6697536868398881, "num_areas": 0.0 }, "geometry": { "type": "MultiPolygon", "coordinates": [ [ [ [ 1257549.034566706512123, 5544681.343784033320844 ], [ 1257649.034566706512123, 5544681.343784033320844 ], [ 1257649.034566706512123, 5544581.343784033320844 ], [ 1257549.034566706512123, 5544581.343784033320844 ], [ 1257549.034566706512123, 5544681.343784033320844 ] ] ] ] } },
{ "type": "Feature", "properties": { "id": 6587, "street_cells": 396.46818124651912, "yard_cells": 3226.9071997443771, "utility": 2.0335510049059051, "num_areas": 0.0 }, "geometry": { "type": "MultiPolygon", "coordinates": [ [ [ [ 1257649.034566706512123, 5544781.343784033320844 ], [ 1257749.034566706512123, 5544781.343784033320844 ], [ 1257749.034566706512123, 5544681.343784033320844 ], [ 1257649.034566706512123, 5544681.343784033320844 ], [ 1257649.034566706512123, 5544781.343784033320844 ] ] ] ] } },
{ "type": "Feature", "properties": { "id": 6906, "street_cells": 0.0, "yard_cells": 2978.463729648292, "utility": 1.993618617344461, "num_areas": 0.0 }, "geometry": { "type": "MultiPolygon", "coordinates": [ [ [ [ 1257849.034566706512123, 5544681.343784033320844 ], [ 1257949.034566706512123, 5544681.343784033320844 ], [ 1257949.034566706512123, 5544581.343784033320844 ], [ 1257849.034566706512123, 5544581.343784033320844 ], [ 1257849.034566706512123, 5544681.343784033320844 ] ] ] ] } },
{ "type": "Feature", "properties": { "id": 7547, "street_cells": 171.41693124510351, "yard_cells": 3788.213199974597, "utility": 3.6653490331822138, "num_areas": 0.0 }, "geometry": { "type": "MultiPolygon", "coordinates": [ [ [ [ 1258249.034566706512123, 5544181.343784033320844 ], [ 1258349.034566706512123, 5544181.343784033320844 ], [ 1258349.034566706512123, 5544081.343784033320844 ], [ 1258249.034566706512123, 5544081.343784033320844 ], [ 1258249.034566706512123, 5544181.343784033320844 ] ] ] ] } },
{ "type": "Feature", "properties": { "id": 7893, "street_cells": 0.0, "yard_cells": 1180.778038831055, "utility": 2.244712285294808, "num_areas": 0.0 }, "geometry": { "type": "MultiPolygon", "coordinates": [ [ [ [ 1258541.336311493301764, 5541377.402724430896342 ], [ 1258538.983147940598428, 5541376.419404942542315 ], [ 1258538.334091316442937, 5541378.749227644875646 ], [ 1258449.034566706512123, 5541341.211264093406498 ], [ 1258449.034566706512123, 5541381.343784033320844 ], [ 1258549.034566706512123, 5541381.343784033320844 ], [ 1258549.034566706512123, 5541349.555401555262506 ], [ 1258541.336311493301764, 5541377.402724430896342 ] ] ] ] } },
{ "type": "Feature", "properties": { "id": 8215, "street_cells": 163.3471173211932, "yard_cells": 3554.6474210381512, "utility": 3.0491936814902019, "num_areas": 0.0 }, "geometry": { "type": "MultiPolygon", "coordinates": [ [ [ [ 1258655.440917155239731, 5540971.721566090360284 ], [ 1258665.885956414975226, 5540977.330933114513755 ], [ 1258674.719331277068704, 5540981.343784033320844 ], [ 1258749.034566706512123, 5540981.343784033320844 ], [ 1258749.034566706512123, 5540881.343784033320844 ], [ 1258649.034566706512123, 5540881.343784033320844 ], [ 1258649.034566706512123, 5540968.161971695721149 ], [ 1258655.440917155239731, 5540971.721566090360284 ] ] ] ] } },
{ "type": "Feature", "properties": { "id": 8988, "street_cells": 310.83016735278068, "yard_cells": 2873.818482401663, "utility": 2.3780883262049248, "num_areas": 0.0 }, "geometry": { "type": "MultiPolygon", "coordinates": [ [ [ [ 1259149.034566706512123, 5543181.343784033320844 ], [ 1259249.034566706512123, 5543181.343784033320844 ], [ 1259249.034566706512123, 5543081.343784033320844 ], [ 1259149.034566706512123, 5543081.343784033320844 ], [ 1259149.034566706512123, 5543181.343784033320844 ] ] ] ] } },
{ "type": "Feature", "properties": { "id": 9789, "street_cells": 391.16730992421509, "yard_cells": 3450.8846449113839, "utility": 2.047000751814477, "num_areas": 2.0 }, "geometry": { "type": "MultiPolygon", "coordinates": [ [ [ [ 1259649.034566706512123, 5542581.343784033320844 ], [ 1259749.034566706512123, 5542581.343784033320844 ], [ 1259749.034566706512123, 5542481.343784033320844 ], [ 1259649.034566706512123, 5542481.343784033320844 ], [ 1259649.034566706512123, 5542581.343784033320844 ] ] ] ] } },
{ "type": "Feature", "properties": { "id": 10266, "street_cells": 448.9022647455335, "yard_cells": 2076.0641117106411, "utility": 2.4256935727186559, "num_areas": 0.0 }, "geometry": { "type": "MultiPolygon", "coordinates": [ [ [ [ 1259949.034566706512123, 5542581.343784033320844 ], [ 1260049.034566706512123, 5542581.343784033320844 ], [ 1260049.034566706512123, 5542481.343784033320844 ], [ 1259949.034566706512123, 5542481.343784033320844 ], [ 1259949.034566706512123, 5542581.343784033320844 ] ] ] ] } },
{ "type": "Feature", "properties": { "id": 10276, "street_cells": 208.80996038094159, "yard_cells": 3509.5878008442742, "utility": 2.5802710427514892, "num_areas": 0.0 }, "geometry": { "type": "MultiPolygon", "coordinates": [ [ [ [ 1259949.034566706512123, 5541581.343784033320844 ], [ 1260049.034566706512123, 5541581.343784033320844 ], [ 1260049.034566706512123, 5541481.343784033320844 ], [ 1259949.034566706512123, 5541481.343784033320844 ], [ 1259949.034566706512123, 5541581.343784033320844 ] ] ] ] } },
{ "type": "Feature", "properties": { "id": 11220, "street_cells": 299.74240318126982, "yard_cells": 2574.704769827425, "utility": 1.9791901222377839, "num_areas": 1.0 }, "geometry": { "type": "MultiPolygon", "coordinates": [ [ [ [ 1260549.034566706512123, 5542581.343784033320844 ], [ 1260649.034566706512123, 5542581.343784033320844 ], [ 1260649.034566706512123, 5542481.343784033320844 ], [ 1260549.034566706512123, 5542481.343784033320844 ], [ 1260549.034566706512123, 5542581.343784033320844 ] ] ] ] } },
{ "type": "Feature", "properties": { "id": 12174, "street_cells": 204.48603859841819, "yard_cells": 1994.017069543786, "utility": 2.018560415886594, "num_areas": 0.0 }, "geometry": { "type": "MultiPolygon", "coordinates": [ [ [ [ 1261149.034566706512123, 5542581.343784033320844 ], [ 1261249.034566706512123, 5542581.343784033320844 ], [ 1261249.034566706512123, 5542481.343784033320844 ], [ 1261149.034566706512123, 5542481.343784033320844 ], [ 1261149.034566706512123, 5542581.343784033320844 ] ] ] ] } },
{ "type": "Feature", "properties": { "id": 12488, "street_cells": 225.50759083591399, "yard_cells": 2130.0303398221922, "utility": 2.2156556477624281, "num_areas": 1.0 }, "geometry": { "type": "MultiPolygon", "coordinates": [ [ [ [ 1261349.034566706512123, 5542981.343784033320844 ], [ 1261449.034566706512123, 5542981.343784033320844 ], [ 1261449.034566706512123, 5542881.343784033320844 ], [ 1261349.034566706512123, 5542881.343784033320844 ], [ 1261349.034566706512123, 5542981.343784033320844 ] ] ] ] } },
{ "type": "Feature", "properties": { "id": 12647, "street_cells": 1324.149462202937, "yard_cells": 559.67025540868804, "utility": 2.7802383109050539, "num_areas": 0.0 }, "geometry": { "type": "MultiPolygon", "coordinates": [ [ [ [ 1261449.034566706512123, 5542981.343784033320844 ], [ 1261549.034566706512123, 5542981.343784033320844 ], [ 1261549.034566706512123, 5542881.343784033320844 ], [ 1261449.034566706512123, 5542881.343784033320844 ], [ 1261449.034566706512123, 5542981.343784033320844 ] ] ] ] } },
{ "type": "Feature", "properties": { "id": 12955, "street_cells": 420.03392774909742, "yard_cells": 3549.2651187568899, "utility": 2.5817961017331732, "num_areas": 0.0 }, "geometry": { "type": "MultiPolygon", "coordinates": [ [ [ [ 1261649.034566706512123, 5543981.343784033320844 ], [ 1261749.034566706512123, 5543981.343784033320844 ], [ 1261749.034566706512123, 5543881.343784033320844 ], [ 1261649.034566706512123, 5543881.343784033320844 ], [ 1261649.034566706512123, 5543981.343784033320844 ] ] ] ] } },
{ "type": "Feature", "properties": { "id": 12995, "street_cells": 0.0, "yard_cells": 1545.4, "utility": 2.5585070041337978, "num_areas": 0.0 }, "geometry": { "type": "MultiPolygon", "coordinates": [ [ [ [ 1261649.034566706512123, 5539981.343784033320844 ], [ 1261749.034566706512123, 5539981.343784033320844 ], [ 1261749.034566706512123, 5539881.343784033320844 ], [ 1261649.034566706512123, 5539881.343784033320844 ], [ 1261649.034566706512123, 5539981.343784033320844 ] ] ] ] } },
{ "type": "Feature", "properties": { "id": 13575, "street_cells": 802.9284239562229, "yard_cells": 2500.843607912585, "utility": 3.5075508759291472, "num_areas": 0.0 }, "geometry": { "type": "MultiPolygon", "coordinates": [ [ [ [ 1262049.034566706512123, 5545581.343784033320844 ], [ 1262149.034566706512123, 5545581.343784033320844 ], [ 1262149.034566706512123, 5545481.343784033320844 ], [ 1262049.034566706512123, 5545481.343784033320844 ], [ 1262049.034566706512123, 5545581.343784033320844 ] ] ] ] } },
{ "type": "Feature", "properties": { "id": 13596, "street_cells": 610.08476539552214, "yard_cells": 2135.987912184884, "utility": 3.2028331597676041, "num_areas": 0.0 }, "geometry": { "type": "MultiPolygon", "coordinates": [ [ [ [ 1262049.034566706512123, 5543481.343784033320844 ], [ 1262149.034566706512123, 5543481.343784033320844 ], [ 1262149.034566706512123, 5543381.343784033320844 ], [ 1262049.034566706512123, 5543381.343784033320844 ], [ 1262049.034566706512123, 5543481.343784033320844 ] ] ] ] } },
{ "type": "Feature", "properties": { "id": 13734, "street_cells": 566.02868685871363, "yard_cells": 2829.3592461939902, "utility": 2.0788094656334271, "num_areas": 0.0 }, "geometry": { "type": "MultiPolygon", "coordinates": [ [ [ [ 1262149.034566706512123, 5545581.343784033320844 ], [ 1262249.034566706512123, 5545581.343784033320844 ], [ 1262249.034566706512123, 5545481.343784033320844 ], [ 1262149.034566706512123, 5545481.343784033320844 ], [ 1262149.034566706512123, 5545581.343784033320844 ] ] ] ] } },
{ "type": "Feature", "properties": { "id": 13755, "street_cells": 437.55316309668132, "yard_cells": 2788.4267773593319, "utility": 2.6291470846418288, "num_areas": 0.0 }, "geometry": { "type": "MultiPolygon", "coordinates": [ [ [ [ 1262149.034566706512123, 5543481.343784033320844 ], [ 1262249.034566706512123, 5543481.343784033320844 ], [ 1262249.034566706512123, 5543381.343784033320844 ], [ 1262149.034566706512123, 5543381.343784033320844 ], [ 1262149.034566706512123, 5543481.343784033320844 ] ] ] ] } },
{ "type": "Feature", "properties": { "id": 13876, "street_cells": 0.0, "yard_cells": 1319.4673940032719, "utility": 2.7297809076823372, "num_areas": 0.0 }, "geometry": { "type": "MultiPolygon", "coordinates": [ [ [ [ 1262249.034566706512123, 5547281.343784033320844 ], [ 1262349.034566706512123, 5547281.343784033320844 ], [ 1262349.034566706512123, 5547181.343784033320844 ], [ 1262249.034566706512123, 5547181.343784033320844 ], [ 1262249.034566706512123, 5547281.343784033320844 ] ] ] ] } },
{ "type": "Feature", "properties": { "id": 13912, "street_cells": 861.15387278497224, "yard_cells": 1189.225687205791, "utility": 3.0139862606183279, "num_areas": 0.0 }, "geometry": { "type": "MultiPolygon", "coordinates": [ [ [ [ 1262249.034566706512123, 5543681.343784033320844 ], [ 1262349.034566706512123, 5543681.343784033320844 ], [ 1262349.034566706512123, 5543581.343784033320844 ], [ 1262249.034566706512123, 5543581.343784033320844 ], [ 1262249.034566706512123, 5543681.343784033320844 ] ] ] ] } },
{ "type": "Feature", "properties": { "id": 14035, "street_cells": 0.0, "yard_cells": 1020.080500566959, "utility": 2.0133934218231349, "num_areas": 0.0 }, "geometry": { "type": "MultiPolygon", "coordinates": [ [ [ [ 1262349.034566706512123, 5547281.343784033320844 ], [ 1262449.034566706512123, 5547281.343784033320844 ], [ 1262449.034566706512123, 5547181.343784033320844 ], [ 1262349.034566706512123, 5547181.343784033320844 ], [ 1262349.034566706512123, 5547281.343784033320844 ] ] ] ] } },
{ "type": "Feature", "properties": { "id": 14054, "street_cells": 0.0, "yard_cells": 5080.8926781494174, "utility": 2.764232804927917, "num_areas": 0.0 }, "geometry": { "type": "MultiPolygon", "coordinates": [ [ [ [ 1262349.034566706512123, 5545381.343784033320844 ], [ 1262449.034566706512123, 5545381.343784033320844 ], [ 1262449.034566706512123, 5545281.343784033320844 ], [ 1262349.034566706512123, 5545281.343784033320844 ], [ 1262349.034566706512123, 5545381.343784033320844 ] ] ] ] } },
{ "type": "Feature", "properties": { "id": 14071, "street_cells": 632.14525218009953, "yard_cells": 1116.5242207399531, "utility": 2.5807766084359391, "num_areas": 0.0 }, "geometry": { "type": "MultiPolygon", "coordinates": [ [ [ [ 1262349.034566706512123, 5543681.343784033320844 ], [ 1262449.034566706512123, 5543681.343784033320844 ], [ 1262449.034566706512123, 5543581.343784033320844 ], [ 1262349.034566706512123, 5543581.343784033320844 ], [ 1262349.034566706512123, 5543681.343784033320844 ] ] ] ] } },
{ "type": "Feature", "properties": { "id": 14085, "street_cells": 1440.7010955790061, "yard_cells": 0.0, "utility": 2.323252422418641, "num_areas": 0.0 }, "geometry": { "type": "MultiPolygon", "coordinates": [ [ [ [ 1262349.034566706512123, 5542281.343784033320844 ], [ 1262449.034566706512123, 5542281.343784033320844 ], [ 1262449.034566706512123, 5542181.343784033320844 ], [ 1262349.034566706512123, 5542181.343784033320844 ], [ 1262349.034566706512123, 5542281.343784033320844 ] ] ] ] } },
{ "type": "Feature", "properties": { "id": 14115, "street_cells": 406.39235815107833, "yard_cells": 3053.7709566473959, "utility": 2.329891595449114, "num_areas": 0.0 }, "geometry": { "type": "MultiPolygon", "coordinates": [ [ [ [ 1262349.034566706512123, 5539281.343784033320844 ], [ 1262449.034566706512123, 5539281.343784033320844 ], [ 1262449.034566706512123, 5539181.343784033320844 ], [ 1262349.034566706512123, 5539181.343784033320844 ], [ 1262349.034566706512123, 5539281.343784033320844 ] ] ] ] } },
{ "type": "Feature", "properties": { "id": 14213, "street_cells": 0.0, "yard_cells": 3831.9975131819028, "utility": 2.1415653597610458, "num_areas": 1.0 }, "geometry": { "type": "MultiPolygon", "coordinates": [ [ [ [ 1262449.034566706512123, 5545381.343784033320844 ], [ 1262549.034566706512123, 5545381.343784033320844 ], [ 1262549.034566706512123, 5545281.343784033320844 ], [ 1262449.034566706512123, 5545281.343784033320844 ], [ 1262449.034566706512123, 5545381.343784033320844 ] ] ] ] } },
{ "type": "Feature", "properties": { "id": 14223, "street_cells": 456.58063466511669, "yard_cells": 1820.640459012985, "utility": 3.4674853535832879, "num_areas": 0.0 }, "geometry": { "type": "MultiPolygon", "coordinates": [ [ [ [ 1262449.034566706512123, 5544381.343784033320844 ], [ 1262549.034566706512123, 5544381.343784033320844 ], [ 1262549.034566706512123, 5544281.343784033320844 ], [ 1262449.034566706512123, 5544281.343784033320844 ], [ 1262449.034566706512123, 5544381.343784033320844 ] ] ] ] } },
{ "type": "Feature", "properties": { "id": 14541, "street_cells": 667.36521638482816, "yard_cells": 2494.080928401756, "utility": 2.3590444158137038, "num_areas": 1.0 }, "geometry": { "type": "MultiPolygon", "coordinates": [ [ [ [ 1262649.034566706512123, 5544381.343784033320844 ], [ 1262749.034566706512123, 5544381.343784033320844 ], [ 1262749.034566706512123, 5544281.343784033320844 ], [ 1262649.034566706512123, 5544281.343784033320844 ], [ 1262649.034566706512123, 5544381.343784033320844 ] ] ] ] } },
{ "type": "Feature", "properties": { "id": 14704, "street_cells": 1091.255850312114, "yard_cells": 309.08382250492582, "utility": 2.1805203376479989, "num_areas": 0.0 }, "geometry": { "type": "MultiPolygon", "coordinates": [ [ [ [ 1262749.034566706512123, 5543981.343784033320844 ], [ 1262849.034566706512123, 5543981.343784033320844 ], [ 1262849.034566706512123, 5543881.343784033320844 ], [ 1262749.034566706512123, 5543881.343784033320844 ], [ 1262749.034566706512123, 5543981.343784033320844 ] ] ] ] } },
{ "type": "Feature", "properties": { "id": 15018, "street_cells": 379.96083249002697, "yard_cells": 2101.6301194659591, "utility": 2.946643896193466, "num_areas": 0.0 }, "geometry": { "type": "MultiPolygon", "coordinates": [ [ [ [ 1262949.034566706512123, 5544381.343784033320844 ], [ 1263049.034566706512123, 5544381.343784033320844 ], [ 1263049.034566706512123, 5544281.343784033320844 ], [ 1262949.034566706512123, 5544281.343784033320844 ], [ 1262949.034566706512123, 5544381.343784033320844 ] ] ] ] } },
{ "type": "Feature", "properties": { "id": 15335, "street_cells": 468.34462500028309, "yard_cells": 1769.013909595539, "utility": 3.4841696506752138, "num_areas": 0.0 }, "geometry": { "type": "MultiPolygon", "coordinates": [ [ [ [ 1263149.034566706512123, 5544481.343784033320844 ], [ 1263249.034566706512123, 5544481.343784033320844 ], [ 1263249.034566706512123, 5544381.343784033320844 ], [ 1263149.034566706512123, 5544381.343784033320844 ], [ 1263149.034566706512123, 5544481.343784033320844 ] ] ] ] } },
{ "type": "Feature", "properties": { "id": 15481, "street_cells": 298.77835048213598, "yard_cells": 3716.2636427404559, "utility": 2.6013164021546111, "num_areas": 1.0 }, "geometry": { "type": "MultiPolygon", "coordinates": [ [ [ [ 1263249.034566706512123, 5545781.343784033320844 ], [ 1263349.034566706512123, 5545781.343784033320844 ], [ 1263349.034566706512123, 5545681.343784033320844 ], [ 1263249.034566706512123, 5545681.343784033320844 ], [ 1263249.034566706512123, 5545781.343784033320844 ] ] ] ] } },
{ "type": "Feature", "properties": { "id": 15483, "street_cells": 0.0, "yard_cells": 4739.8594002969567, "utility": 6.074617133099701, "num_areas": 0.0 }, "geometry": { "type": "MultiPolygon", "coordinates": [ [ [ [ 1263249.034566706512123, 5545581.343784033320844 ], [ 1263349.034566706512123, 5545581.343784033320844 ], [ 1263349.034566706512123, 5545481.343784033320844 ], [ 1263249.034566706512123, 5545481.343784033320844 ], [ 1263249.034566706512123, 5545581.343784033320844 ] ] ] ] } },
{ "type": "Feature", "properties": { "id": 15978, "street_cells": 0.0, "yard_cells": 4482.7566348433493, "utility": 2.5422673666259792, "num_areas": 0.0 }, "geometry": { "type": "MultiPolygon", "coordinates": [ [ [ [ 1263549.034566706512123, 5543781.343784033320844 ], [ 1263649.034566706512123, 5543781.343784033320844 ], [ 1263649.034566706512123, 5543681.343784033320844 ], [ 1263549.034566706512123, 5543681.343784033320844 ], [ 1263549.034566706512123, 5543781.343784033320844 ] ] ] ] } },
{ "type": "Feature", "properties": { "id": 16114, "street_cells": 376.51293735578662, "yard_cells": 3446.5635024208582, "utility": 2.960140028049866, "num_areas": 0.0 }, "geometry": { "type": "MultiPolygon", "coordinates": [ [ [ [ 1263649.034566706512123, 5546081.343784033320844 ], [ 1263749.034566706512123, 5546081.343784033320844 ], [ 1263749.034566706512123, 5545981.343784033320844 ], [ 1263649.034566706512123, 5545981.343784033320844 ], [ 1263649.034566706512123, 5546081.343784033320844 ] ] ] ] } },
{ "type": "Feature", "properties": { "id": 16137, "street_cells": 168.62465070784091, "yard_cells": 3688.6627867103089, "utility": 2.776908295985987, "num_areas": 0.0 }, "geometry": { "type": "MultiPolygon", "coordinates": [ [ [ [ 1263649.034566706512123, 5543781.343784033320844 ], [ 1263749.034566706512123, 5543781.343784033320844 ], [ 1263749.034566706512123, 5543681.343784033320844 ], [ 1263649.034566706512123, 5543681.343784033320844 ], [ 1263649.034566706512123, 5543781.343784033320844 ] ] ] ] } },
{ "type": "Feature", "properties": { "id": 16271, "street_cells": 98.362333324551585, "yard_cells": 4885.3405590780076, "utility": 2.3628369167573111, "num_areas": 0.0 }, "geometry": { "type": "MultiPolygon", "coordinates": [ [ [ [ 1263749.034566706512123, 5546281.343784033320844 ], [ 1263849.034566706512123, 5546281.343784033320844 ], [ 1263849.034566706512123, 5546181.343784033320844 ], [ 1263749.034566706512123, 5546181.343784033320844 ], [ 1263749.034566706512123, 5546281.343784033320844 ] ] ] ] } },
{ "type": "Feature", "properties": { "id": 16274, "street_cells": 385.83039495199921, "yard_cells": 3827.2164402693511, "utility": 4.4712104144274143, "num_areas": 0.0 }, "geometry": { "type": "MultiPolygon", "coordinates": [ [ [ [ 1263749.034566706512123, 5545981.343784033320844 ], [ 1263849.034566706512123, 5545981.343784033320844 ], [ 1263849.034566706512123, 5545881.343784033320844 ], [ 1263749.034566706512123, 5545881.343784033320844 ], [ 1263749.034566706512123, 5545981.343784033320844 ] ] ] ] } },
{ "type": "Feature", "properties": { "id": 16281, "street_cells": 381.49089616537088, "yard_cells": 2641.4197042977789, "utility": 2.950847137437751, "num_areas": 0.0 }, "geometry": { "type": "MultiPolygon", "coordinates": [ [ [ [ 1263749.034566706512123, 5545281.343784033320844 ], [ 1263849.034566706512123, 5545281.343784033320844 ], [ 1263849.034566706512123, 5545181.343784033320844 ], [ 1263749.034566706512123, 5545181.343784033320844 ], [ 1263749.034566706512123, 5545281.343784033320844 ] ] ] ] } },
{ "type": "Feature", "properties": { "id": 16300, "street_cells": 0.0, "yard_cells": 4233.6115017518396, "utility": 3.3419227976157919, "num_areas": 0.0 }, "geometry": { "type": "MultiPolygon", "coordinates": [ [ [ [ 1263749.034566706512123, 5543381.343784033320844 ], [ 1263849.034566706512123, 5543381.343784033320844 ], [ 1263849.034566706512123, 5543281.343784033320844 ], [ 1263749.034566706512123, 5543281.343784033320844 ], [ 1263749.034566706512123, 5543381.343784033320844 ] ] ] ] } },
{ "type": "Feature", "properties": { "id": 16771, "street_cells": 463.03511076457801, "yard_cells": 2414.5108577074579, "utility": 2.324407702481305, "num_areas": 1.0 }, "geometry": { "type": "MultiPolygon", "coordinates": [ [ [ [ 1264049.034566706512123, 5543981.343784033320844 ], [ 1264149.034566706512123, 5543981.343784033320844 ], [ 1264149.034566706512123, 5543881.343784033320844 ], [ 1264049.034566706512123, 5543881.343784033320844 ], [ 1264049.034566706512123, 5543981.343784033320844 ] ] ] ] } },
{ "type": "Feature", "properties": { "id": 18045, "street_cells": 102.2856218669564, "yard_cells": 3937.1847069375222, "utility": 2.2330779588745018, "num_areas": 0.0 }, "geometry": { "type": "MultiPolygon", "coordinates": [ [ [ [ 1264849.034566706512123, 5543781.343784033320844 ], [ 1264949.034566706512123, 5543781.343784033320844 ], [ 1264949.034566706512123, 5543681.343784033320844 ], [ 1264849.034566706512123, 5543681.343784033320844 ], [ 1264849.034566706512123, 5543781.343784033320844 ] ] ] ] } },
{ "type": "Feature", "properties": { "id": 18741, "street_cells": 0.0, "yard_cells": 2113.39, "utility": 5.2693762378495883, "num_areas": 0.0 }, "geometry": { "type": "MultiPolygon", "coordinates": [ [ [ [ 1265308.361474410630763, 5537683.123749963007867 ], [ 1265320.826543020782992, 5537754.781953492201865 ], [ 1265324.63815227872692, 5537776.788008295930922 ], [ 1265325.702448474010453, 5537781.343784033320844 ], [ 1265349.034566706512123, 5537781.343784033320844 ], [ 1265349.034566706512123, 5537681.343784033320844 ], [ 1265308.4180562349502, 5537681.343784033320844 ], [ 1265308.361474410630763, 5537683.123749963007867 ] ] ] ] } },
{ "type": "Feature", "properties": { "id": 18850, "street_cells": 0.0, "yard_cells": 3664.71628887821, "utility": 2.3231046574508132, "num_areas": 0.0 }, "geometry": { "type": "MultiPolygon", "coordinates": [ [ [ [ 1265349.034566706512123, 5542781.343784033320844 ], [ 1265449.034566706512123, 5542781.343784033320844 ], [ 1265449.034566706512123, 5542681.343784033320844 ], [ 1265349.034566706512123, 5542681.343784033320844 ], [ 1265349.034566706512123, 5542781.343784033320844 ] ] ] ] } },
{ "type": "Feature", "properties": { "id": 18882, "street_cells": 587.45694933980701, "yard_cells": 2524.6622496219352, "utility": 2.5170769659720791, "num_areas": 0.0 }, "geometry": { "type": "MultiPolygon", "coordinates": [ [ [ [ 1265349.034566706512123, 5539581.343784033320844 ], [ 1265449.034566706512123, 5539581.343784033320844 ], [ 1265449.034566706512123, 5539481.343784033320844 ], [ 1265349.034566706512123, 5539481.343784033320844 ], [ 1265349.034566706512123, 5539581.343784033320844 ] ] ] ] } },
{ "type": "Feature", "properties": { "id": 19026, "street_cells": 89.247118216753009, "yard_cells": 3402.133452967927, "utility": 3.0434942004381749, "num_areas": 1.0 }, "geometry": { "type": "MultiPolygon", "coordinates": [ [ [ [ 1265449.034566706512123, 5541081.343784033320844 ], [ 1265549.034566706512123, 5541081.343784033320844 ], [ 1265549.034566706512123, 5540981.343784033320844 ], [ 1265449.034566706512123, 5540981.343784033320844 ], [ 1265449.034566706512123, 5541081.343784033320844 ] ] ] ] } },
{ "type": "Feature", "properties": { "id": 19036, "street_cells": 373.47678840458389, "yard_cells": 3269.9605147170219, "utility": 2.0635196027660259, "num_areas": 0.0 }, "geometry": { "type": "MultiPolygon", "coordinates": [ [ [ [ 1265449.034566706512123, 5540081.343784033320844 ], [ 1265549.034566706512123, 5540081.343784033320844 ], [ 1265549.034566706512123, 5539981.343784033320844 ], [ 1265449.034566706512123, 5539981.343784033320844 ], [ 1265449.034566706512123, 5540081.343784033320844 ] ] ] ] } },
{ "type": "Feature", "properties": { "id": 19037, "street_cells": 405.75128435343498, "yard_cells": 3488.75264450144, "utility": 2.6382886528910419, "num_areas": 0.0 }, "geometry": { "type": "MultiPolygon", "coordinates": [ [ [ [ 1265449.034566706512123, 5539981.343784033320844 ], [ 1265549.034566706512123, 5539981.343784033320844 ], [ 1265549.034566706512123, 5539881.343784033320844 ], [ 1265449.034566706512123, 5539881.343784033320844 ], [ 1265449.034566706512123, 5539981.343784033320844 ] ] ] ] } },
{ "type": "Feature", "properties": { "id": 19195, "street_cells": 521.43410122096543, "yard_cells": 3020.172990518809, "utility": 2.3447888810242361, "num_areas": 0.0 }, "geometry": { "type": "MultiPolygon", "coordinates": [ [ [ [ 1265549.034566706512123, 5540081.343784033320844 ], [ 1265649.034566706512123, 5540081.343784033320844 ], [ 1265649.034566706512123, 5539981.343784033320844 ], [ 1265549.034566706512123, 5539981.343784033320844 ], [ 1265549.034566706512123, 5540081.343784033320844 ] ] ] ] } },
{ "type": "Feature", "properties": { "id": 19237, "street_cells": 263.88205305226148, "yard_cells": 3240.1522006273271, "utility": 3.7690597985711598, "num_areas": 0.0 }, "geometry": { "type": "MultiPolygon", "coordinates": [ [ [ [ 1265549.034566706512123, 5535881.343784033320844 ], [ 1265649.034566706512123, 5535881.343784033320844 ], [ 1265649.034566706512123, 5535781.343784033320844 ], [ 1265549.034566706512123, 5535781.343784033320844 ], [ 1265549.034566706512123, 5535881.343784033320844 ] ] ] ] } },
{ "type": "Feature", "properties": { "id": 19345, "street_cells": 83.43431467264891, "yard_cells": 3844.63895251751, "utility": 5.0817369860280817, "num_areas": 0.0 }, "geometry": { "type": "MultiPolygon", "coordinates": [ [ [ [ 1265649.034566706512123, 5540981.343784033320844 ], [ 1265749.034566706512123, 5540981.343784033320844 ], [ 1265749.034566706512123, 5540881.343784033320844 ], [ 1265649.034566706512123, 5540881.343784033320844 ], [ 1265649.034566706512123, 5540981.343784033320844 ] ] ] ] } },
{ "type": "Feature", "properties": { "id": 19504, "street_cells": 0.0, "yard_cells": 4867.225944268298, "utility": 3.06829127930187, "num_areas": 0.0 }, "geometry": { "type": "MultiPolygon", "coordinates": [ [ [ [ 1265749.034566706512123, 5540981.343784033320844 ], [ 1265849.034566706512123, 5540981.343784033320844 ], [ 1265849.034566706512123, 5540881.343784033320844 ], [ 1265749.034566706512123, 5540881.343784033320844 ], [ 1265749.034566706512123, 5540981.343784033320844 ] ] ] ] } },
{ "type": "Feature", "properties": { "id": 19527, "street_cells": 405.8653359785676, "yard_cells": 2525.371852768958, "utility": 3.2615546937078541, "num_areas": 0.0 }, "geometry": { "type": "MultiPolygon", "coordinates": [ [ [ [ 1265793.211446529254317, 5538591.527256065048277 ], [ 1265789.306784606073052, 5538602.667984748259187 ], [ 1265789.331363091710955, 5538603.518316358327866 ], [ 1265773.587894692784175, 5538645.218657799065113 ], [ 1265764.71659587114118, 5538660.783112415112555 ], [ 1265752.434265846852213, 5538681.343784033320844 ], [ 1265849.034566706512123, 5538681.343784033320844 ], [ 1265849.034566706512123, 5538581.343784033320844 ], [ 1265796.781568184262142, 5538581.343784033320844 ], [ 1265793.211446529254317, 5538591.527256065048277 ] ] ] ] } },
{ "type": "Feature", "properties": { "id": 19665, "street_cells": 528.43761329501865, "yard_cells": 2374.7849866367378, "utility": 2.731330677165122, "num_areas": 0.0 }, "geometry": { "type": "MultiPolygon", "coordinates": [ [ [ [ 1265849.034566706512123, 5540781.343784033320844 ], [ 1265949.034566706512123, 5540781.343784033320844 ], [ 1265949.034566706512123, 5540681.343784033320844 ], [ 1265849.034566706512123, 5540681.343784033320844 ], [ 1265849.034566706512123, 5540781.343784033320844 ] ] ] ] } },
{ "type": "Feature", "properties": { "id": 19675, "street_cells": 237.33096101582049, "yard_cells": 3805.6648121640092, "utility": 2.7010116386577798, "num_areas": 0.0 }, "geometry": { "type": "MultiPolygon", "coordinates": [ [ [ [ 1265849.034566706512123, 5539781.343784033320844 ], [ 1265949.034566706512123, 5539781.343784033320844 ], [ 1265949.034566706512123, 5539681.343784033320844 ], [ 1265849.034566706512123, 5539681.343784033320844 ], [ 1265849.034566706512123, 5539781.343784033320844 ] ] ] ] } },
{ "type": "Feature", "properties": { "id": 19696, "street_cells": 266.12332199811942, "yard_cells": 3808.31499007307, "utility": 3.6321513166924082, "num_areas": 0.0 }, "geometry": { "type": "MultiPolygon", "coordinates": [ [ [ [ 1265849.034566706512123, 5537681.343784033320844 ], [ 1265949.034566706512123, 5537681.343784033320844 ], [ 1265949.034566706512123, 5537581.343784033320844 ], [ 1265849.034566706512123, 5537581.343784033320844 ], [ 1265849.034566706512123, 5537681.343784033320844 ] ] ] ] } },
{ "type": "Feature", "properties": { "id": 19714, "street_cells": 0.0, "yard_cells": 2477.8302324846391, "utility": 5.3549824054837316, "num_areas": 0.0 }, "geometry": { "type": "MultiPolygon", "coordinates": [ [ [ [ 1265849.034566706512123, 5535881.343784033320844 ], [ 1265949.034566706512123, 5535881.343784033320844 ], [ 1265949.034566706512123, 5535781.343784033320844 ], [ 1265849.034566706512123, 5535781.343784033320844 ], [ 1265849.034566706512123, 5535881.343784033320844 ] ] ] ] } },
{ "type": "Feature", "properties": { "id": 19790, "street_cells": 538.29415539614854, "yard_cells": 3198.370455203205, "utility": 4.0402451756289199, "num_areas": 0.0 }, "geometry": { "type": "MultiPolygon", "coordinates": [ [ [ [ 1265949.034566706512123, 5544181.343784033320844 ], [ 1266049.034566706512123, 5544181.343784033320844 ], [ 1266049.034566706512123, 5544081.343784033320844 ], [ 1265949.034566706512123, 5544081.343784033320844 ], [ 1265949.034566706512123, 5544181.343784033320844 ] ] ] ] } },
{ "type": "Feature", "properties": { "id": 19846, "street_cells": 353.34486205093572, "yard_cells": 4439.1929107692094, "utility": 4.2973190717557577, "num_areas": 0.0 }, "geometry": { "type": "MultiPolygon", "coordinates": [ [ [ [ 1265949.034566706512123, 5538581.343784033320844 ], [ 1266049.034566706512123, 5538581.343784033320844 ], [ 1266049.034566706512123, 5538481.343784033320844 ], [ 1265949.034566706512123, 5538481.343784033320844 ], [ 1265949.034566706512123, 5538581.343784033320844 ] ] ] ] } },
{ "type": "Feature", "properties": { "id": 19847, "street_cells": 458.27338569164277, "yard_cells": 3374.4290557652712, "utility": 2.0026119011507988, "num_areas": 0.0 }, "geometry": { "type": "MultiPolygon", "coordinates": [ [ [ [ 1265949.034566706512123, 5538481.343784033320844 ], [ 1266049.034566706512123, 5538481.343784033320844 ], [ 1266049.034566706512123, 5538381.343784033320844 ], [ 1265949.034566706512123, 5538381.343784033320844 ], [ 1265949.034566706512123, 5538481.343784033320844 ] ] ] ] } },
{ "type": "Feature", "properties": { "id": 20007, "street_cells": 402.30077166110277, "yard_cells": 3831.083943158761, "utility": 4.7766139618936707, "num_areas": 0.0 }, "geometry": { "type": "MultiPolygon", "coordinates": [ [ [ [ 1266049.034566706512123, 5538381.343784033320844 ], [ 1266149.034566706512123, 5538381.343784033320844 ], [ 1266149.034566706512123, 5538281.343784033320844 ], [ 1266049.034566706512123, 5538281.343784033320844 ], [ 1266049.034566706512123, 5538381.343784033320844 ] ] ] ] } },
{ "type": "Feature", "properties": { "id": 20011, "street_cells": 186.73449331186711, "yard_cells": 4375.3586414763704, "utility": 2.824841449771045, "num_areas": 0.0 }, "geometry": { "type": "MultiPolygon", "coordinates": [ [ [ [ 1266049.034566706512123, 5537981.343784033320844 ], [ 1266149.034566706512123, 5537981.343784033320844 ], [ 1266149.034566706512123, 5537881.343784033320844 ], [ 1266049.034566706512123, 5537881.343784033320844 ], [ 1266049.034566706512123, 5537981.343784033320844 ] ] ] ] } },
{ "type": "Feature", "properties": { "id": 20156, "street_cells": 427.43424261324111, "yard_cells": 3477.8519004503728, "utility": 2.2015364205000458, "num_areas": 0.0 }, "geometry": { "type": "MultiPolygon", "coordinates": [ [ [ [ 1266149.034566706512123, 5539381.343784033320844 ], [ 1266249.034566706512123, 5539381.343784033320844 ], [ 1266249.034566706512123, 5539281.343784033320844 ], [ 1266149.034566706512123, 5539281.343784033320844 ], [ 1266149.034566706512123, 5539381.343784033320844 ] ] ] ] } },
{ "type": "Feature", "properties": { "id": 20157, "street_cells": 398.08790247887367, "yard_cells": 3732.411541170999, "utility": 2.008893712338351, "num_areas": 0.0 }, "geometry": { "type": "MultiPolygon", "coordinates": [ [ [ [ 1266149.034566706512123, 5539281.343784033320844 ], [ 1266249.034566706512123, 5539281.343784033320844 ], [ 1266249.034566706512123, 5539181.343784033320844 ], [ 1266149.034566706512123, 5539181.343784033320844 ], [ 1266149.034566706512123, 5539281.343784033320844 ] ] ] ] } },
{ "type": "Feature", "properties": { "id": 20158, "street_cells": 93.022410947084438, "yard_cells": 3566.0652005635202, "utility": 2.5801398842777981, "num_areas": 0.0 }, "geometry": { "type": "MultiPolygon", "coordinates": [ [ [ [ 1266149.034566706512123, 5539181.343784033320844 ], [ 1266249.034566706512123, 5539181.343784033320844 ], [ 1266249.034566706512123, 5539081.343784033320844 ], [ 1266149.034566706512123, 5539081.343784033320844 ], [ 1266149.034566706512123, 5539181.343784033320844 ] ] ] ] } },
{ "type": "Feature", "properties": { "id": 20307, "street_cells": 537.18822092115886, "yard_cells": 3420.100078599527, "utility": 3.3020755147054821, "num_areas": 0.0 }, "geometry": { "type": "MultiPolygon", "coordinates": [ [ [ [ 1266249.034566706512123, 5540181.343784033320844 ], [ 1266349.034566706512123, 5540181.343784033320844 ], [ 1266349.034566706512123, 5540081.343784033320844 ], [ 1266249.034566706512123, 5540081.343784033320844 ], [ 1266249.034566706512123, 5540181.343784033320844 ] ] ] ] } },
{ "type": "Feature", "properties": { "id": 20791, "street_cells": 48.511434352956712, "yard_cells": 3759.8031855881218, "utility": 2.7880939234388089, "num_areas": 0.0 }, "geometry": { "type": "MultiPolygon", "coordinates": [ [ [ [ 1266549.034566706512123, 5539481.343784033320844 ], [ 1266649.034566706512123, 5539481.343784033320844 ], [ 1266649.034566706512123, 5539381.343784033320844 ], [ 1266549.034566706512123, 5539381.343784033320844 ], [ 1266549.034566706512123, 5539481.343784033320844 ] ] ] ] } },
{ "type": "Feature", "properties": { "id": 20896, "street_cells": 0.0, "yard_cells": 3006.02, "utility": 6.4964808142174384, "num_areas": 0.0 }, "geometry": { "type": "MultiPolygon", "coordinates": [ [ [ [ 1266738.724678207887337, 5544790.624836105853319 ], [ 1266735.591890913434327, 5544781.343784033320844 ], [ 1266649.034566706512123, 5544781.343784033320844 ], [ 1266649.034566706512123, 5544881.343784033320844 ], [ 1266749.034566706512123, 5544881.343784033320844 ], [ 1266749.034566706512123, 5544821.109425464645028 ], [ 1266738.724678207887337, 5544790.624836105853319 ] ] ] ] } },
{ "type": "Feature", "properties": { "id": 21105, "street_cells": 410.31305187175752, "yard_cells": 3941.8882632676509, "utility": 4.9705611866330504, "num_areas": 0.0 }, "geometry": { "type": "MultiPolygon", "coordinates": [ [ [ [ 1266749.034566706512123, 5539881.343784033320844 ], [ 1266849.034566706512123, 5539881.343784033320844 ], [ 1266849.034566706512123, 5539781.343784033320844 ], [ 1266749.034566706512123, 5539781.343784033320844 ], [ 1266749.034566706512123, 5539881.343784033320844 ] ] ] ] } },
{ "type": "Feature", "properties": { "id": 21236, "street_cells": 166.48388651162389, "yard_cells": 5670.2978785257792, "utility": 2.522430470417004, "num_areas": 0.0 }, "geometry": { "type": "MultiPolygon", "coordinates": [ [ [ [ 1266849.034566706512123, 5542681.343784033320844 ], [ 1266949.034566706512123, 5542681.343784033320844 ], [ 1266949.034566706512123, 5542581.343784033320844 ], [ 1266849.034566706512123, 5542581.343784033320844 ], [ 1266849.034566706512123, 5542681.343784033320844 ] ] ] ] } },
{ "type": "Feature", "properties": { "id": 21560, "street_cells": 191.93236859738829, "yard_cells": 3136.2370242049628, "utility": 1.9754718791837, "num_areas": 0.0 }, "geometry": { "type": "MultiPolygon", "coordinates": [ [ [ [ 1267049.034566706512123, 5542081.343784033320844 ], [ 1267149.034566706512123, 5542081.343784033320844 ], [ 1267149.034566706512123, 5541981.343784033320844 ], [ 1267049.034566706512123, 5541981.343784033320844 ], [ 1267049.034566706512123, 5542081.343784033320844 ] ] ] ] } },
{ "type": "Feature", "properties": { "id": 21581, "street_cells": 387.23632563613359, "yard_cells": 3662.593789909221, "utility": 2.3059420924382938, "num_areas": 0.0 }, "geometry": { "type": "MultiPolygon", "coordinates": [ [ [ [ 1267049.034566706512123, 5539981.343784033320844 ], [ 1267149.034566706512123, 5539981.343784033320844 ], [ 1267149.034566706512123, 5539881.343784033320844 ], [ 1267049.034566706512123, 5539881.343784033320844 ], [ 1267049.034566706512123, 5539981.343784033320844 ] ] ] ] } },
{ "type": "Feature", "properties": { "id": 21582, "street_cells": 401.67031501755122, "yard_cells": 3546.5823163744062, "utility": 2.1432896128006078, "num_areas": 0.0 }, "geometry": { "type": "MultiPolygon", "coordinates": [ [ [ [ 1267049.034566706512123, 5539881.343784033320844 ], [ 1267149.034566706512123, 5539881.343784033320844 ], [ 1267149.034566706512123, 5539781.343784033320844 ], [ 1267049.034566706512123, 5539781.343784033320844 ], [ 1267049.034566706512123, 5539881.343784033320844 ] ] ] ] } },
{ "type": "Feature", "properties": { "id": 21740, "street_cells": 608.85388379096992, "yard_cells": 2475.191275319085, "utility": 2.2289854441630852, "num_areas": 0.0 }, "geometry": { "type": "MultiPolygon", "coordinates": [ [ [ [ 1267149.034566706512123, 5539981.343784033320844 ], [ 1267249.034566706512123, 5539981.343784033320844 ], [ 1267249.034566706512123, 5539881.343784033320844 ], [ 1267149.034566706512123, 5539881.343784033320844 ], [ 1267149.034566706512123, 5539981.343784033320844 ] ] ] ] } },
{ "type": "Feature", "properties": { "id": 21741, "street_cells": 372.95016006529329, "yard_cells": 3611.3160628769551, "utility": 3.264733382660038, "num_areas": 0.0 }, "geometry": { "type": "MultiPolygon", "coordinates": [ [ [ [ 1267149.034566706512123, 5539881.343784033320844 ], [ 1267249.034566706512123, 5539881.343784033320844 ], [ 1267249.034566706512123, 5539781.343784033320844 ], [ 1267149.034566706512123, 5539781.343784033320844 ], [ 1267149.034566706512123, 5539881.343784033320844 ] ] ] ] } },
{ "type": "Feature", "properties": { "id": 21746, "street_cells": 348.48698984310028, "yard_cells": 3045.2652265659949, "utility": 2.0021549822639848, "num_areas": 2.0 }, "geometry": { "type": "MultiPolygon", "coordinates": [ [ [ [ 1267149.034566706512123, 5539381.343784033320844 ], [ 1267249.034566706512123, 5539381.343784033320844 ], [ 1267249.034566706512123, 5539281.343784033320844 ], [ 1267149.034566706512123, 5539281.343784033320844 ], [ 1267149.034566706512123, 5539381.343784033320844 ] ] ] ] } },
{ "type": "Feature", "properties": { "id": 21876, "street_cells": 312.50244267433891, "yard_cells": 2410.8979754820471, "utility": 2.169011994587879, "num_areas": 0.0 }, "geometry": { "type": "MultiPolygon", "coordinates": [ [ [ [ 1267249.034566706512123, 5542281.343784033320844 ], [ 1267349.034566706512123, 5542281.343784033320844 ], [ 1267349.034566706512123, 5542181.343784033320844 ], [ 1267249.034566706512123, 5542181.343784033320844 ], [ 1267249.034566706512123, 5542281.343784033320844 ] ] ] ] } },
{ "type": "Feature", "properties": { "id": 21877, "street_cells": 758.87616989761591, "yard_cells": 1897.4038055649639, "utility": 2.3777235744662431, "num_areas": 0.0 }, "geometry": { "type": "MultiPolygon", "coordinates": [ [ [ [ 1267249.034566706512123, 5542181.343784033320844 ], [ 1267349.034566706512123, 5542181.343784033320844 ], [ 1267349.034566706512123, 5542081.343784033320844 ], [ 1267249.034566706512123, 5542081.343784033320844 ], [ 1267249.034566706512123, 5542181.343784033320844 ] ] ] ] } },
{ "type": "Feature", "properties": { "id": 21901, "street_cells": 451.28774762153631, "yard_cells": 3478.8986887739738, "utility": 2.4289370316441818, "num_areas": 0.0 }, "geometry": { "type": "MultiPolygon", "coordinates": [ [ [ [ 1267249.034566706512123, 5539781.343784033320844 ], [ 1267349.034566706512123, 5539781.343784033320844 ], [ 1267349.034566706512123, 5539681.343784033320844 ], [ 1267249.034566706512123, 5539681.343784033320844 ], [ 1267249.034566706512123, 5539781.343784033320844 ] ] ] ] } },
{ "type": "Feature", "properties": { "id": 21904, "street_cells": 453.98959315903488, "yard_cells": 3367.3565321525398, "utility": 2.7221593674382132, "num_areas": 0.0 }, "geometry": { "type": "MultiPolygon", "coordinates": [ [ [ [ 1267249.034566706512123, 5539481.343784033320844 ], [ 1267349.034566706512123, 5539481.343784033320844 ], [ 1267349.034566706512123, 5539381.343784033320844 ], [ 1267249.034566706512123, 5539381.343784033320844 ], [ 1267249.034566706512123, 5539481.343784033320844 ] ] ] ] } },
{ "type": "Feature", "properties": { "id": 21907, "street_cells": 421.37787138968707, "yard_cells": 3472.0655098587281, "utility": 3.4450668530292199, "num_areas": 0.0 }, "geometry": { "type": "MultiPolygon", "coordinates": [ [ [ [ 1267249.034566706512123, 5539181.343784033320844 ], [ 1267349.034566706512123, 5539181.343784033320844 ], [ 1267349.034566706512123, 5539081.343784033320844 ], [ 1267249.034566706512123, 5539081.343784033320844 ], [ 1267249.034566706512123, 5539181.343784033320844 ] ] ] ] } },
{ "type": "Feature", "properties": { "id": 22033, "street_cells": 126.0680740647018, "yard_cells": 3915.0019963745031, "utility": 2.1636313780348151, "num_areas": 0.0 }, "geometry": { "type": "MultiPolygon", "coordinates": [ [ [ [ 1267349.034566706512123, 5542481.343784033320844 ], [ 1267449.034566706512123, 5542481.343784033320844 ], [ 1267449.034566706512123, 5542381.343784033320844 ], [ 1267349.034566706512123, 5542381.343784033320844 ], [ 1267349.034566706512123, 5542481.343784033320844 ] ] ] ] } },
{ "type": "Feature", "properties": { "id": 22225, "street_cells": 291.13715378623459, "yard_cells": 3513.1857076114052, "utility": 2.288638318491738, "num_areas": 1.0 }, "geometry": { "type": "MultiPolygon", "coordinates": [ [ [ [ 1267449.034566706512123, 5539181.343784033320844 ], [ 1267549.034566706512123, 5539181.343784033320844 ], [ 1267549.034566706512123, 5539081.343784033320844 ], [ 1267449.034566706512123, 5539081.343784033320844 ], [ 1267449.034566706512123, 5539181.343784033320844 ] ] ] ] } },
{ "type": "Feature", "properties": { "id": 22226, "street_cells": 278.40787494089449, "yard_cells": 3856.1211349412802, "utility": 3.5811761629989318, "num_areas": 0.0 }, "geometry": { "type": "MultiPolygon", "coordinates": [ [ [ [ 1267449.034566706512123, 5539081.343784033320844 ], [ 1267549.034566706512123, 5539081.343784033320844 ], [ 1267549.034566706512123, 5538981.343784033320844 ], [ 1267449.034566706512123, 5538981.343784033320844 ], [ 1267449.034566706512123, 5539081.343784033320844 ] ] ] ] } },
{ "type": "Feature", "properties": { "id": 24895, "street_cells": 273.32828853502872, "yard_cells": 3710.552967180312, "utility": 2.4168371771683059, "num_areas": 1.0 }, "geometry": { "type": "MultiPolygon", "coordinates": [ [ [ [ 1269149.034566706512123, 5542481.343784033320844 ], [ 1269249.034566706512123, 5542481.343784033320844 ], [ 1269249.034566706512123, 5542381.343784033320844 ], [ 1269149.034566706512123, 5542381.343784033320844 ], [ 1269149.034566706512123, 5542481.343784033320844 ] ] ] ] } },
{ "type": "Feature", "properties": { "id": 25055, "street_cells": 405.65131325200201, "yard_cells": 4559.9796850115063, "utility": 2.999749266849038, "num_areas": 0.0 }, "geometry": { "type": "MultiPolygon", "coordinates": [ [ [ [ 1269249.034566706512123, 5542381.343784033320844 ], [ 1269349.034566706512123, 5542381.343784033320844 ], [ 1269349.034566706512123, 5542281.343784033320844 ], [ 1269249.034566706512123, 5542281.343784033320844 ], [ 1269249.034566706512123, 5542381.343784033320844 ] ] ] ] } },
{ "type": "Feature", "properties": { "id": 25703, "street_cells": 135.3512080207467, "yard_cells": 4174.3734926871957, "utility": 4.0712100404188138, "num_areas": 0.0 }, "geometry": { "type": "MultiPolygon", "coordinates": [ [ [ [ 1269722.840282435528934, 5541154.313003056682646 ], [ 1269745.01568117341958, 5541146.159186707809567 ], [ 1269749.034566706512123, 5541144.455984814092517 ], [ 1269749.034566706512123, 5541081.343784033320844 ], [ 1269649.034566706512123, 5541081.343784033320844 ], [ 1269649.034566706512123, 5541181.343784033320844 ], [ 1269657.656470290385187, 5541181.343784033320844 ], [ 1269722.840282435528934, 5541154.313003056682646 ] ] ] ] } },
{ "type": "Feature", "properties": { "id": 26658, "street_cells": 0.0, "yard_cells": 2633.9928884118799, "utility": 5.812995688554274, "num_areas": 0.0 }, "geometry": { "type": "MultiPolygon", "coordinates": [ [ [ [ 1270263.900941400555894, 5541020.949460439383984 ], [ 1270300.075408049859107, 5541003.448872189037502 ], [ 1270300.086371241603047, 5541003.469566242769361 ], [ 1270302.466687764041126, 5541002.31777417846024 ], [ 1270317.400453427340835, 5541030.440608610399067 ], [ 1270349.034566706512123, 5541015.683520069345832 ], [ 1270349.034566706512123, 5540986.462672933936119 ], [ 1270346.481167370453477, 5540981.343784033320844 ], [ 1270249.034566706512123, 5540981.343784033320844 ], [ 1270249.034566706512123, 5540991.702499872073531 ], [ 1270263.900941400555894, 5541020.949460439383984 ] ] ] ] } },
{ "type": "Feature", "properties": { "id": 26659, "street_cells": 194.83976573720579, "yard_cells": 4097.207852610084, "utility": 4.0863332530103333, "num_areas": 0.0 }, "geometry": { "type": "MultiPolygon", "coordinates": [ [ [ [ 1270302.317869324004278, 5540892.808076760731637 ], [ 1270308.040328935720026, 5540890.271688754670322 ], [ 1270328.023470380343497, 5540881.343784033320844 ], [ 1270249.034566706512123, 5540881.343784033320844 ], [ 1270249.034566706512123, 5540981.343784033320844 ], [ 1270346.481167370453477, 5540981.343784033320844 ], [ 1270302.317869324004278, 5540892.808076760731637 ] ] ] ] } },
{ "type": "Feature", "properties": { "id": 26660, "street_cells": 37.529903423693042, "yard_cells": 2770.1746734738349, "utility": 2.673133571063127, "num_areas": 0.0 }, "geometry": { "type": "MultiPolygon", "coordinates": [ [ [ [ 1270349.034566706512123, 5540871.956618025898933 ], [ 1270349.034566706512123, 5540781.343784033320844 ], [ 1270249.034566706512123, 5540781.343784033320844 ], [ 1270249.034566706512123, 5540881.343784033320844 ], [ 1270328.023470380343497, 5540881.343784033320844 ], [ 1270349.034566706512123, 5540871.956618025898933 ] ] ] ] } },
{ "type": "Feature", "properties": { "id": 26661, "street_cells": 0.0, "yard_cells": 2364.0408050894739, "utility": 5.2172346660499462, "num_areas": 0.0 }, "geometry": { "type": "MultiPolygon", "coordinates": [ [ [ [ 1270249.034566706512123, 5540711.852784902788699 ], [ 1270249.034566706512123, 5540781.343784033320844 ], [ 1270349.034566706512123, 5540781.343784033320844 ], [ 1270349.034566706512123, 5540681.343784033320844 ], [ 1270314.085003803484142, 5540681.343784033320844 ], [ 1270249.034566706512123, 5540711.852784902788699 ] ] ] ] } },
{ "type": "Feature", "properties": { "id": 26819, "street_cells": 119.9642244094284, "yard_cells": 4252.3825186390432, "utility": 4.1627837057153334, "num_areas": 0.0 }, "geometry": { "type": "MultiPolygon", "coordinates": [ [ [ [ 1270436.532205266179517, 5540832.865137711167336 ], [ 1270436.580200990429148, 5540832.844700532965362 ], [ 1270438.931611831532791, 5540831.793484089896083 ], [ 1270449.034566706512123, 5540827.487463670782745 ], [ 1270449.034566706512123, 5540781.343784033320844 ], [ 1270349.034566706512123, 5540781.343784033320844 ], [ 1270349.034566706512123, 5540871.956618025898933 ], [ 1270436.532205266179517, 5540832.865137711167336 ] ] ] ] } },
{ "type": "Feature", "properties": { "id": 26820, "street_cells": 0.0, "yard_cells": 5139.3647885680202, "utility": 11.34213592196379, "num_areas": 0.0 }, "geometry": { "type": "MultiPolygon", "coordinates": [ [ [ [ 1270349.034566706512123, 5540781.343784033320844 ], [ 1270449.034566706512123, 5540781.343784033320844 ], [ 1270449.034566706512123, 5540681.343784033320844 ], [ 1270349.034566706512123, 5540681.343784033320844 ], [ 1270349.034566706512123, 5540781.343784033320844 ] ] ] ] } }
]
}
