{
"type": "FeatureCollection",
"name": "higher_uhei",
"crs": { "type": "name", "properties": { "name": "urn:ogc:def:crs:EPSG::3857" } },
"features": [
{ "type": "Feature", "properties": { "id": 1642, "street_cells": 500.50165720141962, "yard_cells": 3342.9224494741652, "utility": 3.4447333923324379, "num_areas": 0.0 }, "geometry": { "type": "MultiPolygon", "coordinates": [ [ [ [ 1254549.034566706512123, 5546381.343784033320844 ], [ 1254649.034566706512123, 5546381.343784033320844 ], [ 1254649.034566706512123, 5546281.343784033320844 ], [ 1254549.034566706512123, 5546281.343784033320844 ], [ 1254549.034566706512123, 5546381.343784033320844 ] ] ] ] } },
{ "type": "Feature", "properties": { "id": 2473, "street_cells": 300.32673987895248, "yard_cells": 1789.2850043952469, "utility": 3.2177091155007531, "num_areas": 0.0 }, "geometry": { "type": "MultiPolygon", "coordinates": [ [ [ [ 1255049.034566706512123, 5542690.951106971129775 ], [ 1255049.034566706512123, 5542781.343784033320844 ], [ 1255149.034566706512123, 5542781.343784033320844 ], [ 1255149.034566706512123, 5542681.343784033320844 ], [ 1255049.784497981192544, 5542681.343784033320844 ], [ 1255049.034566706512123, 5542690.951106971129775 ] ] ] ] } },
{ "type": "Feature", "properties": { "id": 2595, "street_cells": 429.91306012049318, "yard_cells": 3360.2875758210198, "utility": 4.9812940029723007, "num_areas": 0.0 }, "geometry": { "type": "MultiPolygon", "coordinates": [ [ [ [ 1255149.034566706512123, 5546481.343784033320844 ], [ 1255249.034566706512123, 5546481.343784033320844 ], [ 1255249.034566706512123, 5546381.343784033320844 ], [ 1255149.034566706512123, 5546381.343784033320844 ], [ 1255149.034566706512123, 5546481.343784033320844 ] ] ] ] } },
{ "type": "Feature", "properties": { "id": 3073, "street_cells": 455.85453332215548, "yard_cells": 2883.5228744318092, "utility": 3.0476877857280158, "num_areas": 0.0 }, "geometry": { "type": "MultiPolygon", "coordinates": [ [ [ [ 1255449.034566706512123, 5546381.343784033320844 ], [ 1255549.034566706512123, 5546381.343784033320844 ], [ 1255549.034566706512123, 5546281.343784033320844 ], [ 1255449.034566706512123, 5546281.343784033320844 ], [ 1255449.034566706512123, 5546381.343784033320844 ] ] ] ] } },
{ "type": "Feature", "properties": { "id": 3106, "street_cells": 122.5628733821213, "yard_cells": 6458.5989003239201, "utility": 5.2546544044842571, "num_areas": 0.0 }, "geometry": { "type": "MultiPolygon", "coordinates": [ [ [ [ 1255449.034566706512123, 5543081.343784033320844 ], [ 1255549.034566706512123, 5543081.343784033320844 ], [ 1255549.034566706512123, 5542981.343784033320844 ], [ 1255449.034566706512123, 5542981.343784033320844 ], [ 1255449.034566706512123, 5543081.343784033320844 ] ] ] ] } },
{ "type": "Feature", "properties": { "id": 4035, "street_cells": 469.72306901430721, "yard_cells": 3435.0111632555731, "utility": 3.0635127874461361, "num_areas": 1.0 }, "geometry": { "type": "MultiPolygon", "coordinates": [ [ [ [ 1256049.034566706512123, 5545581.343784033320844 ], [ 1256149.034566706512123, 5545581.343784033320844 ], [ 1256149.034566706512123, 5545481.343784033320844 ], [ 1256049.034566706512123, 5545481.343784033320844 ], [ 1256049.034566706512123, 5545581.343784033320844 ] ] ] ] } },
{ "type": "Feature", "properties": { "id": 5487, "street_cells": 0.0, "yard_cells": 3913.1301910458128, "utility": 3.8886268971626961, "num_areas": 0.0 }, "geometry": { "type": "MultiPolygon", "coordinates": [ [ [ [ 1256949.034566706512123, 5543481.343784033320844 ], [ 1257049.034566706512123, 5543481.343784033320844 ], [ 1257049.034566706512123, 5543381.343784033320844 ], [ 1256949.034566706512123, 5543381.343784033320844 ], [ 1256949.034566706512123, 5543481.343784033320844 ] ] ] ] } },
{ "type": "Feature", "properties": { "id": 5960, "street_cells": 469.22495975792413, "yard_cells": 3753.2990804404021, "utility": 3.8465003162743612, "num_areas": 0.0 }, "geometry": { "type": "MultiPolygon", "coordinates": [ [ [ [ 1257249.034566706512123, 5543881.343784033320844 ], [ 1257349.034566706512123, 5543881.343784033320844 ], [ 1257349.034566706512123, 5543781.343784033320844 ], [ 1257249.034566706512123, 5543781.343784033320844 ], [ 1257249.034566706512123, 5543881.343784033320844 ] ] ] ] } },
{ "type": "Feature", "properties": { "id": 6127, "street_cells": 406.22170518273492, "yard_cells": 3577.8125883123139, "utility": 3.0536117226828812, "num_areas": 0.0 }, "geometry": { "type": "MultiPolygon", "coordinates": [ [ [ [ 1257349.034566706512123, 5543081.343784033320844 ], [ 1257449.034566706512123, 5543081.343784033320844 ], [ 1257449.034566706512123, 5542981.343784033320844 ], [ 1257349.034566706512123, 5542981.343784033320844 ], [ 1257349.034566706512123, 5543081.343784033320844 ] ] ] ] } },
{ "type": "Feature", "properties": { "id": 6429, "street_cells": 362.51724500767892, "yard_cells": 3601.871177764237, "utility": 6.806915489482618, "num_areas": 0.0 }, "geometry": { "type": "MultiPolygon", "coordinates": [ [ [ [ 1257549.034566706512123, 5544681.343784033320844 ], [ 1257649.034566706512123, 5544681.343784033320844 ], [ 1257649.034566706512123, 5544581.343784033320844 ], [ 1257549.034566706512123, 5544581.343784033320844 ], [ 1257549.034566706512123, 5544681.343784033320844 ] ] ] ] } },
{ "type": "Feature", "properties": { "id": 6587, "street_cells": 396.46818124651912, "yard_cells": 3226.9071997443771, "utility": 3.771972457875449, "num_areas": 0.0 }, "geometry": { "type": "MultiPolygon", "coordinates": [ [ [ [ 1257649.034566706512123, 5544781.343784033320844 ], [ 1257749.034566706512123, 5544781.343784033320844 ], [ 1257749.034566706512123, 5544681.343784033320844 ], [ 1257649.034566706512123, 5544681.343784033320844 ], [ 1257649.034566706512123, 5544781.343784033320844 ] ] ] ] } },
{ "type": "Feature", "properties": { "id": 6906, "street_cells": 0.0, "yard_cells": 2978.463729648292, "utility": 3.6979030759442368, "num_areas": 0.0 }, "geometry": { "type": "MultiPolygon", "coordinates": [ [ [ [ 1257849.034566706512123, 5544681.343784033320844 ], [ 1257949.034566706512123, 5544681.343784033320844 ], [ 1257949.034566706512123, 5544581.343784033320844 ], [ 1257849.034566706512123, 5544581.343784033320844 ], [ 1257849.034566706512123, 5544681.343784033320844 ] ] ] ] } },
{ "type": "Feature", "properties": { "id": 7547, "street_cells": 171.41693124510351, "yard_cells": 3788.213199974597, "utility": 6.7987454301906984, "num_areas": 0.0 }, "geometry": { "type": "MultiPolygon", "coordinates": [ [ [ [ 1258249.034566706512123, 5544181.343784033320844 ], [ 1258349.034566706512123, 5544181.343784033320844 ], [ 1258349.034566706512123, 5544081.343784033320844 ], [ 1258249.034566706512123, 5544081.343784033320844 ], [ 1258249.034566706512123, 5544181.343784033320844 ] ] ] ] } },
{ "type": "Feature", "properties": { "id": 7893, "street_cells": 0.0, "yard_cells": 1180.778038831055, "utility": 4.0616615549722432, "num_areas": 0.0 }, "geometry": { "type": "MultiPolygon", "coordinates": [ [ [ [ 1258541.336311493301764, 5541377.402724430896342 ], [ 1258538.983147940598428, 5541376.419404942542315 ], [ 1258538.334091316442937, 5541378.749227644875646 ], [ 1258449.034566706512123, 5541341.211264093406498 ], [ 1258449.034566706512123, 5541381.343784033320844 ], [ 1258549.034566706512123, 5541381.343784033320844 ], [ 1258549.034566706512123, 5541349.555401555262506 ], [ 1258541.336311493301764, 5541377.402724430896342 ] ] ] ] } },
{ "type": "Feature", "properties": { "id": 8215, "street_cells": 163.3471173211932, "yard_cells": 3554.6474210381512, "utility": 5.5173185583320699, "num_areas": 0.0 }, "geometry": { "type": "MultiPolygon", "coordinates": [ [ [ [ 1258655.440917155239731, 5540971.721566090360284 ], [ 1258665.885956414975226, 5540977.330933114513755 ], [ 1258674.719331277068704, 5540981.343784033320844 ], [ 1258749.034566706512123, 5540981.343784033320844 ], [ 1258749.034566706512123, 5540881.343784033320844 ], [ 1258649.034566706512123, 5540881.343784033320844 ], [ 1258649.034566706512123, 5540968.161971695721149 ], [ 1258655.440917155239731, 5540971.721566090360284 ] ] ] ] } },
{ "type": "Feature", "properties": { "id": 8373, "street_cells": 133.35048046829181, "yard_cells": 2436.853050766606, "utility": 3.044844008979509, "num_areas": 0.0 }, "geometry": { "type": "MultiPolygon", "coordinates": [ [ [ [ 1258763.347205771133304, 5541032.570582900196314 ], [ 1258791.371902536135167, 5541049.050276910886168 ], [ 1258802.837768482975662, 5541055.369359083473682 ], [ 1258812.669167972169816, 5541062.397933864034712 ], [ 1258837.596531494054943, 5541075.312132964842021 ], [ 1258845.460171373793855, 5541081.343784033320844 ], [ 1258849.034566706512123, 5541081.343784033320844 ], [ 1258849.034566706512123, 5540981.343784033320844 ], [ 1258749.034566706512123, 5540981.343784033320844 ], [ 1258749.034566706512123, 5541026.963993884623051 ], [ 1258763.347205771133304, 5541032.570582900196314 ] ] ] ] } },
{ "type": "Feature", "properties": { "id": 8988, "street_cells": 310.83016735278068, "yard_cells": 2873.818482401663, "utility": 3.2501813696854578, "num_areas": 0.0 }, "geometry": { "type": "MultiPolygon", "coordinates": [ [ [ [ 1259149.034566706512123, 5543181.343784033320844 ], [ 1259249.034566706512123, 5543181.343784033320844 ], [ 1259249.034566706512123, 5543081.343784033320844 ], [ 1259149.034566706512123, 5543081.343784033320844 ], [ 1259149.034566706512123, 5543181.343784033320844 ] ] ] ] } },
{ "type": "Feature", "properties": { "id": 10266, "street_cells": 448.9022647455335, "yard_cells": 2076.0641117106411, "utility": 3.33835797064628, "num_areas": 0.0 }, "geometry": { "type": "MultiPolygon", "coordinates": [ [ [ [ 1259949.034566706512123, 5542581.343784033320844 ], [ 1260049.034566706512123, 5542581.343784033320844 ], [ 1260049.034566706512123, 5542481.343784033320844 ], [ 1259949.034566706512123, 5542481.343784033320844 ], [ 1259949.034566706512123, 5542581.343784033320844 ] ] ] ] } },
{ "type": "Feature", "properties": { "id": 10276, "street_cells": 208.80996038094159, "yard_cells": 3509.5878008442742, "utility": 3.1911276933942951, "num_areas": 0.0 }, "geometry": { "type": "MultiPolygon", "coordinates": [ [ [ [ 1259949.034566706512123, 5541581.343784033320844 ], [ 1260049.034566706512123, 5541581.343784033320844 ], [ 1260049.034566706512123, 5541481.343784033320844 ], [ 1259949.034566706512123, 5541481.343784033320844 ], [ 1259949.034566706512123, 5541581.343784033320844 ] ] ] ] } },
{ "type": "Feature", "properties": { "id": 12488, "street_cells": 225.50759083591399, "yard_cells": 2130.0303398221922, "utility": 2.9879149131158291, "num_areas": 1.0 }, "geometry": { "type": "MultiPolygon", "coordinates": [ [ [ [ 1261349.034566706512123, 5542981.343784033320844 ], [ 1261449.034566706512123, 5542981.343784033320844 ], [ 1261449.034566706512123, 5542881.343784033320844 ], [ 1261349.034566706512123, 5542881.343784033320844 ], [ 1261349.034566706512123, 5542981.343784033320844 ] ] ] ] } },
{ "type": "Feature", "properties": { "id": 12647, "street_cells": 1324.149462202937, "yard_cells": 559.67025540868804, "utility": 3.7509698945300829, "num_areas": 0.0 }, "geometry": { "type": "MultiPolygon", "coordinates": [ [ [ [ 1261449.034566706512123, 5542981.343784033320844 ], [ 1261549.034566706512123, 5542981.343784033320844 ], [ 1261549.034566706512123, 5542881.343784033320844 ], [ 1261449.034566706512123, 5542881.343784033320844 ], [ 1261449.034566706512123, 5542981.343784033320844 ] ] ] ] } },
{ "type": "Feature", "properties": { "id": 12955, "street_cells": 420.03392774909742, "yard_cells": 3549.2651187568899, "utility": 5.0330430278403657, "num_areas": 0.0 }, "geometry": { "type": "MultiPolygon", "coordinates": [ [ [ [ 1261649.034566706512123, 5543981.343784033320844 ], [ 1261749.034566706512123, 5543981.343784033320844 ], [ 1261749.034566706512123, 5543881.343784033320844 ], [ 1261649.034566706512123, 5543881.343784033320844 ], [ 1261649.034566706512123, 5543981.343784033320844 ] ] ] ] } },
{ "type": "Feature", "properties": { "id": 12995, "street_cells": 0.0, "yard_cells": 1545.4, "utility": 4.5386555826808523, "num_areas": 0.0 }, "geometry": { "type": "MultiPolygon", "coordinates": [ [ [ [ 1261649.034566706512123, 5539981.343784033320844 ], [ 1261749.034566706512123, 5539981.343784033320844 ], [ 1261749.034566706512123, 5539881.343784033320844 ], [ 1261649.034566706512123, 5539881.343784033320844 ], [ 1261649.034566706512123, 5539981.343784033320844 ] ] ] ] } },
{ "type": "Feature", "properties": { "id": 13114, "street_cells": 38.261885809898381, "yard_cells": 1643.422624786198, "utility": 3.036880448837874, "num_areas": 0.0 }, "geometry": { "type": "MultiPolygon", "coordinates": [ [ [ [ 1261749.034566706512123, 5543981.343784033320844 ], [ 1261849.034566706512123, 5543981.343784033320844 ], [ 1261849.034566706512123, 5543881.343784033320844 ], [ 1261749.034566706512123, 5543881.343784033320844 ], [ 1261749.034566706512123, 5543981.343784033320844 ] ] ] ] } },
{ "type": "Feature", "properties": { "id": 13575, "street_cells": 802.9284239562229, "yard_cells": 2500.843607912585, "utility": 5.054566886321429, "num_areas": 0.0 }, "geometry": { "type": "MultiPolygon", "coordinates": [ [ [ [ 1262049.034566706512123, 5545581.343784033320844 ], [ 1262149.034566706512123, 5545581.343784033320844 ], [ 1262149.034566706512123, 5545481.343784033320844 ], [ 1262049.034566706512123, 5545481.343784033320844 ], [ 1262049.034566706512123, 5545581.343784033320844 ] ] ] ] } },
{ "type": "Feature", "properties": { "id": 13596, "street_cells": 610.08476539552214, "yard_cells": 2135.987912184884, "utility": 4.3182140345912883, "num_areas": 0.0 }, "geometry": { "type": "MultiPolygon", "coordinates": [ [ [ [ 1262049.034566706512123, 5543481.343784033320844 ], [ 1262149.034566706512123, 5543481.343784033320844 ], [ 1262149.034566706512123, 5543381.343784033320844 ], [ 1262049.034566706512123, 5543381.343784033320844 ], [ 1262049.034566706512123, 5543481.343784033320844 ] ] ] ] } },
{ "type": "Feature", "properties": { "id": 13734, "street_cells": 566.02868685871363, "yard_cells": 2829.3592461939902, "utility": 2.9956747199508098, "num_areas": 0.0 }, "geometry": { "type": "MultiPolygon", "coordinates": [ [ [ [ 1262149.034566706512123, 5545581.343784033320844 ], [ 1262249.034566706512123, 5545581.343784033320844 ], [ 1262249.034566706512123, 5545481.343784033320844 ], [ 1262149.034566706512123, 5545481.343784033320844 ], [ 1262149.034566706512123, 5545581.343784033320844 ] ] ] ] } },
{ "type": "Feature", "properties": { "id": 13755, "street_cells": 437.55316309668132, "yard_cells": 2788.4267773593319, "utility": 3.547124548317119, "num_areas": 0.0 }, "geometry": { "type": "MultiPolygon", "coordinates": [ [ [ [ 1262149.034566706512123, 5543481.343784033320844 ], [ 1262249.034566706512123, 5543481.343784033320844 ], [ 1262249.034566706512123, 5543381.343784033320844 ], [ 1262149.034566706512123, 5543381.343784033320844 ], [ 1262149.034566706512123, 5543481.343784033320844 ] ] ] ] } },
{ "type": "Feature", "properties": { "id": 13876, "street_cells": 0.0, "yard_cells": 1319.4673940032719, "utility": 5.2811376142565276, "num_areas": 0.0 }, "geometry": { "type": "MultiPolygon", "coordinates": [ [ [ [ 1262249.034566706512123, 5547281.343784033320844 ], [ 1262349.034566706512123, 5547281.343784033320844 ], [ 1262349.034566706512123, 5547181.343784033320844 ], [ 1262249.034566706512123, 5547181.343784033320844 ], [ 1262249.034566706512123, 5547281.343784033320844 ] ] ] ] } },
{ "type": "Feature", "properties": { "id": 13912, "street_cells": 861.15387278497224, "yard_cells": 1189.225687205791, "utility": 4.0396512002821794, "num_areas": 0.0 }, "geometry": { "type": "MultiPolygon", "coordinates": [ [ [ [ 1262249.034566706512123, 5543681.343784033320844 ], [ 1262349.034566706512123, 5543681.343784033320844 ], [ 1262349.034566706512123, 5543581.343784033320844 ], [ 1262249.034566706512123, 5543581.343784033320844 ], [ 1262249.034566706512123, 5543681.343784033320844 ] ] ] ] } },
{ "type": "Feature", "properties": { "id": 14035, "street_cells": 0.0, "yard_cells": 1020.080500566959, "utility": 4.0068073245509988, "num_areas": 0.0 }, "geometry": { "type": "MultiPolygon", "coordinates": [ [ [ [ 1262349.034566706512123, 5547281.343784033320844 ], [ 1262449.034566706512123, 5547281.343784033320844 ], [ 1262449.034566706512123, 5547181.343784033320844 ], [ 1262349.034566706512123, 5547181.343784033320844 ], [ 1262349.034566706512123, 5547281.343784033320844 ] ] ] ] } },
{ "type": "Feature", "properties": { "id": 14054, "street_cells": 0.0, "yard_cells": 5080.8926781494174, "utility": 3.9834061132957568, "num_areas": 0.0 }, "geometry": { "type": "MultiPolygon", "coordinates": [ [ [ [ 1262349.034566706512123, 5545381.343784033320844 ], [ 1262449.034566706512123, 5545381.343784033320844 ], [ 1262449.034566706512123, 5545281.343784033320844 ], [ 1262349.034566706512123, 5545281.343784033320844 ], [ 1262349.034566706512123, 5545381.343784033320844 ] ] ] ] } },
{ "type": "Feature", "properties": { "id": 14071, "street_cells": 632.14525218009953, "yard_cells": 1116.5242207399531, "utility": 3.4818653224008642, "num_areas": 0.0 }, "geometry": { "type": "MultiPolygon", "coordinates": [ [ [ [ 1262349.034566706512123, 5543681.343784033320844 ], [ 1262449.034566706512123, 5543681.343784033320844 ], [ 1262449.034566706512123, 5543581.343784033320844 ], [ 1262349.034566706512123, 5543581.343784033320844 ], [ 1262349.034566706512123, 5543681.343784033320844 ] ] ] ] } },
{ "type": "Feature", "properties": { "id": 14085, "street_cells": 1440.7010955790061, "yard_cells": 0.0, "utility": 2.9886282576354559, "num_areas": 0.0 }, "geometry": { "type": "MultiPolygon", "coordinates": [ [ [ [ 1262349.034566706512123, 5542281.343784033320844 ], [ 1262449.034566706512123, 5542281.343784033320844 ], [ 1262449.034566706512123, 5542181.343784033320844 ], [ 1262349.034566706512123, 5542181.343784033320844 ], [ 1262349.034566706512123, 5542281.343784033320844 ] ] ] ] } },
{ "type": "Feature", "properties": { "id": 14115, "street_cells": 406.39235815107833, "yard_cells": 3053.7709566473959, "utility": 4.6358498110251292, "num_areas": 0.0 }, "geometry": { "type": "MultiPolygon", "coordinates": [ [ [ [ 1262349.034566706512123, 5539281.343784033320844 ], [ 1262449.034566706512123, 5539281.343784033320844 ], [ 1262449.034566706512123, 5539181.343784033320844 ], [ 1262349.034566706512123, 5539181.343784033320844 ], [ 1262349.034566706512123, 5539281.343784033320844 ] ] ] ] } },
{ "type": "Feature", "properties": { "id": 14213, "street_cells": 0.0, "yard_cells": 3831.9975131819028, "utility": 3.086109292562655, "num_areas": 1.0 }, "geometry": { "type": "MultiPolygon", "coordinates": [ [ [ [ 1262449.034566706512123, 5545381.343784033320844 ], [ 1262549.034566706512123, 5545381.343784033320844 ], [ 1262549.034566706512123, 5545281.343784033320844 ], [ 1262449.034566706512123, 5545281.343784033320844 ], [ 1262449.034566706512123, 5545381.343784033320844 ] ] ] ] } },
{ "type": "Feature", "properties": { "id": 14223, "street_cells": 456.58063466511669, "yard_cells": 1820.640459012985, "utility": 4.3237763195258099, "num_areas": 0.0 }, "geometry": { "type": "MultiPolygon", "coordinates": [ [ [ [ 1262449.034566706512123, 5544381.343784033320844 ], [ 1262549.034566706512123, 5544381.343784033320844 ], [ 1262549.034566706512123, 5544281.343784033320844 ], [ 1262449.034566706512123, 5544281.343784033320844 ], [ 1262449.034566706512123, 5544381.343784033320844 ] ] ] ] } },
{ "type": "Feature", "properties": { "id": 15018, "street_cells": 379.96083249002697, "yard_cells": 2101.6301194659591, "utility": 3.6028650754904632, "num_areas": 0.0 }, "geometry": { "type": "MultiPolygon", "coordinates": [ [ [ [ 1262949.034566706512123, 5544381.343784033320844 ], [ 1263049.034566706512123, 5544381.343784033320844 ], [ 1263049.034566706512123, 5544281.343784033320844 ], [ 1262949.034566706512123, 5544281.343784033320844 ], [ 1262949.034566706512123, 5544381.343784033320844 ] ] ] ] } },
{ "type": "Feature", "properties": { "id": 15335, "street_cells": 468.34462500028309, "yard_cells": 1769.013909595539, "utility": 4.2600984692170458, "num_areas": 0.0 }, "geometry": { "type": "MultiPolygon", "coordinates": [ [ [ [ 1263149.034566706512123, 5544481.343784033320844 ], [ 1263249.034566706512123, 5544481.343784033320844 ], [ 1263249.034566706512123, 5544381.343784033320844 ], [ 1263149.034566706512123, 5544381.343784033320844 ], [ 1263149.034566706512123, 5544481.343784033320844 ] ] ] ] } },
{ "type": "Feature", "properties": { "id": 15481, "street_cells": 298.77835048213598, "yard_cells": 3716.2636427404559, "utility": 3.636755377833802, "num_areas": 1.0 }, "geometry": { "type": "MultiPolygon", "coordinates": [ [ [ [ 1263249.034566706512123, 5545781.343784033320844 ], [ 1263349.034566706512123, 5545781.343784033320844 ], [ 1263349.034566706512123, 5545681.343784033320844 ], [ 1263249.034566706512123, 5545681.343784033320844 ], [ 1263249.034566706512123, 5545781.343784033320844 ] ] ] ] } },
{ "type": "Feature", "properties": { "id": 15483, "street_cells": 0.0, "yard_cells": 4739.8594002969567, "utility": 8.4465238998354089, "num_areas": 0.0 }, "geometry": { "type": "MultiPolygon", "coordinates": [ [ [ [ 1263249.034566706512123, 5545581.343784033320844 ], [ 1263349.034566706512123, 5545581.343784033320844 ], [ 1263349.034566706512123, 5545481.343784033320844 ], [ 1263249.034566706512123, 5545481.343784033320844 ], [ 1263249.034566706512123, 5545581.343784033320844 ] ] ] ] } },
{ "type": "Feature", "properties": { "id": 15937, "street_cells": 370.68863313198091, "yard_cells": 3668.7150925774131, "utility": 3.5119402398735571, "num_areas": 0.0 }, "geometry": { "type": "MultiPolygon", "coordinates": [ [ [ [ 1263549.034566706512123, 5547881.343784033320844 ], [ 1263649.034566706512123, 5547881.343784033320844 ], [ 1263649.034566706512123, 5547781.343784033320844 ], [ 1263549.034566706512123, 5547781.343784033320844 ], [ 1263549.034566706512123, 5547881.343784033320844 ] ] ] ] } },
{ "type": "Feature", "properties": { "id": 15978, "street_cells": 0.0, "yard_cells": 4482.7566348433493, "utility": 3.1084334009984058, "num_areas": 0.0 }, "geometry": { "type": "MultiPolygon", "coordinates": [ [ [ [ 1263549.034566706512123, 5543781.343784033320844 ], [ 1263649.034566706512123, 5543781.343784033320844 ], [ 1263649.034566706512123, 5543681.343784033320844 ], [ 1263549.034566706512123, 5543681.343784033320844 ], [ 1263549.034566706512123, 5543781.343784033320844 ] ] ] ] } },
{ "type": "Feature", "properties": { "id": 16094, "street_cells": 308.29765725135798, "yard_cells": 3447.5618240278218, "utility": 3.9440507918262799, "num_areas": 1.0 }, "geometry": { "type": "MultiPolygon", "coordinates": [ [ [ [ 1263649.034566706512123, 5548081.343784033320844 ], [ 1263749.034566706512123, 5548081.343784033320844 ], [ 1263749.034566706512123, 5547981.343784033320844 ], [ 1263649.034566706512123, 5547981.343784033320844 ], [ 1263649.034566706512123, 5548081.343784033320844 ] ] ] ] } },
{ "type": "Feature", "properties": { "id": 16112, "street_cells": 323.9522167298943, "yard_cells": 3791.766957820952, "utility": 3.3560769303522409, "num_areas": 0.0 }, "geometry": { "type": "MultiPolygon", "coordinates": [ [ [ [ 1263649.034566706512123, 5546281.343784033320844 ], [ 1263749.034566706512123, 5546281.343784033320844 ], [ 1263749.034566706512123, 5546181.343784033320844 ], [ 1263649.034566706512123, 5546181.343784033320844 ], [ 1263649.034566706512123, 5546281.343784033320844 ] ] ] ] } },
{ "type": "Feature", "properties": { "id": 16114, "street_cells": 376.51293735578662, "yard_cells": 3446.5635024208582, "utility": 4.1159620344705417, "num_areas": 0.0 }, "geometry": { "type": "MultiPolygon", "coordinates": [ [ [ [ 1263649.034566706512123, 5546081.343784033320844 ], [ 1263749.034566706512123, 5546081.343784033320844 ], [ 1263749.034566706512123, 5545981.343784033320844 ], [ 1263649.034566706512123, 5545981.343784033320844 ], [ 1263649.034566706512123, 5546081.343784033320844 ] ] ] ] } },
{ "type": "Feature", "properties": { "id": 16137, "street_cells": 168.62465070784091, "yard_cells": 3688.6627867103089, "utility": 3.3953291506897321, "num_areas": 0.0 }, "geometry": { "type": "MultiPolygon", "coordinates": [ [ [ [ 1263649.034566706512123, 5543781.343784033320844 ], [ 1263749.034566706512123, 5543781.343784033320844 ], [ 1263749.034566706512123, 5543681.343784033320844 ], [ 1263649.034566706512123, 5543681.343784033320844 ], [ 1263649.034566706512123, 5543781.343784033320844 ] ] ] ] } },
{ "type": "Feature", "properties": { "id": 16271, "street_cells": 98.362333324551585, "yard_cells": 4885.3405590780076, "utility": 4.7022266796768912, "num_areas": 0.0 }, "geometry": { "type": "MultiPolygon", "coordinates": [ [ [ [ 1263749.034566706512123, 5546281.343784033320844 ], [ 1263849.034566706512123, 5546281.343784033320844 ], [ 1263849.034566706512123, 5546181.343784033320844 ], [ 1263749.034566706512123, 5546181.343784033320844 ], [ 1263749.034566706512123, 5546281.343784033320844 ] ] ] ] } },
{ "type": "Feature", "properties": { "id": 16274, "street_cells": 385.83039495199921, "yard_cells": 3827.2164402693511, "utility": 6.2170478894664356, "num_areas": 0.0 }, "geometry": { "type": "MultiPolygon", "coordinates": [ [ [ [ 1263749.034566706512123, 5545981.343784033320844 ], [ 1263849.034566706512123, 5545981.343784033320844 ], [ 1263849.034566706512123, 5545881.343784033320844 ], [ 1263749.034566706512123, 5545881.343784033320844 ], [ 1263749.034566706512123, 5545981.343784033320844 ] ] ] ] } },
{ "type": "Feature", "properties": { "id": 16281, "street_cells": 381.49089616537088, "yard_cells": 2641.4197042977789, "utility": 4.1030406237982406, "num_areas": 0.0 }, "geometry": { "type": "MultiPolygon", "coordinates": [ [ [ [ 1263749.034566706512123, 5545281.343784033320844 ], [ 1263849.034566706512123, 5545281.343784033320844 ], [ 1263849.034566706512123, 5545181.343784033320844 ], [ 1263749.034566706512123, 5545181.343784033320844 ], [ 1263749.034566706512123, 5545281.343784033320844 ] ] ] ] } },
{ "type": "Feature", "properties": { "id": 16300, "street_cells": 0.0, "yard_cells": 4233.6115017518396, "utility": 5.0559796356922444, "num_areas": 0.0 }, "geometry": { "type": "MultiPolygon", "coordinates": [ [ [ [ 1263749.034566706512123, 5543381.343784033320844 ], [ 1263849.034566706512123, 5543381.343784033320844 ], [ 1263849.034566706512123, 5543281.343784033320844 ], [ 1263749.034566706512123, 5543281.343784033320844 ], [ 1263749.034566706512123, 5543381.343784033320844 ] ] ] ] } },
{ "type": "Feature", "properties": { "id": 16771, "street_cells": 463.03511076457801, "yard_cells": 2414.5108577074579, "utility": 3.3532645657231139, "num_areas": 1.0 }, "geometry": { "type": "MultiPolygon", "coordinates": [ [ [ [ 1264049.034566706512123, 5543981.343784033320844 ], [ 1264149.034566706512123, 5543981.343784033320844 ], [ 1264149.034566706512123, 5543881.343784033320844 ], [ 1264049.034566706512123, 5543881.343784033320844 ], [ 1264049.034566706512123, 5543981.343784033320844 ] ] ] ] } },
{ "type": "Feature", "properties": { "id": 17030, "street_cells": 432.79863103628162, "yard_cells": 1901.105602910495, "utility": 3.1450621083060009, "num_areas": 0.0 }, "geometry": { "type": "MultiPolygon", "coordinates": [ [ [ [ 1264249.034566706512123, 5549881.343784033320844 ], [ 1264349.034566706512123, 5549881.343784033320844 ], [ 1264349.034566706512123, 5549781.343784033320844 ], [ 1264249.034566706512123, 5549781.343784033320844 ], [ 1264249.034566706512123, 5549881.343784033320844 ] ] ] ] } },
{ "type": "Feature", "properties": { "id": 17067, "street_cells": 137.64135741703211, "yard_cells": 3435.583070749045, "utility": 3.4306652673464542, "num_areas": 0.0 }, "geometry": { "type": "MultiPolygon", "coordinates": [ [ [ [ 1264249.034566706512123, 5546181.343784033320844 ], [ 1264349.034566706512123, 5546181.343784033320844 ], [ 1264349.034566706512123, 5546081.343784033320844 ], [ 1264249.034566706512123, 5546081.343784033320844 ], [ 1264249.034566706512123, 5546181.343784033320844 ] ] ] ] } },
{ "type": "Feature", "properties": { "id": 18045, "street_cells": 102.2856218669564, "yard_cells": 3937.1847069375222, "utility": 3.476303684911803, "num_areas": 0.0 }, "geometry": { "type": "MultiPolygon", "coordinates": [ [ [ [ 1264849.034566706512123, 5543781.343784033320844 ], [ 1264949.034566706512123, 5543781.343784033320844 ], [ 1264949.034566706512123, 5543681.343784033320844 ], [ 1264849.034566706512123, 5543681.343784033320844 ], [ 1264849.034566706512123, 5543781.343784033320844 ] ] ] ] } },
{ "type": "Feature", "properties": { "id": 18741, "street_cells": 0.0, "yard_cells": 2113.39, "utility": 7.7838567243097252, "num_areas": 0.0 }, "geometry": { "type": "MultiPolygon", "coordinates": [ [ [ [ 1265308.361474410630763, 5537683.123749963007867 ], [ 1265320.826543020782992, 5537754.781953492201865 ], [ 1265324.63815227872692, 5537776.788008295930922 ], [ 1265325.702448474010453, 5537781.343784033320844 ], [ 1265349.034566706512123, 5537781.343784033320844 ], [ 1265349.034566706512123, 5537681.343784033320844 ], [ 1265308.4180562349502, 5537681.343784033320844 ], [ 1265308.361474410630763, 5537683.123749963007867 ] ] ] ] } },
{ "type": "Feature", "properties": { "id": 18850, "street_cells": 0.0, "yard_cells": 3664.71628887821, "utility": 3.159729935636939, "num_areas": 0.0 }, "geometry": { "type": "MultiPolygon", "coordinates": [ [ [ [ 1265349.034566706512123, 5542781.343784033320844 ], [ 1265449.034566706512123, 5542781.343784033320844 ], [ 1265449.034566706512123, 5542681.343784033320844 ], [ 1265349.034566706512123, 5542681.343784033320844 ], [ 1265349.034566706512123, 5542781.343784033320844 ] ] ] ] } },
{ "type": "Feature", "properties": { "id": 18882, "street_cells": 587.45694933980701, "yard_cells": 2524.6622496219352, "utility": 3.4754427920738542, "num_areas": 0.0 }, "geometry": { "type": "MultiPolygon", "coordinates": [ [ [ [ 1265349.034566706512123, 5539581.343784033320844 ], [ 1265449.034566706512123, 5539581.343784033320844 ], [ 1265449.034566706512123, 5539481.343784033320844 ], [ 1265349.034566706512123, 5539481.343784033320844 ], [ 1265349.034566706512123, 5539581.343784033320844 ] ] ] ] } },
{ "type": "Feature", "properties": { "id": 19026, "street_cells": 89.247118216753009, "yard_cells": 3402.133452967927, "utility": 3.926475237582018, "num_areas": 1.0 }, "geometry": { "type": "MultiPolygon", "coordinates": [ [ [ [ 1265449.034566706512123, 5541081.343784033320844 ], [ 1265549.034566706512123, 5541081.343784033320844 ], [ 1265549.034566706512123, 5540981.343784033320844 ], [ 1265449.034566706512123, 5540981.343784033320844 ], [ 1265449.034566706512123, 5541081.343784033320844 ] ] ] ] } },
{ "type": "Feature", "properties": { "id": 19037, "street_cells": 405.75128435343498, "yard_cells": 3488.75264450144, "utility": 3.6428052880613109, "num_areas": 0.0 }, "geometry": { "type": "MultiPolygon", "coordinates": [ [ [ [ 1265449.034566706512123, 5539981.343784033320844 ], [ 1265549.034566706512123, 5539981.343784033320844 ], [ 1265549.034566706512123, 5539881.343784033320844 ], [ 1265449.034566706512123, 5539881.343784033320844 ], [ 1265449.034566706512123, 5539981.343784033320844 ] ] ] ] } },
{ "type": "Feature", "properties": { "id": 19195, "street_cells": 521.43410122096543, "yard_cells": 3020.172990518809, "utility": 3.237556787360071, "num_areas": 0.0 }, "geometry": { "type": "MultiPolygon", "coordinates": [ [ [ [ 1265549.034566706512123, 5540081.343784033320844 ], [ 1265649.034566706512123, 5540081.343784033320844 ], [ 1265649.034566706512123, 5539981.343784033320844 ], [ 1265549.034566706512123, 5539981.343784033320844 ], [ 1265549.034566706512123, 5540081.343784033320844 ] ] ] ] } },
{ "type": "Feature", "properties": { "id": 19237, "street_cells": 263.88205305226148, "yard_cells": 3240.1522006273271, "utility": 5.5676080304727362, "num_areas": 0.0 }, "geometry": { "type": "MultiPolygon", "coordinates": [ [ [ [ 1265549.034566706512123, 5535881.343784033320844 ], [ 1265649.034566706512123, 5535881.343784033320844 ], [ 1265649.034566706512123, 5535781.343784033320844 ], [ 1265549.034566706512123, 5535781.343784033320844 ], [ 1265549.034566706512123, 5535881.343784033320844 ] ] ] ] } },
{ "type": "Feature", "properties": { "id": 19345, "street_cells": 83.43431467264891, "yard_cells": 3844.63895251751, "utility": 6.5560546941969644, "num_areas": 0.0 }, "geometry": { "type": "MultiPolygon", "coordinates": [ [ [ [ 1265649.034566706512123, 5540981.343784033320844 ], [ 1265749.034566706512123, 5540981.343784033320844 ], [ 1265749.034566706512123, 5540881.343784033320844 ], [ 1265649.034566706512123, 5540881.343784033320844 ], [ 1265649.034566706512123, 5540981.343784033320844 ] ] ] ] } },
{ "type": "Feature", "properties": { "id": 19504, "street_cells": 0.0, "yard_cells": 4867.225944268298, "utility": 3.9584664653322288, "num_areas": 0.0 }, "geometry": { "type": "MultiPolygon", "coordinates": [ [ [ [ 1265749.034566706512123, 5540981.343784033320844 ], [ 1265849.034566706512123, 5540981.343784033320844 ], [ 1265849.034566706512123, 5540881.343784033320844 ], [ 1265749.034566706512123, 5540881.343784033320844 ], [ 1265749.034566706512123, 5540981.343784033320844 ] ] ] ] } },
{ "type": "Feature", "properties": { "id": 19527, "street_cells": 405.8653359785676, "yard_cells": 2525.371852768958, "utility": 4.7466504647199637, "num_areas": 0.0 }, "geometry": { "type": "MultiPolygon", "coordinates": [ [ [ [ 1265793.211446529254317, 5538591.527256065048277 ], [ 1265789.306784606073052, 5538602.667984748259187 ], [ 1265789.331363091710955, 5538603.518316358327866 ], [ 1265773.587894692784175, 5538645.218657799065113 ], [ 1265764.71659587114118, 5538660.783112415112555 ], [ 1265752.434265846852213, 5538681.343784033320844 ], [ 1265849.034566706512123, 5538681.343784033320844 ], [ 1265849.034566706512123, 5538581.343784033320844 ], [ 1265796.781568184262142, 5538581.343784033320844 ], [ 1265793.211446529254317, 5538591.527256065048277 ] ] ] ] } },
{ "type": "Feature", "properties": { "id": 19665, "street_cells": 528.43761329501865, "yard_cells": 2374.7849866367378, "utility": 3.5237465765477589, "num_areas": 0.0 }, "geometry": { "type": "MultiPolygon", "coordinates": [ [ [ [ 1265849.034566706512123, 5540781.343784033320844 ], [ 1265949.034566706512123, 5540781.343784033320844 ], [ 1265949.034566706512123, 5540681.343784033320844 ], [ 1265849.034566706512123, 5540681.343784033320844 ], [ 1265849.034566706512123, 5540781.343784033320844 ] ] ] ] } },
{ "type": "Feature", "properties": { "id": 19675, "street_cells": 237.33096101582049, "yard_cells": 3805.6648121640092, "utility": 3.7294097708512042, "num_areas": 0.0 }, "geometry": { "type": "MultiPolygon", "coordinates": [ [ [ [ 1265849.034566706512123, 5539781.343784033320844 ], [ 1265949.034566706512123, 5539781.343784033320844 ], [ 1265949.034566706512123, 5539681.343784033320844 ], [ 1265849.034566706512123, 5539681.343784033320844 ], [ 1265849.034566706512123, 5539781.343784033320844 ] ] ] ] } },
{ "type": "Feature", "properties": { "id": 19696, "street_cells": 266.12332199811942, "yard_cells": 3808.31499007307, "utility": 5.3653685320607076, "num_areas": 0.0 }, "geometry": { "type": "MultiPolygon", "coordinates": [ [ [ [ 1265849.034566706512123, 5537681.343784033320844 ], [ 1265949.034566706512123, 5537681.343784033320844 ], [ 1265949.034566706512123, 5537581.343784033320844 ], [ 1265849.034566706512123, 5537581.343784033320844 ], [ 1265849.034566706512123, 5537681.343784033320844 ] ] ] ] } },
{ "type": "Feature", "properties": { "id": 19714, "street_cells": 0.0, "yard_cells": 2477.8302324846391, "utility": 8.89707027114817, "num_areas": 0.0 }, "geometry": { "type": "MultiPolygon", "coordinates": [ [ [ [ 1265849.034566706512123, 5535881.343784033320844 ], [ 1265949.034566706512123, 5535881.343784033320844 ], [ 1265949.034566706512123, 5535781.343784033320844 ], [ 1265849.034566706512123, 5535781.343784033320844 ], [ 1265849.034566706512123, 5535881.343784033320844 ] ] ] ] } },
{ "type": "Feature", "properties": { "id": 19790, "street_cells": 538.29415539614854, "yard_cells": 3198.370455203205, "utility": 6.4859089703054922, "num_areas": 0.0 }, "geometry": { "type": "MultiPolygon", "coordinates": [ [ [ [ 1265949.034566706512123, 5544181.343784033320844 ], [ 1266049.034566706512123, 5544181.343784033320844 ], [ 1266049.034566706512123, 5544081.343784033320844 ], [ 1265949.034566706512123, 5544081.343784033320844 ], [ 1265949.034566706512123, 5544181.343784033320844 ] ] ] ] } },
{ "type": "Feature", "properties": { "id": 19846, "street_cells": 353.34486205093572, "yard_cells": 4439.1929107692094, "utility": 6.254033270805091, "num_areas": 0.0 }, "geometry": { "type": "MultiPolygon", "coordinates": [ [ [ [ 1265949.034566706512123, 5538581.343784033320844 ], [ 1266049.034566706512123, 5538581.343784033320844 ], [ 1266049.034566706512123, 5538481.343784033320844 ], [ 1265949.034566706512123, 5538481.343784033320844 ], [ 1265949.034566706512123, 5538581.343784033320844 ] ] ] ] } },
{ "type": "Feature", "properties": { "id": 20007, "street_cells": 402.30077166110277, "yard_cells": 3831.083943158761, "utility": 6.9515672773327193, "num_areas": 0.0 }, "geometry": { "type": "MultiPolygon", "coordinates": [ [ [ [ 1266049.034566706512123, 5538381.343784033320844 ], [ 1266149.034566706512123, 5538381.343784033320844 ], [ 1266149.034566706512123, 5538281.343784033320844 ], [ 1266049.034566706512123, 5538281.343784033320844 ], [ 1266049.034566706512123, 5538381.343784033320844 ] ] ] ] } },
{ "type": "Feature", "properties": { "id": 20011, "street_cells": 186.73449331186711, "yard_cells": 4375.3586414763704, "utility": 4.1728204860320348, "num_areas": 0.0 }, "geometry": { "type": "MultiPolygon", "coordinates": [ [ [ [ 1266049.034566706512123, 5537981.343784033320844 ], [ 1266149.034566706512123, 5537981.343784033320844 ], [ 1266149.034566706512123, 5537881.343784033320844 ], [ 1266049.034566706512123, 5537881.343784033320844 ], [ 1266049.034566706512123, 5537981.343784033320844 ] ] ] ] } },
{ "type": "Feature", "properties": { "id": 20156, "street_cells": 427.43424261324111, "yard_cells": 3477.8519004503728, "utility": 3.0397615915411911, "num_areas": 0.0 }, "geometry": { "type": "MultiPolygon", "coordinates": [ [ [ [ 1266149.034566706512123, 5539381.343784033320844 ], [ 1266249.034566706512123, 5539381.343784033320844 ], [ 1266249.034566706512123, 5539281.343784033320844 ], [ 1266149.034566706512123, 5539281.343784033320844 ], [ 1266149.034566706512123, 5539381.343784033320844 ] ] ] ] } },
{ "type": "Feature", "properties": { "id": 20158, "street_cells": 93.022410947084438, "yard_cells": 3566.0652005635202, "utility": 3.5979729064946531, "num_areas": 0.0 }, "geometry": { "type": "MultiPolygon", "coordinates": [ [ [ [ 1266149.034566706512123, 5539181.343784033320844 ], [ 1266249.034566706512123, 5539181.343784033320844 ], [ 1266249.034566706512123, 5539081.343784033320844 ], [ 1266149.034566706512123, 5539081.343784033320844 ], [ 1266149.034566706512123, 5539181.343784033320844 ] ] ] ] } },
{ "type": "Feature", "properties": { "id": 20307, "street_cells": 537.18822092115886, "yard_cells": 3420.100078599527, "utility": 4.394101898884804, "num_areas": 0.0 }, "geometry": { "type": "MultiPolygon", "coordinates": [ [ [ [ 1266249.034566706512123, 5540181.343784033320844 ], [ 1266349.034566706512123, 5540181.343784033320844 ], [ 1266349.034566706512123, 5540081.343784033320844 ], [ 1266249.034566706512123, 5540081.343784033320844 ], [ 1266249.034566706512123, 5540181.343784033320844 ] ] ] ] } },
{ "type": "Feature", "properties": { "id": 20791, "street_cells": 48.511434352956712, "yard_cells": 3759.8031855881218, "utility": 3.5902190188808341, "num_areas": 0.0 }, "geometry": { "type": "MultiPolygon", "coordinates": [ [ [ [ 1266549.034566706512123, 5539481.343784033320844 ], [ 1266649.034566706512123, 5539481.343784033320844 ], [ 1266649.034566706512123, 5539381.343784033320844 ], [ 1266549.034566706512123, 5539381.343784033320844 ], [ 1266549.034566706512123, 5539481.343784033320844 ] ] ] ] } },
{ "type": "Feature", "properties": { "id": 20896, "street_cells": 0.0, "yard_cells": 3006.02, "utility": 10.79362021060407, "num_areas": 0.0 }, "geometry": { "type": "MultiPolygon", "coordinates": [ [ [ [ 1266738.724678207887337, 5544790.624836105853319 ], [ 1266735.591890913434327, 5544781.343784033320844 ], [ 1266649.034566706512123, 5544781.343784033320844 ], [ 1266649.034566706512123, 5544881.343784033320844 ], [ 1266749.034566706512123, 5544881.343784033320844 ], [ 1266749.034566706512123, 5544821.109425464645028 ], [ 1266738.724678207887337, 5544790.624836105853319 ] ] ] ] } },
{ "type": "Feature", "properties": { "id": 21105, "street_cells": 410.31305187175752, "yard_cells": 3941.8882632676509, "utility": 6.4005746566638324, "num_areas": 0.0 }, "geometry": { "type": "MultiPolygon", "coordinates": [ [ [ [ 1266749.034566706512123, 5539881.343784033320844 ], [ 1266849.034566706512123, 5539881.343784033320844 ], [ 1266849.034566706512123, 5539781.343784033320844 ], [ 1266749.034566706512123, 5539781.343784033320844 ], [ 1266749.034566706512123, 5539881.343784033320844 ] ] ] ] } },
{ "type": "Feature", "properties": { "id": 21235, "street_cells": 0.0, "yard_cells": 957.33551711179325, "utility": 3.2560021353722401, "num_areas": 0.0 }, "geometry": { "type": "MultiPolygon", "coordinates": [ [ [ [ 1266849.034566706512123, 5542781.343784033320844 ], [ 1266949.034566706512123, 5542781.343784033320844 ], [ 1266949.034566706512123, 5542681.343784033320844 ], [ 1266849.034566706512123, 5542681.343784033320844 ], [ 1266849.034566706512123, 5542781.343784033320844 ] ] ] ] } },
{ "type": "Feature", "properties": { "id": 21236, "street_cells": 166.48388651162389, "yard_cells": 5670.2978785257792, "utility": 4.207810104244432, "num_areas": 0.0 }, "geometry": { "type": "MultiPolygon", "coordinates": [ [ [ [ 1266849.034566706512123, 5542681.343784033320844 ], [ 1266949.034566706512123, 5542681.343784033320844 ], [ 1266949.034566706512123, 5542581.343784033320844 ], [ 1266849.034566706512123, 5542581.343784033320844 ], [ 1266849.034566706512123, 5542681.343784033320844 ] ] ] ] } },
{ "type": "Feature", "properties": { "id": 21560, "street_cells": 191.93236859738829, "yard_cells": 3136.2370242049628, "utility": 2.991582421388097, "num_areas": 0.0 }, "geometry": { "type": "MultiPolygon", "coordinates": [ [ [ [ 1267049.034566706512123, 5542081.343784033320844 ], [ 1267149.034566706512123, 5542081.343784033320844 ], [ 1267149.034566706512123, 5541981.343784033320844 ], [ 1267049.034566706512123, 5541981.343784033320844 ], [ 1267049.034566706512123, 5542081.343784033320844 ] ] ] ] } },
{ "type": "Feature", "properties": { "id": 21741, "street_cells": 372.95016006529329, "yard_cells": 3611.3160628769551, "utility": 3.69892843647738, "num_areas": 0.0 }, "geometry": { "type": "MultiPolygon", "coordinates": [ [ [ [ 1267149.034566706512123, 5539881.343784033320844 ], [ 1267249.034566706512123, 5539881.343784033320844 ], [ 1267249.034566706512123, 5539781.343784033320844 ], [ 1267149.034566706512123, 5539781.343784033320844 ], [ 1267149.034566706512123, 5539881.343784033320844 ] ] ] ] } },
{ "type": "Feature", "properties": { "id": 21876, "street_cells": 312.50244267433891, "yard_cells": 2410.8979754820471, "utility": 3.6182525917336461, "num_areas": 0.0 }, "geometry": { "type": "MultiPolygon", "coordinates": [ [ [ [ 1267249.034566706512123, 5542281.343784033320844 ], [ 1267349.034566706512123, 5542281.343784033320844 ], [ 1267349.034566706512123, 5542181.343784033320844 ], [ 1267249.034566706512123, 5542181.343784033320844 ], [ 1267249.034566706512123, 5542281.343784033320844 ] ] ] ] } },
{ "type": "Feature", "properties": { "id": 21877, "street_cells": 758.87616989761591, "yard_cells": 1897.4038055649639, "utility": 3.928770024616516, "num_areas": 0.0 }, "geometry": { "type": "MultiPolygon", "coordinates": [ [ [ [ 1267249.034566706512123, 5542181.343784033320844 ], [ 1267349.034566706512123, 5542181.343784033320844 ], [ 1267349.034566706512123, 5542081.343784033320844 ], [ 1267249.034566706512123, 5542081.343784033320844 ], [ 1267249.034566706512123, 5542181.343784033320844 ] ] ] ] } },
{ "type": "Feature", "properties": { "id": 21904, "street_cells": 453.98959315903488, "yard_cells": 3367.3565321525398, "utility": 3.078946655386654, "num_areas": 0.0 }, "geometry": { "type": "MultiPolygon", "coordinates": [ [ [ [ 1267249.034566706512123, 5539481.343784033320844 ], [ 1267349.034566706512123, 5539481.343784033320844 ], [ 1267349.034566706512123, 5539381.343784033320844 ], [ 1267249.034566706512123, 5539381.343784033320844 ], [ 1267249.034566706512123, 5539481.343784033320844 ] ] ] ] } },
{ "type": "Feature", "properties": { "id": 21907, "street_cells": 421.37787138968707, "yard_cells": 3472.0655098587281, "utility": 3.8966039944604751, "num_areas": 0.0 }, "geometry": { "type": "MultiPolygon", "coordinates": [ [ [ [ 1267249.034566706512123, 5539181.343784033320844 ], [ 1267349.034566706512123, 5539181.343784033320844 ], [ 1267349.034566706512123, 5539081.343784033320844 ], [ 1267249.034566706512123, 5539081.343784033320844 ], [ 1267249.034566706512123, 5539181.343784033320844 ] ] ] ] } },
{ "type": "Feature", "properties": { "id": 22033, "street_cells": 126.0680740647018, "yard_cells": 3915.0019963745031, "utility": 3.6092768784426048, "num_areas": 0.0 }, "geometry": { "type": "MultiPolygon", "coordinates": [ [ [ [ 1267349.034566706512123, 5542481.343784033320844 ], [ 1267449.034566706512123, 5542481.343784033320844 ], [ 1267449.034566706512123, 5542381.343784033320844 ], [ 1267349.034566706512123, 5542381.343784033320844 ], [ 1267349.034566706512123, 5542481.343784033320844 ] ] ] ] } },
{ "type": "Feature", "properties": { "id": 22035, "street_cells": 299.97691431827838, "yard_cells": 3419.0974821310961, "utility": 3.0850262060023921, "num_areas": 0.0 }, "geometry": { "type": "MultiPolygon", "coordinates": [ [ [ [ 1267349.034566706512123, 5542281.343784033320844 ], [ 1267449.034566706512123, 5542281.343784033320844 ], [ 1267449.034566706512123, 5542181.343784033320844 ], [ 1267349.034566706512123, 5542181.343784033320844 ], [ 1267349.034566706512123, 5542281.343784033320844 ] ] ] ] } },
{ "type": "Feature", "properties": { "id": 22226, "street_cells": 278.40787494089449, "yard_cells": 3856.1211349412802, "utility": 4.0505528446678074, "num_areas": 0.0 }, "geometry": { "type": "MultiPolygon", "coordinates": [ [ [ [ 1267449.034566706512123, 5539081.343784033320844 ], [ 1267549.034566706512123, 5539081.343784033320844 ], [ 1267549.034566706512123, 5538981.343784033320844 ], [ 1267449.034566706512123, 5538981.343784033320844 ], [ 1267449.034566706512123, 5539081.343784033320844 ] ] ] ] } },
{ "type": "Feature", "properties": { "id": 24736, "street_cells": 762.33588539361961, "yard_cells": 2732.3638539001349, "utility": 3.011277332797361, "num_areas": 0.0 }, "geometry": { "type": "MultiPolygon", "coordinates": [ [ [ [ 1269049.034566706512123, 5542481.343784033320844 ], [ 1269149.034566706512123, 5542481.343784033320844 ], [ 1269149.034566706512123, 5542381.343784033320844 ], [ 1269049.034566706512123, 5542381.343784033320844 ], [ 1269049.034566706512123, 5542481.343784033320844 ] ] ] ] } },
{ "type": "Feature", "properties": { "id": 24895, "street_cells": 273.32828853502872, "yard_cells": 3710.552967180312, "utility": 4.4003988729182559, "num_areas": 1.0 }, "geometry": { "type": "MultiPolygon", "coordinates": [ [ [ [ 1269149.034566706512123, 5542481.343784033320844 ], [ 1269249.034566706512123, 5542481.343784033320844 ], [ 1269249.034566706512123, 5542381.343784033320844 ], [ 1269149.034566706512123, 5542381.343784033320844 ], [ 1269149.034566706512123, 5542481.343784033320844 ] ] ] ] } },
{ "type": "Feature", "properties": { "id": 25055, "street_cells": 405.65131325200201, "yard_cells": 4559.9796850115063, "utility": 5.461722211814779, "num_areas": 0.0 }, "geometry": { "type": "MultiPolygon", "coordinates": [ [ [ [ 1269249.034566706512123, 5542381.343784033320844 ], [ 1269349.034566706512123, 5542381.343784033320844 ], [ 1269349.034566706512123, 5542281.343784033320844 ], [ 1269249.034566706512123, 5542281.343784033320844 ], [ 1269249.034566706512123, 5542381.343784033320844 ] ] ] ] } },
{ "type": "Feature", "properties": { "id": 25703, "street_cells": 135.3512080207467, "yard_cells": 4174.3734926871957, "utility": 7.3932989772936972, "num_areas": 0.0 }, "geometry": { "type": "MultiPolygon", "coordinates": [ [ [ [ 1269722.840282435528934, 5541154.313003056682646 ], [ 1269745.01568117341958, 5541146.159186707809567 ], [ 1269749.034566706512123, 5541144.455984814092517 ], [ 1269749.034566706512123, 5541081.343784033320844 ], [ 1269649.034566706512123, 5541081.343784033320844 ], [ 1269649.034566706512123, 5541181.343784033320844 ], [ 1269657.656470290385187, 5541181.343784033320844 ], [ 1269722.840282435528934, 5541154.313003056682646 ] ] ] ] } },
{ "type": "Feature", "properties": { "id": 26658, "street_cells": 0.0, "yard_cells": 2633.9928884118799, "utility": 10.58387379912916, "num_areas": 0.0 }, "geometry": { "type": "MultiPolygon", "coordinates": [ [ [ [ 1270263.900941400555894, 5541020.949460439383984 ], [ 1270300.075408049859107, 5541003.448872189037502 ], [ 1270300.086371241603047, 5541003.469566242769361 ], [ 1270302.466687764041126, 5541002.31777417846024 ], [ 1270317.400453427340835, 5541030.440608610399067 ], [ 1270349.034566706512123, 5541015.683520069345832 ], [ 1270349.034566706512123, 5540986.462672933936119 ], [ 1270346.481167370453477, 5540981.343784033320844 ], [ 1270249.034566706512123, 5540981.343784033320844 ], [ 1270249.034566706512123, 5540991.702499872073531 ], [ 1270263.900941400555894, 5541020.949460439383984 ] ] ] ] } },
{ "type": "Feature", "properties": { "id": 26659, "street_cells": 194.83976573720579, "yard_cells": 4097.207852610084, "utility": 7.4400941903678994, "num_areas": 0.0 }, "geometry": { "type": "MultiPolygon", "coordinates": [ [ [ [ 1270302.317869324004278, 5540892.808076760731637 ], [ 1270308.040328935720026, 5540890.271688754670322 ], [ 1270328.023470380343497, 5540881.343784033320844 ], [ 1270249.034566706512123, 5540881.343784033320844 ], [ 1270249.034566706512123, 5540981.343784033320844 ], [ 1270346.481167370453477, 5540981.343784033320844 ], [ 1270302.317869324004278, 5540892.808076760731637 ] ] ] ] } },
{ "type": "Feature", "properties": { "id": 26660, "street_cells": 37.529903423693042, "yard_cells": 2770.1746734738349, "utility": 4.8670444432041213, "num_areas": 0.0 }, "geometry": { "type": "MultiPolygon", "coordinates": [ [ [ [ 1270349.034566706512123, 5540871.956618025898933 ], [ 1270349.034566706512123, 5540781.343784033320844 ], [ 1270249.034566706512123, 5540781.343784033320844 ], [ 1270249.034566706512123, 5540881.343784033320844 ], [ 1270328.023470380343497, 5540881.343784033320844 ], [ 1270349.034566706512123, 5540871.956618025898933 ] ] ] ] } },
{ "type": "Feature", "properties": { "id": 26661, "street_cells": 0.0, "yard_cells": 2364.0408050894739, "utility": 9.4991560710494145, "num_areas": 0.0 }, "geometry": { "type": "MultiPolygon", "coordinates": [ [ [ [ 1270249.034566706512123, 5540711.852784902788699 ], [ 1270249.034566706512123, 5540781.343784033320844 ], [ 1270349.034566706512123, 5540781.343784033320844 ], [ 1270349.034566706512123, 5540681.343784033320844 ], [ 1270314.085003803484142, 5540681.343784033320844 ], [ 1270249.034566706512123, 5540711.852784902788699 ] ] ] ] } },
{ "type": "Feature", "properties": { "id": 26819, "street_cells": 119.9642244094284, "yard_cells": 4252.3825186390432, "utility": 7.5792895358778214, "num_areas": 0.0 }, "geometry": { "type": "MultiPolygon", "coordinates": [ [ [ [ 1270436.532205266179517, 5540832.865137711167336 ], [ 1270436.580200990429148, 5540832.844700532965362 ], [ 1270438.931611831532791, 5540831.793484089896083 ], [ 1270449.034566706512123, 5540827.487463670782745 ], [ 1270449.034566706512123, 5540781.343784033320844 ], [ 1270349.034566706512123, 5540781.343784033320844 ], [ 1270349.034566706512123, 5540871.956618025898933 ], [ 1270436.532205266179517, 5540832.865137711167336 ] ] ] ] } },
{ "type": "Feature", "properties": { "id": 26820, "street_cells": 0.0, "yard_cells": 5139.3647885680202, "utility": 20.650924521929209, "num_areas": 0.0 }, "geometry": { "type": "MultiPolygon", "coordinates": [ [ [ [ 1270349.034566706512123, 5540781.343784033320844 ], [ 1270449.034566706512123, 5540781.343784033320844 ], [ 1270449.034566706512123, 5540681.343784033320844 ], [ 1270349.034566706512123, 5540681.343784033320844 ], [ 1270349.034566706512123, 5540781.343784033320844 ] ] ] ] } }
]
}
