{
"type": "FeatureCollection",
"name": "colli",
"crs": { "type": "name", "properties": { "name": "urn:ogc:def:crs:OGC:1.3:CRS84" } },
"features": [
{ "type": "Feature", "properties": { "id": 0 }, "geometry": { "type": "MultiPolygon", "coordinates": [ [ [ [ 11.32715869318826, 44.486173436850272 ], [ 11.327130867851944, 44.486185257339336 ], [ 11.327223357100667, 44.486297335722547 ], [ 11.327205070389628, 44.486305127865897 ], [ 11.327344451542359, 44.486414034337095 ], [ 11.327361214538033, 44.486413692584627 ], [ 11.32745202823094, 44.48642136581168 ], [ 11.32751418242932, 44.486444864706939 ], [ 11.327577548893025, 44.486498830646298 ], [ 11.327625272767074, 44.486560740703531 ], [ 11.327662568306016, 44.486628580027109 ], [ 11.327669696307465, 44.486668166685341 ], [ 11.327732137512038, 44.486716955571886 ], [ 11.327736956959388, 44.486691845876344 ], [ 11.327717589605859, 44.486606500064127 ], [ 11.327677402815462, 44.486533003063478 ], [ 11.327599138284944, 44.486439324406327 ], [ 11.327531138386425, 44.486402602897982 ], [ 11.327426499875443, 44.486381869750389 ], [ 11.327345284214083, 44.486354663244107 ], [ 11.327288102968259, 44.486297474182443 ], [ 11.327285641280989, 44.486235595502691 ], [ 11.327247607779796, 44.486199451236061 ], [ 11.327204762870039, 44.486168176420257 ], [ 11.327151763831658, 44.486132337212887 ], [ 11.327129592393563, 44.486138019704185 ], [ 11.327129568790363, 44.486138029665987 ], [ 11.32715869318826, 44.486173436850272 ] ] ], [ [ [ 11.328005679436787, 44.48693068953208 ], [ 11.327990318258555, 44.486903119722989 ], [ 11.328180383043616, 44.48684729854606 ], [ 11.328238023419486, 44.486946321857729 ], [ 11.328216513766918, 44.486952522215638 ], [ 11.328347548613278, 44.487183007889485 ], [ 11.328369801542612, 44.487176522268847 ], [ 11.328409924513126, 44.487246549344555 ], [ 11.328504755236269, 44.487320646015569 ], [ 11.328498042143252, 44.487257162533787 ], [ 11.328488050066762, 44.487234877864459 ], [ 11.328358618735077, 44.487023211084562 ], [ 11.328344521072319, 44.487000145892019 ], [ 11.328252781168235, 44.486839043014683 ], [ 11.328317838312762, 44.486821709503793 ], [ 11.328320396832368, 44.486826905833581 ], [ 11.328500281513097, 44.487135860892231 ], [ 11.328500605291694, 44.487136412448834 ], [ 11.328500619289713, 44.487136448173686 ], [ 11.328541314301715, 44.48720498308213 ], [ 11.328567426364483, 44.487235419372766 ], [ 11.328577974308061, 44.487243549618356 ], [ 11.328577978604855, 44.487243657561862 ], [ 11.328579058417727, 44.487254987808669 ], [ 11.328625577697157, 44.487316606919997 ], [ 11.328625751795341, 44.487316873446481 ], [ 11.328636673144207, 44.48731479612858 ], [ 11.328701433761177, 44.487301060484242 ], [ 11.328874699076724, 44.487262019591881 ], [ 11.329088280661319, 44.487215025819573 ], [ 11.329137469898763, 44.487197448428169 ], [ 11.329196903972454, 44.487178176553805 ], [ 11.329279858473001, 44.487156777251954 ], [ 11.329330415520506, 44.487146391949544 ], [ 11.329347205155893, 44.487142934457651 ], [ 11.3293751717195, 44.487137187299773 ], [ 11.329395117571755, 44.487133089230802 ], [ 11.329439005866272, 44.487121354531425 ], [ 11.329491156873365, 44.487107416616489 ], [ 11.32951506077146, 44.487101023118385 ], [ 11.329595853323386, 44.487088184160292 ], [ 11.329712587829359, 44.487071550752027 ], [ 11.329712875409358, 44.48707150887261 ], [ 11.329751616091253, 44.487066306960521 ], [ 11.329844190854809, 44.487054064607761 ], [ 11.329845139759438, 44.487053930322979 ], [ 11.329803319961538, 44.486767054760826 ], [ 11.329797040643793, 44.486760011836999 ], [ 11.329732143385483, 44.486687244944619 ], [ 11.329637232962282, 44.486530295060767 ], [ 11.329619617707067, 44.486470067070606 ], [ 11.329619649591516, 44.486470064116403 ], [ 11.329573279115959, 44.486411730617931 ], [ 11.329558903273846, 44.486285051360682 ], [ 11.329541937254053, 44.486134063928802 ], [ 11.329536517096795, 44.486087640112252 ], [ 11.329535638193596, 44.486080095866193 ], [ 11.329535759951531, 44.486075574077709 ], [ 11.329534679454193, 44.486058230117145 ], [ 11.32958072014773, 44.48601624772467 ], [ 11.329581361047811, 44.486015604463873 ], [ 11.329580427176058, 44.485952677361084 ], [ 11.329579705229177, 44.485904546203095 ], [ 11.329582685739094, 44.485904863488365 ], [ 11.329594250038552, 44.485931887357772 ], [ 11.329627318533886, 44.485975955423108 ], [ 11.329661924722066, 44.486008108669061 ], [ 11.329695346120452, 44.486026375515237 ], [ 11.329681942167136, 44.48593442704022 ], [ 11.329681483239881, 44.485933978247061 ], [ 11.329650921792185, 44.485877075345506 ], [ 11.329670863583798, 44.485858430144425 ], [ 11.329656503675965, 44.485759924010026 ], [ 11.329654899119321, 44.4857622110584 ], [ 11.329652532605953, 44.485769101327953 ], [ 11.329652352938469, 44.485770905514102 ], [ 11.329651803189579, 44.4857760482139 ], [ 11.32965201453511, 44.485781355433367 ], [ 11.329654393975375, 44.4857905795497 ], [ 11.329660951433324, 44.485809981362735 ], [ 11.329636132337313, 44.485815169216025 ], [ 11.329633783274932, 44.485815550250983 ], [ 11.329619975579867, 44.485771665289022 ], [ 11.329567431259825, 44.485583052842252 ], [ 11.329566455377202, 44.485572125598139 ], [ 11.329566410545445, 44.485571631370149 ], [ 11.329567550062125, 44.485571509087386 ], [ 11.329588099057805, 44.485569307226498 ], [ 11.32961473245444, 44.485628630984756 ], [ 11.329640317006159, 44.485648886648946 ], [ 11.329619813518462, 44.485508236768887 ], [ 11.329559498560032, 44.485519323287782 ], [ 11.329553762310244, 44.485499067468062 ], [ 11.329578085025602, 44.485494997081851 ], [ 11.329614003483345, 44.485468381074341 ], [ 11.329611378989183, 44.485450377562238 ], [ 11.329567406201024, 44.485483259555664 ], [ 11.329550104075787, 44.485486151372506 ], [ 11.329531024790279, 44.485418832180358 ], [ 11.329516262340464, 44.485366756317077 ], [ 11.32950110370161, 44.48531325712316 ], [ 11.329498020142212, 44.48530561382362 ], [ 11.329493197030432, 44.48529565634388 ], [ 11.329565013940121, 44.485279489553136 ], [ 11.329568397623008, 44.485293046391973 ], [ 11.329769262656681, 44.485254750321864 ], [ 11.329769632965501, 44.485255775685978 ], [ 11.329848036239154, 44.485240691971768 ], [ 11.329834659032016, 44.485203676284115 ], [ 11.329878938226708, 44.485195795549927 ], [ 11.329891955256162, 44.485232242555433 ], [ 11.331364953621335, 44.484948857878543 ], [ 11.333062796228871, 44.485670478222545 ], [ 11.333166348219116, 44.485687065942514 ], [ 11.333365991496532, 44.485704825634571 ], [ 11.333376643930345, 44.485731196511487 ], [ 11.334495924863388, 44.48560444655633 ], [ 11.334498807593411, 44.485603594297849 ], [ 11.334503936334682, 44.485603539318838 ], [ 11.335077263622944, 44.48553861441399 ], [ 11.335337962346191, 44.485489994414237 ], [ 11.335459440023804, 44.485467235350491 ], [ 11.335616047654034, 44.485397069930364 ], [ 11.335699254038246, 44.485341153847074 ], [ 11.335721669345682, 44.485326174019292 ], [ 11.33573531159727, 44.485316982312469 ], [ 11.335802463725647, 44.485271900672089 ], [ 11.335839899623988, 44.48523721287485 ], [ 11.335885533686636, 44.48519493917042 ], [ 11.33596238738769, 44.485089539569309 ], [ 11.335969230996703, 44.485080153859485 ], [ 11.335958736912559, 44.485065829406167 ], [ 11.335939037990212, 44.485038918623935 ], [ 11.33592987324888, 44.485020092674468 ], [ 11.335915475422805, 44.4849905166745 ], [ 11.335915352637834, 44.484990276116868 ], [ 11.335891470977998, 44.484943330109857 ], [ 11.336031592248741, 44.484896836200328 ], [ 11.336062447302691, 44.484886626021954 ], [ 11.336053743413746, 44.484880916439046 ], [ 11.336023952525622, 44.484857309085392 ], [ 11.335974285473181, 44.484807703836125 ], [ 11.335871253800589, 44.484705012906026 ], [ 11.335852342118356, 44.484686161329158 ], [ 11.335867964515201, 44.484679008687856 ], [ 11.335850745174811, 44.484658763089065 ], [ 11.33584206689077, 44.484656843059724 ], [ 11.335845957198147, 44.484641837147841 ], [ 11.335792015794588, 44.484591626079457 ], [ 11.335759931386464, 44.484561907807425 ], [ 11.335751238961905, 44.484553677187812 ], [ 11.335541698593561, 44.484376016399615 ], [ 11.335527756934448, 44.484369906383165 ], [ 11.335505303491583, 44.484346436855638 ], [ 11.335506242663611, 44.484345954753202 ], [ 11.334907729887203, 44.483838500020518 ], [ 11.334886207540372, 44.483849941334306 ], [ 11.334852740747973, 44.483837238983263 ], [ 11.334783764133354, 44.483811056800725 ], [ 11.33478371207833, 44.483811012852406 ], [ 11.334783638483001, 44.48381105937063 ], [ 11.334749127796961, 44.483787008056325 ], [ 11.334732674829262, 44.483775551153727 ], [ 11.334713048030112, 44.483741913736772 ], [ 11.334712144072769, 44.483740374774918 ], [ 11.334712062939209, 44.48374023239267 ], [ 11.33471070561211, 44.483726702237838 ], [ 11.334707238463183, 44.483695476633173 ], [ 11.329052082334734, 44.483705513125592 ], [ 11.329077497784198, 44.483761426090147 ], [ 11.32889175371654, 44.483799155431257 ], [ 11.328875990409706, 44.483760135655842 ], [ 11.328834677534299, 44.483767640395747 ], [ 11.328805960816004, 44.483705949929934 ], [ 11.326713195168447, 44.483709664067277 ], [ 11.326872912196873, 44.48604559366099 ], [ 11.326920918696459, 44.486083103886457 ], [ 11.326934650241302, 44.486076247598255 ], [ 11.326966485057754, 44.486107053749244 ], [ 11.32695684694742, 44.48611117668505 ], [ 11.327011746021643, 44.486154072473525 ], [ 11.32700768123672, 44.48614873325598 ], [ 11.326994151960793, 44.486101367298623 ], [ 11.326960051610531, 44.486063558302597 ], [ 11.32698414606295, 44.486051525823832 ], [ 11.326984170478513, 44.486051507320944 ], [ 11.327119630346932, 44.485989067751277 ], [ 11.327160679777512, 44.485970153710596 ], [ 11.327183389941407, 44.48595967985127 ], [ 11.327189527675939, 44.485956853946973 ], [ 11.327196085124431, 44.485953830431406 ], [ 11.327239922089408, 44.486010679411834 ], [ 11.327271400662774, 44.486051494626352 ], [ 11.327370661827342, 44.48615993282305 ], [ 11.327378681136352, 44.486168681898043 ], [ 11.327541588304721, 44.486198399983024 ], [ 11.327564436295688, 44.486225842177653 ], [ 11.327554163521606, 44.486236314594819 ], [ 11.327525591854341, 44.486245179540227 ], [ 11.327626536778778, 44.486241041713072 ], [ 11.327649280993434, 44.486266190344224 ], [ 11.327668907388816, 44.486266078238565 ], [ 11.327681874954438, 44.486275923740344 ], [ 11.327690419653774, 44.486283968880265 ], [ 11.32769782712154, 44.486290929888995 ], [ 11.327745761929632, 44.486336018745298 ], [ 11.327765836756965, 44.486362662199987 ], [ 11.327783888197079, 44.486386177996657 ], [ 11.32778369899645, 44.486386163849538 ], [ 11.327817311114423, 44.486429699201857 ], [ 11.327830522662605, 44.486501297525898 ], [ 11.327864787968803, 44.486559664825776 ], [ 11.327926034008184, 44.486627015658485 ], [ 11.327947459574558, 44.486697078065959 ], [ 11.327992217227196, 44.486751432260448 ], [ 11.328002848318201, 44.486817906691904 ], [ 11.327962182150452, 44.486866368741687 ], [ 11.327944199375933, 44.486882651642127 ], [ 11.328005679436787, 44.48693068953208 ] ], [ [ 11.330873637353003, 44.483869680616678 ], [ 11.330876291313567, 44.483907887476498 ], [ 11.330775207054854, 44.483908420981003 ], [ 11.330596294694558, 44.483909283002255 ], [ 11.33059446220304, 44.483882222588612 ], [ 11.330546115279024, 44.483883929839656 ], [ 11.330546572754418, 44.483911198377911 ], [ 11.330484969772334, 44.483911285687078 ], [ 11.330476995623043, 44.483802967149444 ], [ 11.330589772630272, 44.483799224332749 ], [ 11.33076646997873, 44.483793276065079 ], [ 11.330772386967467, 44.483884981774629 ], [ 11.330821369303472, 44.483883441505796 ], [ 11.330821104554222, 44.483870483167507 ], [ 11.330873637353003, 44.483869680616678 ] ], [ [ 11.333615648604651, 44.484194505860849 ], [ 11.333767820196616, 44.484336606907334 ], [ 11.333724749961922, 44.484360263997587 ], [ 11.333794969708981, 44.484421387497896 ], [ 11.333781445234933, 44.48446064524618 ], [ 11.333808887095749, 44.484486551861799 ], [ 11.333707330554471, 44.484541473318423 ], [ 11.333678574647816, 44.484520454945063 ], [ 11.33362375450468, 44.48452067536595 ], [ 11.333577544644699, 44.484478236483753 ], [ 11.333485778062458, 44.484529536626823 ], [ 11.333471547404843, 44.484516413648507 ], [ 11.333213481090498, 44.484660688689068 ], [ 11.333163548210754, 44.48461633616035 ], [ 11.333376810053467, 44.484493232912072 ], [ 11.333372975999799, 44.48448853990444 ], [ 11.333348743704679, 44.484467428983002 ], [ 11.333278106472207, 44.484509024392025 ], [ 11.333180524125032, 44.484423963762403 ], [ 11.332893843852233, 44.484447026751141 ], [ 11.332891837008981, 44.484447157789418 ], [ 11.332883646169877, 44.484399431352173 ], [ 11.333126373585303, 44.484377905902058 ], [ 11.333185308106478, 44.484367338664711 ], [ 11.333314584451552, 44.484332998189764 ], [ 11.333303276775474, 44.484311181951973 ], [ 11.333355041965975, 44.484297430204755 ], [ 11.333364443442624, 44.484315594335243 ], [ 11.333472701890312, 44.484286823776216 ], [ 11.33346125739194, 44.484264731270216 ], [ 11.333506930164024, 44.484252724458024 ], [ 11.333518145203819, 44.484262758167176 ], [ 11.333543954349986, 44.484247736396938 ], [ 11.333534548658804, 44.484238926067796 ], [ 11.333615648604651, 44.484194505860849 ] ], [ [ 11.334674488078955, 44.484771321320508 ], [ 11.334632430543239, 44.484744723541887 ], [ 11.334663739624192, 44.484719416101257 ], [ 11.334610509880836, 44.484687015063983 ], [ 11.334624855835212, 44.484674658188048 ], [ 11.334543322570298, 44.484626280183768 ], [ 11.334546374135767, 44.484623967127483 ], [ 11.334498605013369, 44.484592894779418 ], [ 11.334362101037504, 44.484506290440095 ], [ 11.334479550325796, 44.48441161201027 ], [ 11.334614384873078, 44.484497350092369 ], [ 11.334665830187115, 44.484529157441713 ], [ 11.334667779593035, 44.484527587131133 ], [ 11.334746688842497, 44.484576387821335 ], [ 11.334758492975064, 44.484566513616556 ], [ 11.334810846351733, 44.484599013533092 ], [ 11.334840809005749, 44.484574633841774 ], [ 11.334883767611931, 44.484601753269928 ], [ 11.334674488078955, 44.484771321320508 ] ], [ [ 11.332509398160857, 44.48460404678179 ], [ 11.33248636488204, 44.484642652423453 ], [ 11.332514628740888, 44.484651338588492 ], [ 11.3327627435427, 44.484727679113547 ], [ 11.332722992910295, 44.484793922300156 ], [ 11.332769274890824, 44.484808217930357 ], [ 11.332746891217742, 44.484845135865321 ], [ 11.332372108411564, 44.484729503325397 ], [ 11.33239195178921, 44.484696364441987 ], [ 11.332345647005408, 44.484682123139748 ], [ 11.332424924154127, 44.484549992693012 ], [ 11.332240751729277, 44.484493087061523 ], [ 11.332260419553467, 44.484459960789081 ], [ 11.332209448354488, 44.484444113277533 ], [ 11.332250894018914, 44.484374324622152 ], [ 11.33263121621831, 44.484491122746142 ], [ 11.332595746664698, 44.484549932290712 ], [ 11.332647156761213, 44.484565743652929 ], [ 11.332620514982892, 44.484610355770663 ], [ 11.332523437338052, 44.484580515210368 ], [ 11.332509398160857, 44.48460404678179 ] ], [ [ 11.328278851069271, 44.486755624396714 ], [ 11.328097493558014, 44.486809026514287 ], [ 11.327870360080006, 44.486413682121359 ], [ 11.328051578738418, 44.486360292197055 ], [ 11.328278851069271, 44.486755624396714 ] ] ], [ [ [ 11.329749069120382, 44.486394904694706 ], [ 11.329661304438391, 44.486396115254415 ], [ 11.329659909047356, 44.486342128150554 ], [ 11.329656577726535, 44.486220580053882 ], [ 11.329723510780694, 44.486219579527337 ], [ 11.329718974559448, 44.486188461944636 ], [ 11.329655663209163, 44.486185299534277 ], [ 11.329605047490539, 44.48618724174294 ], [ 11.329589080609683, 44.486203142077215 ], [ 11.329599294826426, 44.486273000844953 ], [ 11.329632301977833, 44.48638341929702 ], [ 11.32966792247964, 44.486425562726865 ], [ 11.329753990943377, 44.48642866742933 ], [ 11.329749069120382, 44.486394904694706 ] ] ], [ [ [ 11.329597473243062, 44.485354986887586 ], [ 11.329591273467081, 44.485356139750856 ], [ 11.329591309918998, 44.485356240232647 ], [ 11.329597488466428, 44.485355091316869 ], [ 11.329597473243062, 44.485354986887586 ] ] ], [ [ [ 11.335783915703866, 44.485402007624351 ], [ 11.335760197778724, 44.485372890347669 ], [ 11.335726297726081, 44.485401782159322 ], [ 11.335732768481888, 44.485423192846142 ], [ 11.335783915703866, 44.485402007624351 ] ] ], [ [ [ 11.335827319098025, 44.485344847783956 ], [ 11.335835421206005, 44.485331360411287 ], [ 11.335823961210451, 44.485319274069255 ], [ 11.335760525515614, 44.485372614548226 ], [ 11.335827319098025, 44.485344847783956 ] ] ], [ [ [ 11.335850456809425, 44.485306331025463 ], [ 11.335855851425181, 44.485297350746094 ], [ 11.335824649268913, 44.485318799319543 ], [ 11.335850456809425, 44.485306331025463 ] ] ], [ [ [ 11.336000227270244, 44.484764784285993 ], [ 11.335999667538774, 44.484764989256519 ], [ 11.335994078679006, 44.484759571144608 ], [ 11.335881203957944, 44.484663869242056 ], [ 11.335880194212145, 44.484666568921291 ], [ 11.33588087032444, 44.484672793887022 ], [ 11.335979468089972, 44.484768373462813 ], [ 11.335967583646458, 44.484774657400315 ], [ 11.336002210838247, 44.484808212701004 ], [ 11.336018621051492, 44.48480850707152 ], [ 11.336047650218964, 44.48480499228274 ], [ 11.336000227270244, 44.484764784285993 ] ] ], [ [ [ 11.328112742659012, 44.487012075167591 ], [ 11.32811055396497, 44.48701263400276 ], [ 11.328114806269676, 44.487015956571781 ], [ 11.328112742659012, 44.487012075167591 ] ] ], [ [ [ 11.329735571789355, 44.486508392412141 ], [ 11.32977510293834, 44.486573491549173 ], [ 11.329765308322971, 44.48650630242031 ], [ 11.329735571789355, 44.486508392412141 ] ] ], [ [ [ 11.328885189949307, 44.483706922659586 ], [ 11.328893183481245, 44.483705795131449 ], [ 11.328884746596563, 44.483705810104816 ], [ 11.328885189949307, 44.483706922659586 ] ] ], [ [ [ 11.333561409278889, 44.484395292285576 ], [ 11.333597861846716, 44.484429567223359 ], [ 11.333672198271737, 44.484388976305191 ], [ 11.333622416130755, 44.484342100166465 ], [ 11.333661802963684, 44.484320679038227 ], [ 11.333630577419903, 44.484291338721505 ], [ 11.333563374595633, 44.484327912669961 ], [ 11.333351890695484, 44.484388681943194 ], [ 11.333394460366113, 44.484431294353925 ], [ 11.333428515353051, 44.484440140998871 ], [ 11.333479961461501, 44.484412081585198 ], [ 11.333498517997041, 44.484429617434671 ], [ 11.333561409278889, 44.484395292285576 ] ] ] ] } }
]
}
