{
"type": "FeatureCollection",
"name": "ferrovia",
"crs": { "type": "name", "properties": { "name": "urn:ogc:def:crs:OGC:1.3:CRS84" } },
"features": [
{ "type": "Feature", "properties": { "id": 0 }, "geometry": { "type": "MultiPolygon", "coordinates": [ [ [ [ 11.34575144124126, 44.505652340768066 ], [ 11.353592550893014, 44.505696835760432 ], [ 11.353138355489882, 44.505041866043584 ], [ 11.352287363003811, 44.504317475205035 ], [ 11.349739376703861, 44.504787351369295 ], [ 11.347528293587553, 44.505032966947859 ], [ 11.346195654327838, 44.505228746740272 ], [ 11.345691547341948, 44.505431645104053 ], [ 11.34575144124126, 44.505652340768066 ] ] ] ] } },
{ "type": "Feature", "properties": { "id": 1 }, "geometry": { "type": "MultiPolygon", "coordinates": [ [ [ [ 11.356676618786574, 44.502957438238319 ], [ 11.356835711956633, 44.502895142312219 ], [ 11.35755942990669, 44.502597900834047 ], [ 11.357872625088525, 44.502469748351942 ], [ 11.357978687201898, 44.502431480542249 ], [ 11.358094731631819, 44.502399442356683 ], [ 11.358406990971483, 44.502292759521566 ], [ 11.35840917460323, 44.502004859509441 ], [ 11.358291882383735, 44.502046242442574 ], [ 11.357951859726164, 44.502168388670661 ], [ 11.357943728683344, 44.502172671082221 ], [ 11.358014294236595, 44.502221772040372 ], [ 11.3580140539443, 44.502221869118571 ], [ 11.35801407011677, 44.502221880432472 ], [ 11.357999165309556, 44.502227884134115 ], [ 11.35790366991783, 44.502266464317962 ], [ 11.357806576314129, 44.502305622178341 ], [ 11.357607358956155, 44.502385745530816 ], [ 11.357484978122729, 44.502435033435667 ], [ 11.357484948283926, 44.502435012314876 ], [ 11.357484938903339, 44.502435016093408 ], [ 11.357483895249164, 44.502434266945727 ], [ 11.357463054075058, 44.502419514946212 ], [ 11.357439268091817, 44.502399546704574 ], [ 11.35730029556025, 44.502472967503579 ], [ 11.357125761034062, 44.502549947999597 ], [ 11.356567063381895, 44.502756860389724 ], [ 11.355793434025463, 44.50305855068774 ], [ 11.354979875411919, 44.503394946878203 ], [ 11.354151343326963, 44.503728671339587 ], [ 11.353483152165078, 44.503971176582986 ], [ 11.35298590813518, 44.504128248248229 ], [ 11.352435009166042, 44.504265296267633 ], [ 11.352275292137618, 44.504304452785426 ], [ 11.35228722412265, 44.504317301012101 ], [ 11.352292761187604, 44.504321861853796 ], [ 11.352313817631778, 44.504339827116965 ], [ 11.352341892890683, 44.504363799332602 ], [ 11.352364899005615, 44.504383321941738 ], [ 11.352582014341127, 44.504567368098073 ], [ 11.352635669280364, 44.504613198782216 ], [ 11.353976609740666, 44.504065124958991 ], [ 11.35397205118978, 44.504055457558266 ], [ 11.354432831951181, 44.503878656239038 ], [ 11.355645944602529, 44.503382828640042 ], [ 11.356676618786574, 44.502957438238319 ] ] ] ] } }
]
}
