{
"type": "FeatureCollection",
"name": "higher_green",
"crs": { "type": "name", "properties": { "name": "urn:ogc:def:crs:EPSG::3857" } },
"features": [
{ "type": "Feature", "properties": { "id": 1642, "street_cells": 500.50165720141962, "yard_cells": 3342.9224494741652, "utility": 1.5214081292072821, "num_areas": 0.0 }, "geometry": { "type": "MultiPolygon", "coordinates": [ [ [ [ 1254549.034566706512123, 5546381.343784033320844 ], [ 1254649.034566706512123, 5546381.343784033320844 ], [ 1254649.034566706512123, 5546281.343784033320844 ], [ 1254549.034566706512123, 5546281.343784033320844 ], [ 1254549.034566706512123, 5546381.343784033320844 ] ] ] ] } },
{ "type": "Feature", "properties": { "id": 2118, "street_cells": 45.635389021039011, "yard_cells": 4446.2246953805443, "utility": 1.328513183576973, "num_areas": 0.0 }, "geometry": { "type": "MultiPolygon", "coordinates": [ [ [ [ 1254849.034566706512123, 5546481.343784033320844 ], [ 1254949.034566706512123, 5546481.343784033320844 ], [ 1254949.034566706512123, 5546381.343784033320844 ], [ 1254849.034566706512123, 5546381.343784033320844 ], [ 1254849.034566706512123, 5546481.343784033320844 ] ] ] ] } },
{ "type": "Feature", "properties": { "id": 5487, "street_cells": 0.0, "yard_cells": 3913.1301910458128, "utility": 1.602672628833141, "num_areas": 0.0 }, "geometry": { "type": "MultiPolygon", "coordinates": [ [ [ [ 1256949.034566706512123, 5543481.343784033320844 ], [ 1257049.034566706512123, 5543481.343784033320844 ], [ 1257049.034566706512123, 5543381.343784033320844 ], [ 1256949.034566706512123, 5543381.343784033320844 ], [ 1256949.034566706512123, 5543481.343784033320844 ] ] ] ] } },
{ "type": "Feature", "properties": { "id": 5960, "street_cells": 469.22495975792413, "yard_cells": 3753.2990804404021, "utility": 2.2067000044128249, "num_areas": 0.0 }, "geometry": { "type": "MultiPolygon", "coordinates": [ [ [ [ 1257249.034566706512123, 5543881.343784033320844 ], [ 1257349.034566706512123, 5543881.343784033320844 ], [ 1257349.034566706512123, 5543781.343784033320844 ], [ 1257249.034566706512123, 5543781.343784033320844 ], [ 1257249.034566706512123, 5543881.343784033320844 ] ] ] ] } },
{ "type": "Feature", "properties": { "id": 6271, "street_cells": 740.22257647439847, "yard_cells": 2261.6784653758632, "utility": 2.4433940704020451, "num_areas": 0.0 }, "geometry": { "type": "MultiPolygon", "coordinates": [ [ [ [ 1257449.034566706512123, 5544581.343784033320844 ], [ 1257549.034566706512123, 5544581.343784033320844 ], [ 1257549.034566706512123, 5544481.343784033320844 ], [ 1257449.034566706512123, 5544481.343784033320844 ], [ 1257449.034566706512123, 5544581.343784033320844 ] ] ] ] } },
{ "type": "Feature", "properties": { "id": 6272, "street_cells": 66.39607778079808, "yard_cells": 4538.041124380753, "utility": 1.5769510542136309, "num_areas": 0.0 }, "geometry": { "type": "MultiPolygon", "coordinates": [ [ [ [ 1257449.034566706512123, 5544481.343784033320844 ], [ 1257549.034566706512123, 5544481.343784033320844 ], [ 1257549.034566706512123, 5544381.343784033320844 ], [ 1257449.034566706512123, 5544381.343784033320844 ], [ 1257449.034566706512123, 5544481.343784033320844 ] ] ] ] } },
{ "type": "Feature", "properties": { "id": 6429, "street_cells": 362.51724500767892, "yard_cells": 3601.871177764237, "utility": 1.8304948018795639, "num_areas": 0.0 }, "geometry": { "type": "MultiPolygon", "coordinates": [ [ [ [ 1257549.034566706512123, 5544681.343784033320844 ], [ 1257649.034566706512123, 5544681.343784033320844 ], [ 1257649.034566706512123, 5544581.343784033320844 ], [ 1257549.034566706512123, 5544581.343784033320844 ], [ 1257549.034566706512123, 5544681.343784033320844 ] ] ] ] } },
{ "type": "Feature", "properties": { "id": 7547, "street_cells": 171.41693124510351, "yard_cells": 3788.213199974597, "utility": 2.2646111228389509, "num_areas": 0.0 }, "geometry": { "type": "MultiPolygon", "coordinates": [ [ [ [ 1258249.034566706512123, 5544181.343784033320844 ], [ 1258349.034566706512123, 5544181.343784033320844 ], [ 1258349.034566706512123, 5544081.343784033320844 ], [ 1258249.034566706512123, 5544081.343784033320844 ], [ 1258249.034566706512123, 5544181.343784033320844 ] ] ] ] } },
{ "type": "Feature", "properties": { "id": 7709, "street_cells": 153.9619481116533, "yard_cells": 3557.2674383763219, "utility": 1.5442348056698181, "num_areas": 0.0 }, "geometry": { "type": "MultiPolygon", "coordinates": [ [ [ [ 1258349.034566706512123, 5543881.343784033320844 ], [ 1258449.034566706512123, 5543881.343784033320844 ], [ 1258449.034566706512123, 5543781.343784033320844 ], [ 1258349.034566706512123, 5543781.343784033320844 ], [ 1258349.034566706512123, 5543881.343784033320844 ] ] ] ] } },
{ "type": "Feature", "properties": { "id": 7871, "street_cells": 157.34959699511529, "yard_cells": 4135.5621779091234, "utility": 1.658461221098126, "num_areas": 0.0 }, "geometry": { "type": "MultiPolygon", "coordinates": [ [ [ [ 1258449.034566706512123, 5543581.343784033320844 ], [ 1258549.034566706512123, 5543581.343784033320844 ], [ 1258549.034566706512123, 5543481.343784033320844 ], [ 1258449.034566706512123, 5543481.343784033320844 ], [ 1258449.034566706512123, 5543581.343784033320844 ] ] ] ] } },
{ "type": "Feature", "properties": { "id": 8503, "street_cells": 610.25675806552169, "yard_cells": 2445.0154269155109, "utility": 1.85764980167167, "num_areas": 0.0 }, "geometry": { "type": "MultiPolygon", "coordinates": [ [ [ [ 1258849.034566706512123, 5543981.343784033320844 ], [ 1258949.034566706512123, 5543981.343784033320844 ], [ 1258949.034566706512123, 5543881.343784033320844 ], [ 1258849.034566706512123, 5543881.343784033320844 ], [ 1258849.034566706512123, 5543981.343784033320844 ] ] ] ] } },
{ "type": "Feature", "properties": { "id": 8508, "street_cells": 287.39793595746158, "yard_cells": 3602.925434505823, "utility": 1.7115430460732479, "num_areas": 1.0 }, "geometry": { "type": "MultiPolygon", "coordinates": [ [ [ [ 1258849.034566706512123, 5543481.343784033320844 ], [ 1258949.034566706512123, 5543481.343784033320844 ], [ 1258949.034566706512123, 5543381.343784033320844 ], [ 1258849.034566706512123, 5543381.343784033320844 ], [ 1258849.034566706512123, 5543481.343784033320844 ] ] ] ] } },
{ "type": "Feature", "properties": { "id": 8826, "street_cells": 188.47162948250769, "yard_cells": 3588.9259703959019, "utility": 1.6097023140948421, "num_areas": 0.0 }, "geometry": { "type": "MultiPolygon", "coordinates": [ [ [ [ 1259049.034566706512123, 5543481.343784033320844 ], [ 1259149.034566706512123, 5543481.343784033320844 ], [ 1259149.034566706512123, 5543381.343784033320844 ], [ 1259049.034566706512123, 5543381.343784033320844 ], [ 1259049.034566706512123, 5543481.343784033320844 ] ] ] ] } },
{ "type": "Feature", "properties": { "id": 9000, "street_cells": 431.42663938472981, "yard_cells": 3996.299737209652, "utility": 1.927360374219105, "num_areas": 0.0 }, "geometry": { "type": "MultiPolygon", "coordinates": [ [ [ [ 1259149.034566706512123, 5541981.343784033320844 ], [ 1259249.034566706512123, 5541981.343784033320844 ], [ 1259249.034566706512123, 5541881.343784033320844 ], [ 1259149.034566706512123, 5541881.343784033320844 ], [ 1259149.034566706512123, 5541981.343784033320844 ] ] ] ] } },
{ "type": "Feature", "properties": { "id": 10276, "street_cells": 208.80996038094159, "yard_cells": 3509.5878008442742, "utility": 1.678152147172715, "num_areas": 0.0 }, "geometry": { "type": "MultiPolygon", "coordinates": [ [ [ [ 1259949.034566706512123, 5541581.343784033320844 ], [ 1260049.034566706512123, 5541581.343784033320844 ], [ 1260049.034566706512123, 5541481.343784033320844 ], [ 1259949.034566706512123, 5541481.343784033320844 ], [ 1259949.034566706512123, 5541581.343784033320844 ] ] ] ] } },
{ "type": "Feature", "properties": { "id": 11052, "street_cells": 451.28656994104392, "yard_cells": 2506.2167902896181, "utility": 1.9241986163016489, "num_areas": 0.0 }, "geometry": { "type": "MultiPolygon", "coordinates": [ [ [ [ 1260449.034566706512123, 5543481.343784033320844 ], [ 1260549.034566706512123, 5543481.343784033320844 ], [ 1260549.034566706512123, 5543381.343784033320844 ], [ 1260449.034566706512123, 5543381.343784033320844 ], [ 1260449.034566706512123, 5543481.343784033320844 ] ] ] ] } },
{ "type": "Feature", "properties": { "id": 12001, "street_cells": 392.80244411304602, "yard_cells": 4040.5506128793031, "utility": 2.031165837045473, "num_areas": 1.0 }, "geometry": { "type": "MultiPolygon", "coordinates": [ [ [ [ 1261049.034566706512123, 5543981.343784033320844 ], [ 1261149.034566706512123, 5543981.343784033320844 ], [ 1261149.034566706512123, 5543881.343784033320844 ], [ 1261049.034566706512123, 5543881.343784033320844 ], [ 1261049.034566706512123, 5543981.343784033320844 ] ] ] ] } },
{ "type": "Feature", "properties": { "id": 12456, "street_cells": 319.3028553701472, "yard_cells": 3862.0537899091842, "utility": 1.463080303103022, "num_areas": 0.0 }, "geometry": { "type": "MultiPolygon", "coordinates": [ [ [ [ 1261349.034566706512123, 5546181.343784033320844 ], [ 1261449.034566706512123, 5546181.343784033320844 ], [ 1261449.034566706512123, 5546081.343784033320844 ], [ 1261349.034566706512123, 5546081.343784033320844 ], [ 1261349.034566706512123, 5546181.343784033320844 ] ] ] ] } },
{ "type": "Feature", "properties": { "id": 12643, "street_cells": 531.32039234340198, "yard_cells": 2802.4850251080011, "utility": 1.7217988558223101, "num_areas": 2.0 }, "geometry": { "type": "MultiPolygon", "coordinates": [ [ [ [ 1261449.034566706512123, 5543381.343784033320844 ], [ 1261549.034566706512123, 5543381.343784033320844 ], [ 1261549.034566706512123, 5543281.343784033320844 ], [ 1261449.034566706512123, 5543281.343784033320844 ], [ 1261449.034566706512123, 5543381.343784033320844 ] ] ] ] } },
{ "type": "Feature", "properties": { "id": 12955, "street_cells": 420.03392774909742, "yard_cells": 3549.2651187568899, "utility": 1.917875256355843, "num_areas": 0.0 }, "geometry": { "type": "MultiPolygon", "coordinates": [ [ [ [ 1261649.034566706512123, 5543981.343784033320844 ], [ 1261749.034566706512123, 5543981.343784033320844 ], [ 1261749.034566706512123, 5543881.343784033320844 ], [ 1261649.034566706512123, 5543881.343784033320844 ], [ 1261649.034566706512123, 5543981.343784033320844 ] ] ] ] } },
{ "type": "Feature", "properties": { "id": 13575, "street_cells": 802.9284239562229, "yard_cells": 2500.843607912585, "utility": 1.7484115313195081, "num_areas": 0.0 }, "geometry": { "type": "MultiPolygon", "coordinates": [ [ [ [ 1262049.034566706512123, 5545581.343784033320844 ], [ 1262149.034566706512123, 5545581.343784033320844 ], [ 1262149.034566706512123, 5545481.343784033320844 ], [ 1262049.034566706512123, 5545481.343784033320844 ], [ 1262049.034566706512123, 5545581.343784033320844 ] ] ] ] } },
{ "type": "Feature", "properties": { "id": 13601, "street_cells": 525.90051003582778, "yard_cells": 2105.2939730651678, "utility": 2.1571865759441491, "num_areas": 1.0 }, "geometry": { "type": "MultiPolygon", "coordinates": [ [ [ [ 1262049.034566706512123, 5542981.343784033320844 ], [ 1262149.034566706512123, 5542981.343784033320844 ], [ 1262149.034566706512123, 5542881.343784033320844 ], [ 1262049.034566706512123, 5542881.343784033320844 ], [ 1262049.034566706512123, 5542981.343784033320844 ] ] ] ] } },
{ "type": "Feature", "properties": { "id": 13755, "street_cells": 437.55316309668132, "yard_cells": 2788.4267773593319, "utility": 2.381481002038178, "num_areas": 0.0 }, "geometry": { "type": "MultiPolygon", "coordinates": [ [ [ [ 1262149.034566706512123, 5543481.343784033320844 ], [ 1262249.034566706512123, 5543481.343784033320844 ], [ 1262249.034566706512123, 5543381.343784033320844 ], [ 1262149.034566706512123, 5543381.343784033320844 ], [ 1262149.034566706512123, 5543481.343784033320844 ] ] ] ] } },
{ "type": "Feature", "properties": { "id": 13912, "street_cells": 861.15387278497224, "yard_cells": 1189.225687205791, "utility": 2.8607745942626219, "num_areas": 0.0 }, "geometry": { "type": "MultiPolygon", "coordinates": [ [ [ [ 1262249.034566706512123, 5543681.343784033320844 ], [ 1262349.034566706512123, 5543681.343784033320844 ], [ 1262349.034566706512123, 5543581.343784033320844 ], [ 1262249.034566706512123, 5543581.343784033320844 ], [ 1262249.034566706512123, 5543681.343784033320844 ] ] ] ] } },
{ "type": "Feature", "properties": { "id": 14054, "street_cells": 0.0, "yard_cells": 5080.8926781494174, "utility": 1.9931773236061721, "num_areas": 0.0 }, "geometry": { "type": "MultiPolygon", "coordinates": [ [ [ [ 1262349.034566706512123, 5545381.343784033320844 ], [ 1262449.034566706512123, 5545381.343784033320844 ], [ 1262449.034566706512123, 5545281.343784033320844 ], [ 1262349.034566706512123, 5545281.343784033320844 ], [ 1262349.034566706512123, 5545381.343784033320844 ] ] ] ] } },
{ "type": "Feature", "properties": { "id": 14213, "street_cells": 0.0, "yard_cells": 3831.9975131819028, "utility": 1.869714991461811, "num_areas": 1.0 }, "geometry": { "type": "MultiPolygon", "coordinates": [ [ [ [ 1262449.034566706512123, 5545381.343784033320844 ], [ 1262549.034566706512123, 5545381.343784033320844 ], [ 1262549.034566706512123, 5545281.343784033320844 ], [ 1262449.034566706512123, 5545281.343784033320844 ], [ 1262449.034566706512123, 5545381.343784033320844 ] ] ] ] } },
{ "type": "Feature", "properties": { "id": 14223, "street_cells": 456.58063466511669, "yard_cells": 1820.640459012985, "utility": 3.8099283046017272, "num_areas": 0.0 }, "geometry": { "type": "MultiPolygon", "coordinates": [ [ [ [ 1262449.034566706512123, 5544381.343784033320844 ], [ 1262549.034566706512123, 5544381.343784033320844 ], [ 1262549.034566706512123, 5544281.343784033320844 ], [ 1262449.034566706512123, 5544281.343784033320844 ], [ 1262449.034566706512123, 5544381.343784033320844 ] ] ] ] } },
{ "type": "Feature", "properties": { "id": 14233, "street_cells": 360.0273892251775, "yard_cells": 3698.7421006847699, "utility": 1.7110267928588689, "num_areas": 1.0 }, "geometry": { "type": "MultiPolygon", "coordinates": [ [ [ [ 1262449.034566706512123, 5543381.343784033320844 ], [ 1262549.034566706512123, 5543381.343784033320844 ], [ 1262549.034566706512123, 5543281.343784033320844 ], [ 1262449.034566706512123, 5543281.343784033320844 ], [ 1262449.034566706512123, 5543381.343784033320844 ] ] ] ] } },
{ "type": "Feature", "properties": { "id": 14541, "street_cells": 667.36521638482816, "yard_cells": 2494.080928401756, "utility": 2.1630045914042229, "num_areas": 1.0 }, "geometry": { "type": "MultiPolygon", "coordinates": [ [ [ [ 1262649.034566706512123, 5544381.343784033320844 ], [ 1262749.034566706512123, 5544381.343784033320844 ], [ 1262749.034566706512123, 5544281.343784033320844 ], [ 1262649.034566706512123, 5544281.343784033320844 ], [ 1262649.034566706512123, 5544381.343784033320844 ] ] ] ] } },
{ "type": "Feature", "properties": { "id": 15201, "street_cells": 532.05383928790695, "yard_cells": 2033.1044455499391, "utility": 2.3691591819217419, "num_areas": 2.0 }, "geometry": { "type": "MultiPolygon", "coordinates": [ [ [ [ 1263049.034566706512123, 5541981.343784033320844 ], [ 1263149.034566706512123, 5541981.343784033320844 ], [ 1263149.034566706512123, 5541881.343784033320844 ], [ 1263049.034566706512123, 5541881.343784033320844 ], [ 1263049.034566706512123, 5541981.343784033320844 ] ] ] ] } },
{ "type": "Feature", "properties": { "id": 15481, "street_cells": 298.77835048213598, "yard_cells": 3716.2636427404559, "utility": 1.5509686204922171, "num_areas": 1.0 }, "geometry": { "type": "MultiPolygon", "coordinates": [ [ [ [ 1263249.034566706512123, 5545781.343784033320844 ], [ 1263349.034566706512123, 5545781.343784033320844 ], [ 1263349.034566706512123, 5545681.343784033320844 ], [ 1263249.034566706512123, 5545681.343784033320844 ], [ 1263249.034566706512123, 5545781.343784033320844 ] ] ] ] } },
{ "type": "Feature", "properties": { "id": 15483, "street_cells": 0.0, "yard_cells": 4739.8594002969567, "utility": 1.825062375295164, "num_areas": 0.0 }, "geometry": { "type": "MultiPolygon", "coordinates": [ [ [ [ 1263249.034566706512123, 5545581.343784033320844 ], [ 1263349.034566706512123, 5545581.343784033320844 ], [ 1263349.034566706512123, 5545481.343784033320844 ], [ 1263249.034566706512123, 5545481.343784033320844 ], [ 1263249.034566706512123, 5545581.343784033320844 ] ] ] ] } },
{ "type": "Feature", "properties": { "id": 15640, "street_cells": 285.08639860264958, "yard_cells": 4193.0499169017248, "utility": 1.623335919552245, "num_areas": 1.0 }, "geometry": { "type": "MultiPolygon", "coordinates": [ [ [ [ 1263349.034566706512123, 5545781.343784033320844 ], [ 1263449.034566706512123, 5545781.343784033320844 ], [ 1263449.034566706512123, 5545681.343784033320844 ], [ 1263349.034566706512123, 5545681.343784033320844 ], [ 1263349.034566706512123, 5545781.343784033320844 ] ] ] ] } },
{ "type": "Feature", "properties": { "id": 15812, "street_cells": 538.58000045716767, "yard_cells": 2763.9438009255769, "utility": 2.0058439817203251, "num_areas": 1.0 }, "geometry": { "type": "MultiPolygon", "coordinates": [ [ [ [ 1263449.034566706512123, 5544481.343784033320844 ], [ 1263549.034566706512123, 5544481.343784033320844 ], [ 1263549.034566706512123, 5544381.343784033320844 ], [ 1263449.034566706512123, 5544381.343784033320844 ], [ 1263449.034566706512123, 5544481.343784033320844 ] ] ] ] } },
{ "type": "Feature", "properties": { "id": 15936, "street_cells": 276.72414177358149, "yard_cells": 3539.6635001214222, "utility": 1.5300787490893599, "num_areas": 0.0 }, "geometry": { "type": "MultiPolygon", "coordinates": [ [ [ [ 1263549.034566706512123, 5547981.343784033320844 ], [ 1263649.034566706512123, 5547981.343784033320844 ], [ 1263649.034566706512123, 5547881.343784033320844 ], [ 1263549.034566706512123, 5547881.343784033320844 ], [ 1263549.034566706512123, 5547981.343784033320844 ] ] ] ] } },
{ "type": "Feature", "properties": { "id": 15937, "street_cells": 370.68863313198091, "yard_cells": 3668.7150925774131, "utility": 1.5796536010466531, "num_areas": 0.0 }, "geometry": { "type": "MultiPolygon", "coordinates": [ [ [ [ 1263549.034566706512123, 5547881.343784033320844 ], [ 1263649.034566706512123, 5547881.343784033320844 ], [ 1263649.034566706512123, 5547781.343784033320844 ], [ 1263549.034566706512123, 5547781.343784033320844 ], [ 1263549.034566706512123, 5547881.343784033320844 ] ] ] ] } },
{ "type": "Feature", "properties": { "id": 15978, "street_cells": 0.0, "yard_cells": 4482.7566348433493, "utility": 2.1137141082856048, "num_areas": 0.0 }, "geometry": { "type": "MultiPolygon", "coordinates": [ [ [ [ 1263549.034566706512123, 5543781.343784033320844 ], [ 1263649.034566706512123, 5543781.343784033320844 ], [ 1263649.034566706512123, 5543681.343784033320844 ], [ 1263549.034566706512123, 5543681.343784033320844 ], [ 1263549.034566706512123, 5543781.343784033320844 ] ] ] ] } },
{ "type": "Feature", "properties": { "id": 15979, "street_cells": 732.15261323191226, "yard_cells": 4149.9833324030042, "utility": 1.5574012666755239, "num_areas": 1.0 }, "geometry": { "type": "MultiPolygon", "coordinates": [ [ [ [ 1263549.034566706512123, 5543681.343784033320844 ], [ 1263649.034566706512123, 5543681.343784033320844 ], [ 1263649.034566706512123, 5543581.343784033320844 ], [ 1263549.034566706512123, 5543581.343784033320844 ], [ 1263549.034566706512123, 5543681.343784033320844 ] ] ] ] } },
{ "type": "Feature", "properties": { "id": 16094, "street_cells": 308.29765725135798, "yard_cells": 3447.5618240278218, "utility": 1.559107005867197, "num_areas": 1.0 }, "geometry": { "type": "MultiPolygon", "coordinates": [ [ [ [ 1263649.034566706512123, 5548081.343784033320844 ], [ 1263749.034566706512123, 5548081.343784033320844 ], [ 1263749.034566706512123, 5547981.343784033320844 ], [ 1263649.034566706512123, 5547981.343784033320844 ], [ 1263649.034566706512123, 5548081.343784033320844 ] ] ] ] } },
{ "type": "Feature", "properties": { "id": 16095, "street_cells": 613.2055448234081, "yard_cells": 3691.163147713617, "utility": 1.967907027438685, "num_areas": 0.0 }, "geometry": { "type": "MultiPolygon", "coordinates": [ [ [ [ 1263649.034566706512123, 5547981.343784033320844 ], [ 1263749.034566706512123, 5547981.343784033320844 ], [ 1263749.034566706512123, 5547881.343784033320844 ], [ 1263649.034566706512123, 5547881.343784033320844 ], [ 1263649.034566706512123, 5547981.343784033320844 ] ] ] ] } },
{ "type": "Feature", "properties": { "id": 16112, "street_cells": 323.9522167298943, "yard_cells": 3791.766957820952, "utility": 1.494448583822054, "num_areas": 0.0 }, "geometry": { "type": "MultiPolygon", "coordinates": [ [ [ [ 1263649.034566706512123, 5546281.343784033320844 ], [ 1263749.034566706512123, 5546281.343784033320844 ], [ 1263749.034566706512123, 5546181.343784033320844 ], [ 1263649.034566706512123, 5546181.343784033320844 ], [ 1263649.034566706512123, 5546281.343784033320844 ] ] ] ] } },
{ "type": "Feature", "properties": { "id": 16114, "street_cells": 376.51293735578662, "yard_cells": 3446.5635024208582, "utility": 1.8231907302877379, "num_areas": 0.0 }, "geometry": { "type": "MultiPolygon", "coordinates": [ [ [ [ 1263649.034566706512123, 5546081.343784033320844 ], [ 1263749.034566706512123, 5546081.343784033320844 ], [ 1263749.034566706512123, 5545981.343784033320844 ], [ 1263649.034566706512123, 5545981.343784033320844 ], [ 1263649.034566706512123, 5546081.343784033320844 ] ] ] ] } },
{ "type": "Feature", "properties": { "id": 16137, "street_cells": 168.62465070784091, "yard_cells": 3688.6627867103089, "utility": 2.0473884058360192, "num_areas": 0.0 }, "geometry": { "type": "MultiPolygon", "coordinates": [ [ [ [ 1263649.034566706512123, 5543781.343784033320844 ], [ 1263749.034566706512123, 5543781.343784033320844 ], [ 1263749.034566706512123, 5543681.343784033320844 ], [ 1263649.034566706512123, 5543681.343784033320844 ], [ 1263649.034566706512123, 5543781.343784033320844 ] ] ] ] } },
{ "type": "Feature", "properties": { "id": 16271, "street_cells": 98.362333324551585, "yard_cells": 4885.3405590780076, "utility": 1.62941336541588, "num_areas": 0.0 }, "geometry": { "type": "MultiPolygon", "coordinates": [ [ [ [ 1263749.034566706512123, 5546281.343784033320844 ], [ 1263849.034566706512123, 5546281.343784033320844 ], [ 1263849.034566706512123, 5546181.343784033320844 ], [ 1263749.034566706512123, 5546181.343784033320844 ], [ 1263749.034566706512123, 5546281.343784033320844 ] ] ] ] } },
{ "type": "Feature", "properties": { "id": 16273, "street_cells": 416.29455626420679, "yard_cells": 3298.8637182774019, "utility": 1.6372374559290439, "num_areas": 0.0 }, "geometry": { "type": "MultiPolygon", "coordinates": [ [ [ [ 1263749.034566706512123, 5546081.343784033320844 ], [ 1263849.034566706512123, 5546081.343784033320844 ], [ 1263849.034566706512123, 5545981.343784033320844 ], [ 1263749.034566706512123, 5545981.343784033320844 ], [ 1263749.034566706512123, 5546081.343784033320844 ] ] ] ] } },
{ "type": "Feature", "properties": { "id": 16274, "street_cells": 385.83039495199921, "yard_cells": 3827.2164402693511, "utility": 1.8982602301209159, "num_areas": 0.0 }, "geometry": { "type": "MultiPolygon", "coordinates": [ [ [ [ 1263749.034566706512123, 5545981.343784033320844 ], [ 1263849.034566706512123, 5545981.343784033320844 ], [ 1263849.034566706512123, 5545881.343784033320844 ], [ 1263749.034566706512123, 5545881.343784033320844 ], [ 1263749.034566706512123, 5545981.343784033320844 ] ] ] ] } },
{ "type": "Feature", "properties": { "id": 16281, "street_cells": 381.49089616537088, "yard_cells": 2641.4197042977789, "utility": 1.8324570726233049, "num_areas": 0.0 }, "geometry": { "type": "MultiPolygon", "coordinates": [ [ [ [ 1263749.034566706512123, 5545281.343784033320844 ], [ 1263849.034566706512123, 5545281.343784033320844 ], [ 1263849.034566706512123, 5545181.343784033320844 ], [ 1263749.034566706512123, 5545181.343784033320844 ], [ 1263749.034566706512123, 5545281.343784033320844 ] ] ] ] } },
{ "type": "Feature", "properties": { "id": 16297, "street_cells": 452.18508128970859, "yard_cells": 3061.6116378232841, "utility": 1.9094091330773759, "num_areas": 0.0 }, "geometry": { "type": "MultiPolygon", "coordinates": [ [ [ [ 1263749.034566706512123, 5543681.343784033320844 ], [ 1263849.034566706512123, 5543681.343784033320844 ], [ 1263849.034566706512123, 5543581.343784033320844 ], [ 1263749.034566706512123, 5543581.343784033320844 ], [ 1263749.034566706512123, 5543681.343784033320844 ] ] ] ] } },
{ "type": "Feature", "properties": { "id": 16300, "street_cells": 0.0, "yard_cells": 4233.6115017518396, "utility": 1.9045883159715411, "num_areas": 0.0 }, "geometry": { "type": "MultiPolygon", "coordinates": [ [ [ [ 1263749.034566706512123, 5543381.343784033320844 ], [ 1263849.034566706512123, 5543381.343784033320844 ], [ 1263849.034566706512123, 5543281.343784033320844 ], [ 1263749.034566706512123, 5543281.343784033320844 ], [ 1263749.034566706512123, 5543381.343784033320844 ] ] ] ] } },
{ "type": "Feature", "properties": { "id": 16412, "street_cells": 244.55741935074329, "yard_cells": 3465.3809315867329, "utility": 1.7002506425555159, "num_areas": 0.0 }, "geometry": { "type": "MultiPolygon", "coordinates": [ [ [ [ 1263849.034566706512123, 5548081.343784033320844 ], [ 1263949.034566706512123, 5548081.343784033320844 ], [ 1263949.034566706512123, 5547981.343784033320844 ], [ 1263849.034566706512123, 5547981.343784033320844 ], [ 1263849.034566706512123, 5548081.343784033320844 ] ] ] ] } },
{ "type": "Feature", "properties": { "id": 16446, "street_cells": 258.4470125362277, "yard_cells": 3987.2556977498671, "utility": 1.5119421198831779, "num_areas": 0.0 }, "geometry": { "type": "MultiPolygon", "coordinates": [ [ [ [ 1263849.034566706512123, 5544681.343784033320844 ], [ 1263949.034566706512123, 5544681.343784033320844 ], [ 1263949.034566706512123, 5544581.343784033320844 ], [ 1263849.034566706512123, 5544581.343784033320844 ], [ 1263849.034566706512123, 5544681.343784033320844 ] ] ] ] } },
{ "type": "Feature", "properties": { "id": 16611, "street_cells": 775.521364569664, "yard_cells": 1706.76184289977, "utility": 2.2915563786304451, "num_areas": 0.0 }, "geometry": { "type": "MultiPolygon", "coordinates": [ [ [ [ 1263949.034566706512123, 5544081.343784033320844 ], [ 1264049.034566706512123, 5544081.343784033320844 ], [ 1264049.034566706512123, 5543981.343784033320844 ], [ 1263949.034566706512123, 5543981.343784033320844 ], [ 1263949.034566706512123, 5544081.343784033320844 ] ] ] ] } },
{ "type": "Feature", "properties": { "id": 16750, "street_cells": 342.02595155537131, "yard_cells": 4207.2260120999072, "utility": 1.50348217564871, "num_areas": 1.0 }, "geometry": { "type": "MultiPolygon", "coordinates": [ [ [ [ 1264049.034566706512123, 5546081.343784033320844 ], [ 1264149.034566706512123, 5546081.343784033320844 ], [ 1264149.034566706512123, 5545981.343784033320844 ], [ 1264049.034566706512123, 5545981.343784033320844 ], [ 1264049.034566706512123, 5546081.343784033320844 ] ] ] ] } },
{ "type": "Feature", "properties": { "id": 17067, "street_cells": 137.64135741703211, "yard_cells": 3435.583070749045, "utility": 1.606749561604939, "num_areas": 0.0 }, "geometry": { "type": "MultiPolygon", "coordinates": [ [ [ [ 1264249.034566706512123, 5546181.343784033320844 ], [ 1264349.034566706512123, 5546181.343784033320844 ], [ 1264349.034566706512123, 5546081.343784033320844 ], [ 1264249.034566706512123, 5546081.343784033320844 ], [ 1264249.034566706512123, 5546181.343784033320844 ] ] ] ] } },
{ "type": "Feature", "properties": { "id": 17099, "street_cells": 407.9635966509581, "yard_cells": 3230.4560083536689, "utility": 1.6996494310437089, "num_areas": 1.0 }, "geometry": { "type": "MultiPolygon", "coordinates": [ [ [ [ 1264249.034566706512123, 5542981.343784033320844 ], [ 1264349.034566706512123, 5542981.343784033320844 ], [ 1264349.034566706512123, 5542881.343784033320844 ], [ 1264249.034566706512123, 5542881.343784033320844 ], [ 1264249.034566706512123, 5542981.343784033320844 ] ] ] ] } },
{ "type": "Feature", "properties": { "id": 17265, "street_cells": 179.4926492393017, "yard_cells": 3613.5667494259778, "utility": 1.510727942457609, "num_areas": 0.0 }, "geometry": { "type": "MultiPolygon", "coordinates": [ [ [ [ 1264349.034566706512123, 5542281.343784033320844 ], [ 1264449.034566706512123, 5542281.343784033320844 ], [ 1264449.034566706512123, 5542181.343784033320844 ], [ 1264349.034566706512123, 5542181.343784033320844 ], [ 1264349.034566706512123, 5542281.343784033320844 ] ] ] ] } },
{ "type": "Feature", "properties": { "id": 17271, "street_cells": 35.072863122820863, "yard_cells": 3765.0946371264758, "utility": 1.631605568367404, "num_areas": 0.0 }, "geometry": { "type": "MultiPolygon", "coordinates": [ [ [ [ 1264349.034566706512123, 5541681.343784033320844 ], [ 1264449.034566706512123, 5541681.343784033320844 ], [ 1264449.034566706512123, 5541581.343784033320844 ], [ 1264349.034566706512123, 5541581.343784033320844 ], [ 1264349.034566706512123, 5541681.343784033320844 ] ] ] ] } },
{ "type": "Feature", "properties": { "id": 17577, "street_cells": 390.92145533105361, "yard_cells": 2974.5982154401022, "utility": 1.815456511866737, "num_areas": 0.0 }, "geometry": { "type": "MultiPolygon", "coordinates": [ [ [ [ 1264549.034566706512123, 5542881.343784033320844 ], [ 1264649.034566706512123, 5542881.343784033320844 ], [ 1264649.034566706512123, 5542781.343784033320844 ], [ 1264549.034566706512123, 5542781.343784033320844 ], [ 1264549.034566706512123, 5542881.343784033320844 ] ] ] ] } },
{ "type": "Feature", "properties": { "id": 17578, "street_cells": 325.40485727488999, "yard_cells": 4142.2682295814157, "utility": 1.725735447541179, "num_areas": 0.0 }, "geometry": { "type": "MultiPolygon", "coordinates": [ [ [ [ 1264549.034566706512123, 5542781.343784033320844 ], [ 1264649.034566706512123, 5542781.343784033320844 ], [ 1264649.034566706512123, 5542681.343784033320844 ], [ 1264549.034566706512123, 5542681.343784033320844 ], [ 1264549.034566706512123, 5542781.343784033320844 ] ] ] ] } },
{ "type": "Feature", "properties": { "id": 19026, "street_cells": 89.247118216753009, "yard_cells": 3402.133452967927, "utility": 1.852665972008372, "num_areas": 1.0 }, "geometry": { "type": "MultiPolygon", "coordinates": [ [ [ [ 1265449.034566706512123, 5541081.343784033320844 ], [ 1265549.034566706512123, 5541081.343784033320844 ], [ 1265549.034566706512123, 5540981.343784033320844 ], [ 1265449.034566706512123, 5540981.343784033320844 ], [ 1265449.034566706512123, 5541081.343784033320844 ] ] ] ] } },
{ "type": "Feature", "properties": { "id": 19036, "street_cells": 373.47678840458389, "yard_cells": 3269.9605147170219, "utility": 1.5911941059874919, "num_areas": 0.0 }, "geometry": { "type": "MultiPolygon", "coordinates": [ [ [ [ 1265449.034566706512123, 5540081.343784033320844 ], [ 1265549.034566706512123, 5540081.343784033320844 ], [ 1265549.034566706512123, 5539981.343784033320844 ], [ 1265449.034566706512123, 5539981.343784033320844 ], [ 1265449.034566706512123, 5540081.343784033320844 ] ] ] ] } },
{ "type": "Feature", "properties": { "id": 19037, "street_cells": 405.75128435343498, "yard_cells": 3488.75264450144, "utility": 1.600839029654215, "num_areas": 0.0 }, "geometry": { "type": "MultiPolygon", "coordinates": [ [ [ [ 1265449.034566706512123, 5539981.343784033320844 ], [ 1265549.034566706512123, 5539981.343784033320844 ], [ 1265549.034566706512123, 5539881.343784033320844 ], [ 1265449.034566706512123, 5539881.343784033320844 ], [ 1265449.034566706512123, 5539981.343784033320844 ] ] ] ] } },
{ "type": "Feature", "properties": { "id": 19345, "street_cells": 83.43431467264891, "yard_cells": 3844.63895251751, "utility": 1.729141858223546, "num_areas": 0.0 }, "geometry": { "type": "MultiPolygon", "coordinates": [ [ [ [ 1265649.034566706512123, 5540981.343784033320844 ], [ 1265749.034566706512123, 5540981.343784033320844 ], [ 1265749.034566706512123, 5540881.343784033320844 ], [ 1265649.034566706512123, 5540881.343784033320844 ], [ 1265649.034566706512123, 5540981.343784033320844 ] ] ] ] } },
{ "type": "Feature", "properties": { "id": 19498, "street_cells": 2.689874032139778, "yard_cells": 4837.8109775990251, "utility": 1.52543822056376, "num_areas": 0.0 }, "geometry": { "type": "MultiPolygon", "coordinates": [ [ [ [ 1265749.034566706512123, 5541581.343784033320844 ], [ 1265849.034566706512123, 5541581.343784033320844 ], [ 1265849.034566706512123, 5541481.343784033320844 ], [ 1265749.034566706512123, 5541481.343784033320844 ], [ 1265749.034566706512123, 5541581.343784033320844 ] ] ] ] } },
{ "type": "Feature", "properties": { "id": 19504, "street_cells": 0.0, "yard_cells": 4867.225944268298, "utility": 2.1295625016948239, "num_areas": 0.0 }, "geometry": { "type": "MultiPolygon", "coordinates": [ [ [ [ 1265749.034566706512123, 5540981.343784033320844 ], [ 1265849.034566706512123, 5540981.343784033320844 ], [ 1265849.034566706512123, 5540881.343784033320844 ], [ 1265749.034566706512123, 5540881.343784033320844 ], [ 1265749.034566706512123, 5540981.343784033320844 ] ] ] ] } },
{ "type": "Feature", "properties": { "id": 19526, "street_cells": 86.181150563061237, "yard_cells": 4488.9468627961487, "utility": 1.3360396500049041, "num_areas": 1.0 }, "geometry": { "type": "MultiPolygon", "coordinates": [ [ [ [ 1265749.034566706512123, 5538687.034894553944468 ], [ 1265749.034566706512123, 5538781.343784033320844 ], [ 1265849.034566706512123, 5538781.343784033320844 ], [ 1265849.034566706512123, 5538681.343784033320844 ], [ 1265752.434265846852213, 5538681.343784033320844 ], [ 1265749.034566706512123, 5538687.034894553944468 ] ] ] ] } },
{ "type": "Feature", "properties": { "id": 19631, "street_cells": 203.9871448593214, "yard_cells": 4024.6907345451418, "utility": 1.4700252711711841, "num_areas": 0.0 }, "geometry": { "type": "MultiPolygon", "coordinates": [ [ [ [ 1265849.034566706512123, 5544181.343784033320844 ], [ 1265949.034566706512123, 5544181.343784033320844 ], [ 1265949.034566706512123, 5544081.343784033320844 ], [ 1265849.034566706512123, 5544081.343784033320844 ], [ 1265849.034566706512123, 5544181.343784033320844 ] ] ] ] } },
{ "type": "Feature", "properties": { "id": 19665, "street_cells": 528.43761329501865, "yard_cells": 2374.7849866367378, "utility": 1.884745888725011, "num_areas": 0.0 }, "geometry": { "type": "MultiPolygon", "coordinates": [ [ [ [ 1265849.034566706512123, 5540781.343784033320844 ], [ 1265949.034566706512123, 5540781.343784033320844 ], [ 1265949.034566706512123, 5540681.343784033320844 ], [ 1265849.034566706512123, 5540681.343784033320844 ], [ 1265849.034566706512123, 5540781.343784033320844 ] ] ] ] } },
{ "type": "Feature", "properties": { "id": 19790, "street_cells": 538.29415539614854, "yard_cells": 3198.370455203205, "utility": 1.6881607027235921, "num_areas": 0.0 }, "geometry": { "type": "MultiPolygon", "coordinates": [ [ [ [ 1265949.034566706512123, 5544181.343784033320844 ], [ 1266049.034566706512123, 5544181.343784033320844 ], [ 1266049.034566706512123, 5544081.343784033320844 ], [ 1265949.034566706512123, 5544081.343784033320844 ], [ 1265949.034566706512123, 5544181.343784033320844 ] ] ] ] } },
{ "type": "Feature", "properties": { "id": 19817, "street_cells": 17.14005324691534, "yard_cells": 4274.8185551998204, "utility": 1.544998349832494, "num_areas": 1.0 }, "geometry": { "type": "MultiPolygon", "coordinates": [ [ [ [ 1265949.034566706512123, 5541481.343784033320844 ], [ 1266049.034566706512123, 5541481.343784033320844 ], [ 1266049.034566706512123, 5541381.343784033320844 ], [ 1265949.034566706512123, 5541381.343784033320844 ], [ 1265949.034566706512123, 5541481.343784033320844 ] ] ] ] } },
{ "type": "Feature", "properties": { "id": 20007, "street_cells": 402.30077166110277, "yard_cells": 3831.083943158761, "utility": 1.4752091826827181, "num_areas": 0.0 }, "geometry": { "type": "MultiPolygon", "coordinates": [ [ [ [ 1266049.034566706512123, 5538381.343784033320844 ], [ 1266149.034566706512123, 5538381.343784033320844 ], [ 1266149.034566706512123, 5538281.343784033320844 ], [ 1266049.034566706512123, 5538281.343784033320844 ], [ 1266049.034566706512123, 5538381.343784033320844 ] ] ] ] } },
{ "type": "Feature", "properties": { "id": 20010, "street_cells": 367.78772837221618, "yard_cells": 3615.3672585580498, "utility": 1.58655336138204, "num_areas": 0.0 }, "geometry": { "type": "MultiPolygon", "coordinates": [ [ [ [ 1266049.034566706512123, 5538081.343784033320844 ], [ 1266149.034566706512123, 5538081.343784033320844 ], [ 1266149.034566706512123, 5537981.343784033320844 ], [ 1266049.034566706512123, 5537981.343784033320844 ], [ 1266049.034566706512123, 5538081.343784033320844 ] ] ] ] } },
{ "type": "Feature", "properties": { "id": 20011, "street_cells": 186.73449331186711, "yard_cells": 4375.3586414763704, "utility": 1.6074225964300879, "num_areas": 0.0 }, "geometry": { "type": "MultiPolygon", "coordinates": [ [ [ [ 1266049.034566706512123, 5537981.343784033320844 ], [ 1266149.034566706512123, 5537981.343784033320844 ], [ 1266149.034566706512123, 5537881.343784033320844 ], [ 1266049.034566706512123, 5537881.343784033320844 ], [ 1266049.034566706512123, 5537981.343784033320844 ] ] ] ] } },
{ "type": "Feature", "properties": { "id": 20157, "street_cells": 398.08790247887367, "yard_cells": 3732.411541170999, "utility": 1.4657360016436101, "num_areas": 0.0 }, "geometry": { "type": "MultiPolygon", "coordinates": [ [ [ [ 1266149.034566706512123, 5539281.343784033320844 ], [ 1266249.034566706512123, 5539281.343784033320844 ], [ 1266249.034566706512123, 5539181.343784033320844 ], [ 1266149.034566706512123, 5539181.343784033320844 ], [ 1266149.034566706512123, 5539281.343784033320844 ] ] ] ] } },
{ "type": "Feature", "properties": { "id": 20158, "street_cells": 93.022410947084438, "yard_cells": 3566.0652005635202, "utility": 1.5698921319897601, "num_areas": 0.0 }, "geometry": { "type": "MultiPolygon", "coordinates": [ [ [ [ 1266149.034566706512123, 5539181.343784033320844 ], [ 1266249.034566706512123, 5539181.343784033320844 ], [ 1266249.034566706512123, 5539081.343784033320844 ], [ 1266149.034566706512123, 5539081.343784033320844 ], [ 1266149.034566706512123, 5539181.343784033320844 ] ] ] ] } },
{ "type": "Feature", "properties": { "id": 20307, "street_cells": 537.18822092115886, "yard_cells": 3420.100078599527, "utility": 1.8083510613431191, "num_areas": 0.0 }, "geometry": { "type": "MultiPolygon", "coordinates": [ [ [ [ 1266249.034566706512123, 5540181.343784033320844 ], [ 1266349.034566706512123, 5540181.343784033320844 ], [ 1266349.034566706512123, 5540081.343784033320844 ], [ 1266249.034566706512123, 5540081.343784033320844 ], [ 1266249.034566706512123, 5540181.343784033320844 ] ] ] ] } },
{ "type": "Feature", "properties": { "id": 20787, "street_cells": 619.19268396496773, "yard_cells": 2687.2909823343771, "utility": 1.8062492110431381, "num_areas": 1.0 }, "geometry": { "type": "MultiPolygon", "coordinates": [ [ [ [ 1266549.034566706512123, 5539881.343784033320844 ], [ 1266649.034566706512123, 5539881.343784033320844 ], [ 1266649.034566706512123, 5539781.343784033320844 ], [ 1266549.034566706512123, 5539781.343784033320844 ], [ 1266549.034566706512123, 5539881.343784033320844 ] ] ] ] } },
{ "type": "Feature", "properties": { "id": 20791, "street_cells": 48.511434352956712, "yard_cells": 3759.8031855881218, "utility": 1.8461537782792921, "num_areas": 0.0 }, "geometry": { "type": "MultiPolygon", "coordinates": [ [ [ [ 1266549.034566706512123, 5539481.343784033320844 ], [ 1266649.034566706512123, 5539481.343784033320844 ], [ 1266649.034566706512123, 5539381.343784033320844 ], [ 1266549.034566706512123, 5539381.343784033320844 ], [ 1266549.034566706512123, 5539481.343784033320844 ] ] ] ] } },
{ "type": "Feature", "properties": { "id": 20946, "street_cells": 379.98354786485442, "yard_cells": 3208.3868214240301, "utility": 1.718454066121585, "num_areas": 0.0 }, "geometry": { "type": "MultiPolygon", "coordinates": [ [ [ [ 1266649.034566706512123, 5539881.343784033320844 ], [ 1266749.034566706512123, 5539881.343784033320844 ], [ 1266749.034566706512123, 5539781.343784033320844 ], [ 1266649.034566706512123, 5539781.343784033320844 ], [ 1266649.034566706512123, 5539881.343784033320844 ] ] ] ] } },
{ "type": "Feature", "properties": { "id": 20949, "street_cells": 514.68386142123495, "yard_cells": 3229.994338101149, "utility": 1.555783740295684, "num_areas": 0.0 }, "geometry": { "type": "MultiPolygon", "coordinates": [ [ [ [ 1266649.034566706512123, 5539581.343784033320844 ], [ 1266749.034566706512123, 5539581.343784033320844 ], [ 1266749.034566706512123, 5539481.343784033320844 ], [ 1266649.034566706512123, 5539481.343784033320844 ], [ 1266649.034566706512123, 5539581.343784033320844 ] ] ] ] } },
{ "type": "Feature", "properties": { "id": 20954, "street_cells": 63.054135034978387, "yard_cells": 5000.775875037164, "utility": 1.2315797847890759, "num_areas": 0.0 }, "geometry": { "type": "MultiPolygon", "coordinates": [ [ [ [ 1266649.034566706512123, 5539081.343784033320844 ], [ 1266749.034566706512123, 5539081.343784033320844 ], [ 1266749.034566706512123, 5538981.343784033320844 ], [ 1266649.034566706512123, 5538981.343784033320844 ], [ 1266649.034566706512123, 5539081.343784033320844 ] ] ] ] } },
{ "type": "Feature", "properties": { "id": 21101, "street_cells": 406.4711241334677, "yard_cells": 2980.439895455725, "utility": 1.765803973457835, "num_areas": 0.0 }, "geometry": { "type": "MultiPolygon", "coordinates": [ [ [ [ 1266749.034566706512123, 5540281.343784033320844 ], [ 1266849.034566706512123, 5540281.343784033320844 ], [ 1266849.034566706512123, 5540181.343784033320844 ], [ 1266749.034566706512123, 5540181.343784033320844 ], [ 1266749.034566706512123, 5540281.343784033320844 ] ] ] ] } },
{ "type": "Feature", "properties": { "id": 21105, "street_cells": 410.31305187175752, "yard_cells": 3941.8882632676509, "utility": 1.5958864915726549, "num_areas": 0.0 }, "geometry": { "type": "MultiPolygon", "coordinates": [ [ [ [ 1266749.034566706512123, 5539881.343784033320844 ], [ 1266849.034566706512123, 5539881.343784033320844 ], [ 1266849.034566706512123, 5539781.343784033320844 ], [ 1266749.034566706512123, 5539781.343784033320844 ], [ 1266749.034566706512123, 5539881.343784033320844 ] ] ] ] } },
{ "type": "Feature", "properties": { "id": 21588, "street_cells": 382.48125309571628, "yard_cells": 3594.2648148287089, "utility": 1.7656593340033819, "num_areas": 0.0 }, "geometry": { "type": "MultiPolygon", "coordinates": [ [ [ [ 1267049.034566706512123, 5539281.343784033320844 ], [ 1267149.034566706512123, 5539281.343784033320844 ], [ 1267149.034566706512123, 5539181.343784033320844 ], [ 1267049.034566706512123, 5539181.343784033320844 ], [ 1267049.034566706512123, 5539281.343784033320844 ] ] ] ] } },
{ "type": "Feature", "properties": { "id": 21740, "street_cells": 608.85388379096992, "yard_cells": 2475.191275319085, "utility": 1.809751380916155, "num_areas": 0.0 }, "geometry": { "type": "MultiPolygon", "coordinates": [ [ [ [ 1267149.034566706512123, 5539981.343784033320844 ], [ 1267249.034566706512123, 5539981.343784033320844 ], [ 1267249.034566706512123, 5539881.343784033320844 ], [ 1267149.034566706512123, 5539881.343784033320844 ], [ 1267149.034566706512123, 5539981.343784033320844 ] ] ] ] } },
{ "type": "Feature", "properties": { "id": 21741, "street_cells": 372.95016006529329, "yard_cells": 3611.3160628769551, "utility": 2.0462286722483851, "num_areas": 0.0 }, "geometry": { "type": "MultiPolygon", "coordinates": [ [ [ [ 1267149.034566706512123, 5539881.343784033320844 ], [ 1267249.034566706512123, 5539881.343784033320844 ], [ 1267249.034566706512123, 5539781.343784033320844 ], [ 1267149.034566706512123, 5539781.343784033320844 ], [ 1267149.034566706512123, 5539881.343784033320844 ] ] ] ] } },
{ "type": "Feature", "properties": { "id": 21746, "street_cells": 348.48698984310028, "yard_cells": 3045.2652265659949, "utility": 1.6780808183980911, "num_areas": 2.0 }, "geometry": { "type": "MultiPolygon", "coordinates": [ [ [ [ 1267149.034566706512123, 5539381.343784033320844 ], [ 1267249.034566706512123, 5539381.343784033320844 ], [ 1267249.034566706512123, 5539281.343784033320844 ], [ 1267149.034566706512123, 5539281.343784033320844 ], [ 1267149.034566706512123, 5539381.343784033320844 ] ] ] ] } },
{ "type": "Feature", "properties": { "id": 21901, "street_cells": 451.28774762153631, "yard_cells": 3478.8986887739738, "utility": 1.766175242333605, "num_areas": 0.0 }, "geometry": { "type": "MultiPolygon", "coordinates": [ [ [ [ 1267249.034566706512123, 5539781.343784033320844 ], [ 1267349.034566706512123, 5539781.343784033320844 ], [ 1267349.034566706512123, 5539681.343784033320844 ], [ 1267249.034566706512123, 5539681.343784033320844 ], [ 1267249.034566706512123, 5539781.343784033320844 ] ] ] ] } },
{ "type": "Feature", "properties": { "id": 21904, "street_cells": 453.98959315903488, "yard_cells": 3367.3565321525398, "utility": 1.7404523148682129, "num_areas": 0.0 }, "geometry": { "type": "MultiPolygon", "coordinates": [ [ [ [ 1267249.034566706512123, 5539481.343784033320844 ], [ 1267349.034566706512123, 5539481.343784033320844 ], [ 1267349.034566706512123, 5539381.343784033320844 ], [ 1267249.034566706512123, 5539381.343784033320844 ], [ 1267249.034566706512123, 5539481.343784033320844 ] ] ] ] } },
{ "type": "Feature", "properties": { "id": 21907, "street_cells": 421.37787138968707, "yard_cells": 3472.0655098587281, "utility": 1.7389467268005609, "num_areas": 0.0 }, "geometry": { "type": "MultiPolygon", "coordinates": [ [ [ [ 1267249.034566706512123, 5539181.343784033320844 ], [ 1267349.034566706512123, 5539181.343784033320844 ], [ 1267349.034566706512123, 5539081.343784033320844 ], [ 1267249.034566706512123, 5539081.343784033320844 ], [ 1267249.034566706512123, 5539181.343784033320844 ] ] ] ] } },
{ "type": "Feature", "properties": { "id": 22035, "street_cells": 299.97691431827838, "yard_cells": 3419.0974821310961, "utility": 1.5499723433812189, "num_areas": 0.0 }, "geometry": { "type": "MultiPolygon", "coordinates": [ [ [ [ 1267349.034566706512123, 5542281.343784033320844 ], [ 1267449.034566706512123, 5542281.343784033320844 ], [ 1267449.034566706512123, 5542181.343784033320844 ], [ 1267349.034566706512123, 5542181.343784033320844 ], [ 1267349.034566706512123, 5542281.343784033320844 ] ] ] ] } },
{ "type": "Feature", "properties": { "id": 22217, "street_cells": 557.70351866483691, "yard_cells": 2613.1781978821382, "utility": 1.888243378056615, "num_areas": 0.0 }, "geometry": { "type": "MultiPolygon", "coordinates": [ [ [ [ 1267449.034566706512123, 5539981.343784033320844 ], [ 1267549.034566706512123, 5539981.343784033320844 ], [ 1267549.034566706512123, 5539881.343784033320844 ], [ 1267449.034566706512123, 5539881.343784033320844 ], [ 1267449.034566706512123, 5539981.343784033320844 ] ] ] ] } },
{ "type": "Feature", "properties": { "id": 22218, "street_cells": 456.87551356330522, "yard_cells": 2367.5620391957459, "utility": 1.937886220178813, "num_areas": 0.0 }, "geometry": { "type": "MultiPolygon", "coordinates": [ [ [ [ 1267449.034566706512123, 5539881.343784033320844 ], [ 1267549.034566706512123, 5539881.343784033320844 ], [ 1267549.034566706512123, 5539781.343784033320844 ], [ 1267449.034566706512123, 5539781.343784033320844 ], [ 1267449.034566706512123, 5539881.343784033320844 ] ] ] ] } },
{ "type": "Feature", "properties": { "id": 22225, "street_cells": 291.13715378623459, "yard_cells": 3513.1857076114052, "utility": 1.597458239612686, "num_areas": 1.0 }, "geometry": { "type": "MultiPolygon", "coordinates": [ [ [ [ 1267449.034566706512123, 5539181.343784033320844 ], [ 1267549.034566706512123, 5539181.343784033320844 ], [ 1267549.034566706512123, 5539081.343784033320844 ], [ 1267449.034566706512123, 5539081.343784033320844 ], [ 1267449.034566706512123, 5539181.343784033320844 ] ] ] ] } },
{ "type": "Feature", "properties": { "id": 22226, "street_cells": 278.40787494089449, "yard_cells": 3856.1211349412802, "utility": 1.8457105736443109, "num_areas": 0.0 }, "geometry": { "type": "MultiPolygon", "coordinates": [ [ [ [ 1267449.034566706512123, 5539081.343784033320844 ], [ 1267549.034566706512123, 5539081.343784033320844 ], [ 1267549.034566706512123, 5538981.343784033320844 ], [ 1267449.034566706512123, 5538981.343784033320844 ], [ 1267449.034566706512123, 5539081.343784033320844 ] ] ] ] } },
{ "type": "Feature", "properties": { "id": 22227, "street_cells": 155.33455683495851, "yard_cells": 3474.0552054229661, "utility": 1.688622347255532, "num_areas": 0.0 }, "geometry": { "type": "MultiPolygon", "coordinates": [ [ [ [ 1267449.034566706512123, 5538981.343784033320844 ], [ 1267549.034566706512123, 5538981.343784033320844 ], [ 1267549.034566706512123, 5538881.343784033320844 ], [ 1267449.034566706512123, 5538881.343784033320844 ], [ 1267449.034566706512123, 5538981.343784033320844 ] ] ] ] } },
{ "type": "Feature", "properties": { "id": 22544, "street_cells": 828.10219761538326, "yard_cells": 2117.8346664746291, "utility": 1.989130801934524, "num_areas": 0.0 }, "geometry": { "type": "MultiPolygon", "coordinates": [ [ [ [ 1267649.034566706512123, 5539081.343784033320844 ], [ 1267749.034566706512123, 5539081.343784033320844 ], [ 1267749.034566706512123, 5538981.343784033320844 ], [ 1267649.034566706512123, 5538981.343784033320844 ], [ 1267649.034566706512123, 5539081.343784033320844 ] ] ] ] } },
{ "type": "Feature", "properties": { "id": 22545, "street_cells": 523.61830800920723, "yard_cells": 2685.2998196792801, "utility": 2.0856021324444258, "num_areas": 0.0 }, "geometry": { "type": "MultiPolygon", "coordinates": [ [ [ [ 1267649.034566706512123, 5538981.343784033320844 ], [ 1267749.034566706512123, 5538981.343784033320844 ], [ 1267749.034566706512123, 5538881.343784033320844 ], [ 1267649.034566706512123, 5538881.343784033320844 ], [ 1267649.034566706512123, 5538981.343784033320844 ] ] ] ] } },
{ "type": "Feature", "properties": { "id": 24736, "street_cells": 762.33588539361961, "yard_cells": 2732.3638539001349, "utility": 1.728862786972015, "num_areas": 0.0 }, "geometry": { "type": "MultiPolygon", "coordinates": [ [ [ [ 1269049.034566706512123, 5542481.343784033320844 ], [ 1269149.034566706512123, 5542481.343784033320844 ], [ 1269149.034566706512123, 5542381.343784033320844 ], [ 1269049.034566706512123, 5542381.343784033320844 ], [ 1269049.034566706512123, 5542481.343784033320844 ] ] ] ] } },
{ "type": "Feature", "properties": { "id": 24895, "street_cells": 273.32828853502872, "yard_cells": 3710.552967180312, "utility": 1.626081931238847, "num_areas": 1.0 }, "geometry": { "type": "MultiPolygon", "coordinates": [ [ [ [ 1269149.034566706512123, 5542481.343784033320844 ], [ 1269249.034566706512123, 5542481.343784033320844 ], [ 1269249.034566706512123, 5542381.343784033320844 ], [ 1269149.034566706512123, 5542381.343784033320844 ], [ 1269149.034566706512123, 5542481.343784033320844 ] ] ] ] } }
]
}
