{
"type": "FeatureCollection",
"name": "higher_uhei",
"crs": { "type": "name", "properties": { "name": "urn:ogc:def:crs:EPSG::3857" } },
"features": [
{ "type": "Feature", "properties": { "id": 367, "street_cells": 0.0, "yard_cells": 5782.7660910412669, "utility": 0.94482191901924384, "num_areas": 0.0 }, "geometry": { "type": "MultiPolygon", "coordinates": [ [ [ [ 1253749.034566706512123, 5546681.343784033320844 ], [ 1253849.034566706512123, 5546681.343784033320844 ], [ 1253849.034566706512123, 5546581.343784033320844 ], [ 1253749.034566706512123, 5546581.343784033320844 ], [ 1253749.034566706512123, 5546681.343784033320844 ] ] ] ] } },
{ "type": "Feature", "properties": { "id": 524, "street_cells": 198.11901801098139, "yard_cells": 4781.1079548795115, "utility": 0.79372854702208506, "num_areas": 0.0 }, "geometry": { "type": "MultiPolygon", "coordinates": [ [ [ [ 1253849.034566706512123, 5546881.343784033320844 ], [ 1253949.034566706512123, 5546881.343784033320844 ], [ 1253949.034566706512123, 5546781.343784033320844 ], [ 1253849.034566706512123, 5546781.343784033320844 ], [ 1253849.034566706512123, 5546881.343784033320844 ] ] ] ] } },
{ "type": "Feature", "properties": { "id": 1482, "street_cells": 64.389259943366056, "yard_cells": 5716.0411629294977, "utility": 0.91230738122523092, "num_areas": 0.0 }, "geometry": { "type": "MultiPolygon", "coordinates": [ [ [ [ 1254449.034566706512123, 5546481.343784033320844 ], [ 1254549.034566706512123, 5546481.343784033320844 ], [ 1254549.034566706512123, 5546381.343784033320844 ], [ 1254449.034566706512123, 5546381.343784033320844 ], [ 1254449.034566706512123, 5546481.343784033320844 ] ] ] ] } },
{ "type": "Feature", "properties": { "id": 1800, "street_cells": 129.0536619782448, "yard_cells": 5281.5100617059506, "utility": 0.87466207386457717, "num_areas": 0.0 }, "geometry": { "type": "MultiPolygon", "coordinates": [ [ [ [ 1254649.034566706512123, 5546481.343784033320844 ], [ 1254749.034566706512123, 5546481.343784033320844 ], [ 1254749.034566706512123, 5546381.343784033320844 ], [ 1254649.034566706512123, 5546381.343784033320844 ], [ 1254649.034566706512123, 5546481.343784033320844 ] ] ] ] } },
{ "type": "Feature", "properties": { "id": 2118, "street_cells": 45.635389021039011, "yard_cells": 5557.7808692256804, "utility": 0.93987884046311709, "num_areas": 0.0 }, "geometry": { "type": "MultiPolygon", "coordinates": [ [ [ [ 1254849.034566706512123, 5546481.343784033320844 ], [ 1254949.034566706512123, 5546481.343784033320844 ], [ 1254949.034566706512123, 5546381.343784033320844 ], [ 1254849.034566706512123, 5546381.343784033320844 ], [ 1254849.034566706512123, 5546481.343784033320844 ] ] ] ] } },
{ "type": "Feature", "properties": { "id": 2471, "street_cells": 337.84513205476111, "yard_cells": 5465.3304008668638, "utility": 0.80740500678352978, "num_areas": 0.0 }, "geometry": { "type": "MultiPolygon", "coordinates": [ [ [ [ 1255049.034566706512123, 5542981.343784033320844 ], [ 1255149.034566706512123, 5542981.343784033320844 ], [ 1255149.034566706512123, 5542881.343784033320844 ], [ 1255049.034566706512123, 5542881.343784033320844 ], [ 1255049.034566706512123, 5542981.343784033320844 ] ] ] ] } },
{ "type": "Feature", "properties": { "id": 2624, "street_cells": 183.50552898421881, "yard_cells": 5936.4337559186388, "utility": 0.76586160762805178, "num_areas": 0.0 }, "geometry": { "type": "MultiPolygon", "coordinates": [ [ [ [ 1255149.034566706512123, 5543581.343784033320844 ], [ 1255249.034566706512123, 5543581.343784033320844 ], [ 1255249.034566706512123, 5543481.343784033320844 ], [ 1255149.034566706512123, 5543481.343784033320844 ], [ 1255149.034566706512123, 5543581.343784033320844 ] ] ] ] } },
{ "type": "Feature", "properties": { "id": 2789, "street_cells": 0.0, "yard_cells": 6741.9883435852717, "utility": 0.65194696074684955, "num_areas": 0.0 }, "geometry": { "type": "MultiPolygon", "coordinates": [ [ [ [ 1255249.034566706512123, 5542981.343784033320844 ], [ 1255349.034566706512123, 5542981.343784033320844 ], [ 1255349.034566706512123, 5542881.343784033320844 ], [ 1255249.034566706512123, 5542881.343784033320844 ], [ 1255249.034566706512123, 5542981.343784033320844 ] ] ] ] } },
{ "type": "Feature", "properties": { "id": 2948, "street_cells": 0.0, "yard_cells": 7600.6727195931599, "utility": 0.73947181276259599, "num_areas": 0.0 }, "geometry": { "type": "MultiPolygon", "coordinates": [ [ [ [ 1255349.034566706512123, 5542981.343784033320844 ], [ 1255449.034566706512123, 5542981.343784033320844 ], [ 1255449.034566706512123, 5542881.343784033320844 ], [ 1255349.034566706512123, 5542881.343784033320844 ], [ 1255349.034566706512123, 5542981.343784033320844 ] ] ] ] } },
{ "type": "Feature", "properties": { "id": 3098, "street_cells": 129.2631940200925, "yard_cells": 6135.903264910914, "utility": 0.79622775866665374, "num_areas": 0.0 }, "geometry": { "type": "MultiPolygon", "coordinates": [ [ [ [ 1255449.034566706512123, 5543881.343784033320844 ], [ 1255549.034566706512123, 5543881.343784033320844 ], [ 1255549.034566706512123, 5543781.343784033320844 ], [ 1255449.034566706512123, 5543781.343784033320844 ], [ 1255449.034566706512123, 5543881.343784033320844 ] ] ] ] } },
{ "type": "Feature", "properties": { "id": 3099, "street_cells": 0.0, "yard_cells": 5880.1117540299892, "utility": 0.79611709369178529, "num_areas": 0.0 }, "geometry": { "type": "MultiPolygon", "coordinates": [ [ [ [ 1255449.034566706512123, 5543781.343784033320844 ], [ 1255549.034566706512123, 5543781.343784033320844 ], [ 1255549.034566706512123, 5543681.343784033320844 ], [ 1255449.034566706512123, 5543681.343784033320844 ], [ 1255449.034566706512123, 5543781.343784033320844 ] ] ] ] } },
{ "type": "Feature", "properties": { "id": 3106, "street_cells": 122.5628733821213, "yard_cells": 8073.2486254048999, "utility": 1.0312623312925411, "num_areas": 0.0 }, "geometry": { "type": "MultiPolygon", "coordinates": [ [ [ [ 1255449.034566706512123, 5543081.343784033320844 ], [ 1255549.034566706512123, 5543081.343784033320844 ], [ 1255549.034566706512123, 5542981.343784033320844 ], [ 1255449.034566706512123, 5542981.343784033320844 ], [ 1255449.034566706512123, 5543081.343784033320844 ] ] ] ] } },
{ "type": "Feature", "properties": { "id": 3394, "street_cells": 295.62117975354198, "yard_cells": 4890.2566485975995, "utility": 0.83676391865029953, "num_areas": 0.0 }, "geometry": { "type": "MultiPolygon", "coordinates": [ [ [ [ 1255649.034566706512123, 5546081.343784033320844 ], [ 1255749.034566706512123, 5546081.343784033320844 ], [ 1255749.034566706512123, 5545981.343784033320844 ], [ 1255649.034566706512123, 5545981.343784033320844 ], [ 1255649.034566706512123, 5546081.343784033320844 ] ] ] ] } },
{ "type": "Feature", "properties": { "id": 5648, "street_cells": 42.84063957333565, "yard_cells": 4818.9085910456488, "utility": 0.71944360782205707, "num_areas": 1.0 }, "geometry": { "type": "MultiPolygon", "coordinates": [ [ [ [ 1257049.034566706512123, 5543281.343784033320844 ], [ 1257149.034566706512123, 5543281.343784033320844 ], [ 1257149.034566706512123, 5543181.343784033320844 ], [ 1257049.034566706512123, 5543181.343784033320844 ], [ 1257049.034566706512123, 5543281.343784033320844 ] ] ] ] } },
{ "type": "Feature", "properties": { "id": 5658, "street_cells": 686.21753507107496, "yard_cells": 4136.972523650853, "utility": 0.60746628710146655, "num_areas": 1.0 }, "geometry": { "type": "MultiPolygon", "coordinates": [ [ [ [ 1257049.034566706512123, 5542281.343784033320844 ], [ 1257149.034566706512123, 5542281.343784033320844 ], [ 1257149.034566706512123, 5542181.343784033320844 ], [ 1257049.034566706512123, 5542181.343784033320844 ], [ 1257049.034566706512123, 5542281.343784033320844 ] ] ] ] } },
{ "type": "Feature", "properties": { "id": 5960, "street_cells": 469.22495975792413, "yard_cells": 4691.6238505505034, "utility": 1.101248117434324, "num_areas": 0.0 }, "geometry": { "type": "MultiPolygon", "coordinates": [ [ [ [ 1257249.034566706512123, 5543881.343784033320844 ], [ 1257349.034566706512123, 5543881.343784033320844 ], [ 1257349.034566706512123, 5543781.343784033320844 ], [ 1257249.034566706512123, 5543781.343784033320844 ], [ 1257249.034566706512123, 5543881.343784033320844 ] ] ] ] } },
{ "type": "Feature", "properties": { "id": 6127, "street_cells": 406.22170518273492, "yard_cells": 4472.2657353903924, "utility": 1.016402578408919, "num_areas": 0.0 }, "geometry": { "type": "MultiPolygon", "coordinates": [ [ [ [ 1257349.034566706512123, 5543081.343784033320844 ], [ 1257449.034566706512123, 5543081.343784033320844 ], [ 1257449.034566706512123, 5542981.343784033320844 ], [ 1257349.034566706512123, 5542981.343784033320844 ], [ 1257349.034566706512123, 5543081.343784033320844 ] ] ] ] } },
{ "type": "Feature", "properties": { "id": 6131, "street_cells": 250.7028784029186, "yard_cells": 4673.7049348503351, "utility": 0.83393049245634288, "num_areas": 0.0 }, "geometry": { "type": "MultiPolygon", "coordinates": [ [ [ [ 1257349.034566706512123, 5542681.343784033320844 ], [ 1257449.034566706512123, 5542681.343784033320844 ], [ 1257449.034566706512123, 5542581.343784033320844 ], [ 1257349.034566706512123, 5542581.343784033320844 ], [ 1257349.034566706512123, 5542681.343784033320844 ] ] ] ] } },
{ "type": "Feature", "properties": { "id": 6272, "street_cells": 66.39607778079808, "yard_cells": 5672.5514054759406, "utility": 0.94932264946906852, "num_areas": 0.0 }, "geometry": { "type": "MultiPolygon", "coordinates": [ [ [ [ 1257449.034566706512123, 5544481.343784033320844 ], [ 1257549.034566706512123, 5544481.343784033320844 ], [ 1257549.034566706512123, 5544381.343784033320844 ], [ 1257449.034566706512123, 5544381.343784033320844 ], [ 1257449.034566706512123, 5544481.343784033320844 ] ] ] ] } },
{ "type": "Feature", "properties": { "id": 6287, "street_cells": 181.9261882595718, "yard_cells": 4716.9518900751718, "utility": 0.80687044303889177, "num_areas": 1.0 }, "geometry": { "type": "MultiPolygon", "coordinates": [ [ [ [ 1257449.034566706512123, 5542981.343784033320844 ], [ 1257549.034566706512123, 5542981.343784033320844 ], [ 1257549.034566706512123, 5542881.343784033320844 ], [ 1257449.034566706512123, 5542881.343784033320844 ], [ 1257449.034566706512123, 5542981.343784033320844 ] ] ] ] } },
{ "type": "Feature", "properties": { "id": 7390, "street_cells": 194.03376723900439, "yard_cells": 4691.5736868147496, "utility": 0.93674833813483982, "num_areas": 0.0 }, "geometry": { "type": "MultiPolygon", "coordinates": [ [ [ [ 1258149.034566706512123, 5543981.343784033320844 ], [ 1258249.034566706512123, 5543981.343784033320844 ], [ 1258249.034566706512123, 5543881.343784033320844 ], [ 1258149.034566706512123, 5543881.343784033320844 ], [ 1258149.034566706512123, 5543981.343784033320844 ] ] ] ] } },
{ "type": "Feature", "properties": { "id": 7871, "street_cells": 157.34959699511529, "yard_cells": 5169.4527223864015, "utility": 0.9734665408288804, "num_areas": 0.0 }, "geometry": { "type": "MultiPolygon", "coordinates": [ [ [ [ 1258449.034566706512123, 5543581.343784033320844 ], [ 1258549.034566706512123, 5543581.343784033320844 ], [ 1258549.034566706512123, 5543481.343784033320844 ], [ 1258449.034566706512123, 5543481.343784033320844 ], [ 1258449.034566706512123, 5543581.343784033320844 ] ] ] ] } },
{ "type": "Feature", "properties": { "id": 7892, "street_cells": 111.74546915441751, "yard_cells": 6067.0369234175341, "utility": 0.57424125578731167, "num_areas": 0.0 }, "geometry": { "type": "MultiPolygon", "coordinates": [ [ [ [ 1258449.034566706512123, 5541481.343784033320844 ], [ 1258549.034566706512123, 5541481.343784033320844 ], [ 1258549.034566706512123, 5541381.343784033320844 ], [ 1258449.034566706512123, 5541381.343784033320844 ], [ 1258449.034566706512123, 5541481.343784033320844 ] ] ] ] } },
{ "type": "Feature", "properties": { "id": 8051, "street_cells": 0.0, "yard_cells": 8539.2132212691722, "utility": 0.83395893421485445, "num_areas": 1.0 }, "geometry": { "type": "MultiPolygon", "coordinates": [ [ [ [ 1258549.034566706512123, 5541481.343784033320844 ], [ 1258649.034566706512123, 5541481.343784033320844 ], [ 1258649.034566706512123, 5541381.343784033320844 ], [ 1258549.034566706512123, 5541381.343784033320844 ], [ 1258549.034566706512123, 5541481.343784033320844 ] ] ] ] } },
{ "type": "Feature", "properties": { "id": 8508, "street_cells": 287.39793595746158, "yard_cells": 4503.6567931322788, "utility": 0.9774165820245202, "num_areas": 1.0 }, "geometry": { "type": "MultiPolygon", "coordinates": [ [ [ [ 1258849.034566706512123, 5543481.343784033320844 ], [ 1258949.034566706512123, 5543481.343784033320844 ], [ 1258949.034566706512123, 5543381.343784033320844 ], [ 1258849.034566706512123, 5543381.343784033320844 ], [ 1258849.034566706512123, 5543481.343784033320844 ] ] ] ] } },
{ "type": "Feature", "properties": { "id": 8690, "street_cells": 7.3075875650974922, "yard_cells": 5950.1983418870796, "utility": 0.53879235504973366, "num_areas": 0.0 }, "geometry": { "type": "MultiPolygon", "coordinates": [ [ [ [ 1258950.012188115157187, 5541181.343784033320844 ], [ 1259049.034566706512123, 5541181.343784033320844 ], [ 1259049.034566706512123, 5541081.343784033320844 ], [ 1258949.034566706512123, 5541081.343784033320844 ], [ 1258949.034566706512123, 5541180.230372873134911 ], [ 1258950.012188115157187, 5541181.343784033320844 ] ] ] ] } },
{ "type": "Feature", "properties": { "id": 9000, "street_cells": 431.42663938472981, "yard_cells": 4995.3746715120642, "utility": 0.84656728362485556, "num_areas": 0.0 }, "geometry": { "type": "MultiPolygon", "coordinates": [ [ [ [ 1259149.034566706512123, 5541981.343784033320844 ], [ 1259249.034566706512123, 5541981.343784033320844 ], [ 1259249.034566706512123, 5541881.343784033320844 ], [ 1259149.034566706512123, 5541881.343784033320844 ], [ 1259149.034566706512123, 5541981.343784033320844 ] ] ] ] } },
{ "type": "Feature", "properties": { "id": 9789, "street_cells": 391.16730992421509, "yard_cells": 4313.6058061392296, "utility": 1.018019220343588, "num_areas": 2.0 }, "geometry": { "type": "MultiPolygon", "coordinates": [ [ [ [ 1259649.034566706512123, 5542581.343784033320844 ], [ 1259749.034566706512123, 5542581.343784033320844 ], [ 1259749.034566706512123, 5542481.343784033320844 ], [ 1259649.034566706512123, 5542481.343784033320844 ], [ 1259649.034566706512123, 5542581.343784033320844 ] ] ] ] } },
{ "type": "Feature", "properties": { "id": 11685, "street_cells": 2.036853720992803, "yard_cells": 5633.6687829079747, "utility": 0.87953850699601366, "num_areas": 0.0 }, "geometry": { "type": "MultiPolygon", "coordinates": [ [ [ [ 1260849.034566706512123, 5543781.343784033320844 ], [ 1260949.034566706512123, 5543781.343784033320844 ], [ 1260949.034566706512123, 5543681.343784033320844 ], [ 1260849.034566706512123, 5543681.343784033320844 ], [ 1260849.034566706512123, 5543781.343784033320844 ] ] ] ] } },
{ "type": "Feature", "properties": { "id": 11844, "street_cells": 347.95987847559161, "yard_cells": 4269.6775070820004, "utility": 0.88313525063746323, "num_areas": 0.0 }, "geometry": { "type": "MultiPolygon", "coordinates": [ [ [ [ 1260949.034566706512123, 5543781.343784033320844 ], [ 1261049.034566706512123, 5543781.343784033320844 ], [ 1261049.034566706512123, 5543681.343784033320844 ], [ 1260949.034566706512123, 5543681.343784033320844 ], [ 1260949.034566706512123, 5543781.343784033320844 ] ] ] ] } },
{ "type": "Feature", "properties": { "id": 12001, "street_cells": 392.80244411304602, "yard_cells": 5050.6882660991287, "utility": 1.006035445591732, "num_areas": 1.0 }, "geometry": { "type": "MultiPolygon", "coordinates": [ [ [ [ 1261049.034566706512123, 5543981.343784033320844 ], [ 1261149.034566706512123, 5543981.343784033320844 ], [ 1261149.034566706512123, 5543881.343784033320844 ], [ 1261049.034566706512123, 5543881.343784033320844 ], [ 1261049.034566706512123, 5543981.343784033320844 ] ] ] ] } },
{ "type": "Feature", "properties": { "id": 12320, "street_cells": 354.16615974009039, "yard_cells": 4503.7011026973187, "utility": 0.94850245736667349, "num_areas": 3.0 }, "geometry": { "type": "MultiPolygon", "coordinates": [ [ [ [ 1261249.034566706512123, 5543881.343784033320844 ], [ 1261349.034566706512123, 5543881.343784033320844 ], [ 1261349.034566706512123, 5543781.343784033320844 ], [ 1261249.034566706512123, 5543781.343784033320844 ], [ 1261249.034566706512123, 5543881.343784033320844 ] ] ] ] } },
{ "type": "Feature", "properties": { "id": 12456, "street_cells": 319.3028553701472, "yard_cells": 4827.56723738648, "utility": 0.89186951208470289, "num_areas": 0.0 }, "geometry": { "type": "MultiPolygon", "coordinates": [ [ [ [ 1261349.034566706512123, 5546181.343784033320844 ], [ 1261449.034566706512123, 5546181.343784033320844 ], [ 1261449.034566706512123, 5546081.343784033320844 ], [ 1261349.034566706512123, 5546081.343784033320844 ], [ 1261349.034566706512123, 5546181.343784033320844 ] ] ] ] } },
{ "type": "Feature", "properties": { "id": 12619, "street_cells": 0.0, "yard_cells": 5097.0081500379456, "utility": 0.54576324443127566, "num_areas": 1.0 }, "geometry": { "type": "MultiPolygon", "coordinates": [ [ [ [ 1261449.034566706512123, 5545781.343784033320844 ], [ 1261549.034566706512123, 5545781.343784033320844 ], [ 1261549.034566706512123, 5545681.343784033320844 ], [ 1261449.034566706512123, 5545681.343784033320844 ], [ 1261449.034566706512123, 5545781.343784033320844 ] ] ] ] } },
{ "type": "Feature", "properties": { "id": 12955, "street_cells": 420.03392774909742, "yard_cells": 4436.5813984461129, "utility": 1.131672910679935, "num_areas": 0.0 }, "geometry": { "type": "MultiPolygon", "coordinates": [ [ [ [ 1261649.034566706512123, 5543981.343784033320844 ], [ 1261749.034566706512123, 5543981.343784033320844 ], [ 1261749.034566706512123, 5543881.343784033320844 ], [ 1261649.034566706512123, 5543881.343784033320844 ], [ 1261649.034566706512123, 5543981.343784033320844 ] ] ] ] } },
{ "type": "Feature", "properties": { "id": 13116, "street_cells": 398.82238749414682, "yard_cells": 4106.5190786896892, "utility": 0.88232948831686142, "num_areas": 0.0 }, "geometry": { "type": "MultiPolygon", "coordinates": [ [ [ [ 1261749.034566706512123, 5543781.343784033320844 ], [ 1261849.034566706512123, 5543781.343784033320844 ], [ 1261849.034566706512123, 5543681.343784033320844 ], [ 1261749.034566706512123, 5543681.343784033320844 ], [ 1261749.034566706512123, 5543781.343784033320844 ] ] ] ] } },
{ "type": "Feature", "properties": { "id": 13756, "street_cells": 0.0, "yard_cells": 4889.2083321157843, "utility": 0.75691581901230043, "num_areas": 0.0 }, "geometry": { "type": "MultiPolygon", "coordinates": [ [ [ [ 1262149.034566706512123, 5543381.343784033320844 ], [ 1262249.034566706512123, 5543381.343784033320844 ], [ 1262249.034566706512123, 5543281.343784033320844 ], [ 1262149.034566706512123, 5543281.343784033320844 ], [ 1262149.034566706512123, 5543381.343784033320844 ] ] ] ] } },
{ "type": "Feature", "properties": { "id": 14054, "street_cells": 0.0, "yard_cells": 6351.1158476867713, "utility": 1.0879932983090921, "num_areas": 0.0 }, "geometry": { "type": "MultiPolygon", "coordinates": [ [ [ [ 1262349.034566706512123, 5545381.343784033320844 ], [ 1262449.034566706512123, 5545381.343784033320844 ], [ 1262449.034566706512123, 5545281.343784033320844 ], [ 1262349.034566706512123, 5545281.343784033320844 ], [ 1262349.034566706512123, 5545381.343784033320844 ] ] ] ] } },
{ "type": "Feature", "properties": { "id": 14219, "street_cells": 439.86407599747179, "yard_cells": 4746.2319780716753, "utility": 0.78844830403027, "num_areas": 1.0 }, "geometry": { "type": "MultiPolygon", "coordinates": [ [ [ [ 1262449.034566706512123, 5544781.343784033320844 ], [ 1262549.034566706512123, 5544781.343784033320844 ], [ 1262549.034566706512123, 5544681.343784033320844 ], [ 1262449.034566706512123, 5544681.343784033320844 ], [ 1262449.034566706512123, 5544781.343784033320844 ] ] ] ] } },
{ "type": "Feature", "properties": { "id": 14233, "street_cells": 360.0273892251775, "yard_cells": 4623.4276258559621, "utility": 1.071432565655144, "num_areas": 1.0 }, "geometry": { "type": "MultiPolygon", "coordinates": [ [ [ [ 1262449.034566706512123, 5543381.343784033320844 ], [ 1262549.034566706512123, 5543381.343784033320844 ], [ 1262549.034566706512123, 5543281.343784033320844 ], [ 1262449.034566706512123, 5543281.343784033320844 ], [ 1262449.034566706512123, 5543381.343784033320844 ] ] ] ] } },
{ "type": "Feature", "properties": { "id": 15481, "street_cells": 298.77835048213598, "yard_cells": 4645.3295534255703, "utility": 1.0467421084390569, "num_areas": 1.0 }, "geometry": { "type": "MultiPolygon", "coordinates": [ [ [ [ 1263249.034566706512123, 5545781.343784033320844 ], [ 1263349.034566706512123, 5545781.343784033320844 ], [ 1263349.034566706512123, 5545681.343784033320844 ], [ 1263249.034566706512123, 5545681.343784033320844 ], [ 1263249.034566706512123, 5545781.343784033320844 ] ] ] ] } },
{ "type": "Feature", "properties": { "id": 15483, "street_cells": 0.0, "yard_cells": 5924.8242503711954, "utility": 1.1574521164490921, "num_areas": 0.0 }, "geometry": { "type": "MultiPolygon", "coordinates": [ [ [ [ 1263249.034566706512123, 5545581.343784033320844 ], [ 1263349.034566706512123, 5545581.343784033320844 ], [ 1263349.034566706512123, 5545481.343784033320844 ], [ 1263249.034566706512123, 5545481.343784033320844 ], [ 1263249.034566706512123, 5545581.343784033320844 ] ] ] ] } },
{ "type": "Feature", "properties": { "id": 15491, "street_cells": 44.849999828822916, "yard_cells": 5033.011056731455, "utility": 0.87825295525485481, "num_areas": 1.0 }, "geometry": { "type": "MultiPolygon", "coordinates": [ [ [ [ 1263249.034566706512123, 5544781.343784033320844 ], [ 1263349.034566706512123, 5544781.343784033320844 ], [ 1263349.034566706512123, 5544681.343784033320844 ], [ 1263249.034566706512123, 5544681.343784033320844 ], [ 1263249.034566706512123, 5544781.343784033320844 ] ] ] ] } },
{ "type": "Feature", "properties": { "id": 15640, "street_cells": 285.08639860264958, "yard_cells": 5241.3123961271558, "utility": 1.0343444495976899, "num_areas": 1.0 }, "geometry": { "type": "MultiPolygon", "coordinates": [ [ [ [ 1263349.034566706512123, 5545781.343784033320844 ], [ 1263449.034566706512123, 5545781.343784033320844 ], [ 1263449.034566706512123, 5545681.343784033320844 ], [ 1263349.034566706512123, 5545681.343784033320844 ], [ 1263349.034566706512123, 5545781.343784033320844 ] ] ] ] } },
{ "type": "Feature", "properties": { "id": 15923, "street_cells": 52.635097108129408, "yard_cells": 5153.7592564383522, "utility": 0.95203153038579014, "num_areas": 0.0 }, "geometry": { "type": "MultiPolygon", "coordinates": [ [ [ [ 1263549.034566706512123, 5549281.343784033320844 ], [ 1263649.034566706512123, 5549281.343784033320844 ], [ 1263649.034566706512123, 5549181.343784033320844 ], [ 1263549.034566706512123, 5549181.343784033320844 ], [ 1263549.034566706512123, 5549281.343784033320844 ] ] ] ] } },
{ "type": "Feature", "properties": { "id": 15937, "street_cells": 370.68863313198091, "yard_cells": 4585.8938657217659, "utility": 1.0104402972972619, "num_areas": 0.0 }, "geometry": { "type": "MultiPolygon", "coordinates": [ [ [ [ 1263549.034566706512123, 5547881.343784033320844 ], [ 1263649.034566706512123, 5547881.343784033320844 ], [ 1263649.034566706512123, 5547781.343784033320844 ], [ 1263549.034566706512123, 5547781.343784033320844 ], [ 1263549.034566706512123, 5547881.343784033320844 ] ] ] ] } },
{ "type": "Feature", "properties": { "id": 15978, "street_cells": 0.0, "yard_cells": 5603.4457935541868, "utility": 1.0705646440299781, "num_areas": 0.0 }, "geometry": { "type": "MultiPolygon", "coordinates": [ [ [ [ 1263549.034566706512123, 5543781.343784033320844 ], [ 1263649.034566706512123, 5543781.343784033320844 ], [ 1263649.034566706512123, 5543681.343784033320844 ], [ 1263549.034566706512123, 5543681.343784033320844 ], [ 1263549.034566706512123, 5543781.343784033320844 ] ] ] ] } },
{ "type": "Feature", "properties": { "id": 15979, "street_cells": 732.15261323191226, "yard_cells": 5187.4791655037552, "utility": 0.84044159886517933, "num_areas": 1.0 }, "geometry": { "type": "MultiPolygon", "coordinates": [ [ [ [ 1263549.034566706512123, 5543681.343784033320844 ], [ 1263649.034566706512123, 5543681.343784033320844 ], [ 1263649.034566706512123, 5543581.343784033320844 ], [ 1263549.034566706512123, 5543581.343784033320844 ], [ 1263549.034566706512123, 5543681.343784033320844 ] ] ] ] } },
{ "type": "Feature", "properties": { "id": 16076, "street_cells": 81.390625358233237, "yard_cells": 6086.9394750226056, "utility": 0.78234360754160814, "num_areas": 0.0 }, "geometry": { "type": "MultiPolygon", "coordinates": [ [ [ [ 1263649.034566706512123, 5549881.343784033320844 ], [ 1263749.034566706512123, 5549881.343784033320844 ], [ 1263749.034566706512123, 5549781.343784033320844 ], [ 1263649.034566706512123, 5549781.343784033320844 ], [ 1263649.034566706512123, 5549881.343784033320844 ] ] ] ] } },
{ "type": "Feature", "properties": { "id": 16095, "street_cells": 613.2055448234081, "yard_cells": 4613.9539346420206, "utility": 0.99145087562050094, "num_areas": 0.0 }, "geometry": { "type": "MultiPolygon", "coordinates": [ [ [ [ 1263649.034566706512123, 5547981.343784033320844 ], [ 1263749.034566706512123, 5547981.343784033320844 ], [ 1263749.034566706512123, 5547881.343784033320844 ], [ 1263649.034566706512123, 5547881.343784033320844 ], [ 1263649.034566706512123, 5547981.343784033320844 ] ] ] ] } },
{ "type": "Feature", "properties": { "id": 16113, "street_cells": 218.65239908099181, "yard_cells": 4759.9477744509932, "utility": 0.91726824565848297, "num_areas": 2.0 }, "geometry": { "type": "MultiPolygon", "coordinates": [ [ [ [ 1263649.034566706512123, 5546181.343784033320844 ], [ 1263749.034566706512123, 5546181.343784033320844 ], [ 1263749.034566706512123, 5546081.343784033320844 ], [ 1263649.034566706512123, 5546081.343784033320844 ], [ 1263649.034566706512123, 5546181.343784033320844 ] ] ] ] } },
{ "type": "Feature", "properties": { "id": 16137, "street_cells": 168.62465070784091, "yard_cells": 4610.8284833878861, "utility": 1.0006333404087511, "num_areas": 0.0 }, "geometry": { "type": "MultiPolygon", "coordinates": [ [ [ [ 1263649.034566706512123, 5543781.343784033320844 ], [ 1263749.034566706512123, 5543781.343784033320844 ], [ 1263749.034566706512123, 5543681.343784033320844 ], [ 1263649.034566706512123, 5543681.343784033320844 ], [ 1263649.034566706512123, 5543781.343784033320844 ] ] ] ] } },
{ "type": "Feature", "properties": { "id": 16271, "street_cells": 98.362333324551585, "yard_cells": 6106.6756988475099, "utility": 1.0588911289534, "num_areas": 0.0 }, "geometry": { "type": "MultiPolygon", "coordinates": [ [ [ [ 1263749.034566706512123, 5546281.343784033320844 ], [ 1263849.034566706512123, 5546281.343784033320844 ], [ 1263849.034566706512123, 5546181.343784033320844 ], [ 1263749.034566706512123, 5546181.343784033320844 ], [ 1263749.034566706512123, 5546281.343784033320844 ] ] ] ] } },
{ "type": "Feature", "properties": { "id": 16274, "street_cells": 385.83039495199921, "yard_cells": 4784.0205503366888, "utility": 1.085212496572395, "num_areas": 0.0 }, "geometry": { "type": "MultiPolygon", "coordinates": [ [ [ [ 1263749.034566706512123, 5545981.343784033320844 ], [ 1263849.034566706512123, 5545981.343784033320844 ], [ 1263849.034566706512123, 5545881.343784033320844 ], [ 1263749.034566706512123, 5545881.343784033320844 ], [ 1263749.034566706512123, 5545981.343784033320844 ] ] ] ] } },
{ "type": "Feature", "properties": { "id": 16300, "street_cells": 0.0, "yard_cells": 5292.0143771898001, "utility": 1.0964158873873751, "num_areas": 0.0 }, "geometry": { "type": "MultiPolygon", "coordinates": [ [ [ [ 1263749.034566706512123, 5543381.343784033320844 ], [ 1263849.034566706512123, 5543381.343784033320844 ], [ 1263849.034566706512123, 5543281.343784033320844 ], [ 1263749.034566706512123, 5543281.343784033320844 ], [ 1263749.034566706512123, 5543381.343784033320844 ] ] ] ] } },
{ "type": "Feature", "properties": { "id": 16446, "street_cells": 258.4470125362277, "yard_cells": 4984.0696221873332, "utility": 0.98704818677681216, "num_areas": 0.0 }, "geometry": { "type": "MultiPolygon", "coordinates": [ [ [ [ 1263849.034566706512123, 5544681.343784033320844 ], [ 1263949.034566706512123, 5544681.343784033320844 ], [ 1263949.034566706512123, 5544581.343784033320844 ], [ 1263849.034566706512123, 5544581.343784033320844 ], [ 1263849.034566706512123, 5544681.343784033320844 ] ] ] ] } },
{ "type": "Feature", "properties": { "id": 16750, "street_cells": 342.02595155537131, "yard_cells": 5259.0325151248844, "utility": 0.99432830467398148, "num_areas": 1.0 }, "geometry": { "type": "MultiPolygon", "coordinates": [ [ [ [ 1264049.034566706512123, 5546081.343784033320844 ], [ 1264149.034566706512123, 5546081.343784033320844 ], [ 1264149.034566706512123, 5545981.343784033320844 ], [ 1264049.034566706512123, 5545981.343784033320844 ], [ 1264049.034566706512123, 5546081.343784033320844 ] ] ] ] } },
{ "type": "Feature", "properties": { "id": 16927, "street_cells": 64.424480557069188, "yard_cells": 5267.9026477793632, "utility": 0.96482913894746658, "num_areas": 1.0 }, "geometry": { "type": "MultiPolygon", "coordinates": [ [ [ [ 1264149.034566706512123, 5544281.343784033320844 ], [ 1264249.034566706512123, 5544281.343784033320844 ], [ 1264249.034566706512123, 5544181.343784033320844 ], [ 1264149.034566706512123, 5544181.343784033320844 ], [ 1264149.034566706512123, 5544281.343784033320844 ] ] ] ] } },
{ "type": "Feature", "properties": { "id": 17575, "street_cells": 239.02557624131441, "yard_cells": 4662.1681776797632, "utility": 0.83850851636058732, "num_areas": 0.0 }, "geometry": { "type": "MultiPolygon", "coordinates": [ [ [ [ 1264549.034566706512123, 5543081.343784033320844 ], [ 1264649.034566706512123, 5543081.343784033320844 ], [ 1264649.034566706512123, 5542981.343784033320844 ], [ 1264549.034566706512123, 5542981.343784033320844 ], [ 1264549.034566706512123, 5543081.343784033320844 ] ] ] ] } },
{ "type": "Feature", "properties": { "id": 17578, "street_cells": 325.40485727488999, "yard_cells": 5177.8352869767696, "utility": 0.91710208213723232, "num_areas": 0.0 }, "geometry": { "type": "MultiPolygon", "coordinates": [ [ [ [ 1264549.034566706512123, 5542781.343784033320844 ], [ 1264649.034566706512123, 5542781.343784033320844 ], [ 1264649.034566706512123, 5542681.343784033320844 ], [ 1264549.034566706512123, 5542681.343784033320844 ], [ 1264549.034566706512123, 5542781.343784033320844 ] ] ] ] } },
{ "type": "Feature", "properties": { "id": 18045, "street_cells": 102.2856218669564, "yard_cells": 4921.4808836719021, "utility": 0.99615236552191189, "num_areas": 0.0 }, "geometry": { "type": "MultiPolygon", "coordinates": [ [ [ [ 1264849.034566706512123, 5543781.343784033320844 ], [ 1264949.034566706512123, 5543781.343784033320844 ], [ 1264949.034566706512123, 5543681.343784033320844 ], [ 1264849.034566706512123, 5543681.343784033320844 ], [ 1264849.034566706512123, 5543781.343784033320844 ] ] ] ] } },
{ "type": "Feature", "properties": { "id": 19184, "street_cells": 239.66862864196301, "yard_cells": 5304.0008095055819, "utility": 0.71858870830721844, "num_areas": 0.0 }, "geometry": { "type": "MultiPolygon", "coordinates": [ [ [ [ 1265549.034566706512123, 5541181.343784033320844 ], [ 1265649.034566706512123, 5541181.343784033320844 ], [ 1265649.034566706512123, 5541081.343784033320844 ], [ 1265549.034566706512123, 5541081.343784033320844 ], [ 1265549.034566706512123, 5541181.343784033320844 ] ] ] ] } },
{ "type": "Feature", "properties": { "id": 19498, "street_cells": 2.689874032139778, "yard_cells": 6047.263721998781, "utility": 0.9794097251834456, "num_areas": 0.0 }, "geometry": { "type": "MultiPolygon", "coordinates": [ [ [ [ 1265749.034566706512123, 5541581.343784033320844 ], [ 1265849.034566706512123, 5541581.343784033320844 ], [ 1265849.034566706512123, 5541481.343784033320844 ], [ 1265749.034566706512123, 5541481.343784033320844 ], [ 1265749.034566706512123, 5541581.343784033320844 ] ] ] ] } },
{ "type": "Feature", "properties": { "id": 19504, "street_cells": 0.0, "yard_cells": 6084.0324303353718, "utility": 1.0671026486513051, "num_areas": 0.0 }, "geometry": { "type": "MultiPolygon", "coordinates": [ [ [ [ 1265749.034566706512123, 5540981.343784033320844 ], [ 1265849.034566706512123, 5540981.343784033320844 ], [ 1265849.034566706512123, 5540881.343784033320844 ], [ 1265749.034566706512123, 5540881.343784033320844 ], [ 1265749.034566706512123, 5540981.343784033320844 ] ] ] ] } },
{ "type": "Feature", "properties": { "id": 19526, "street_cells": 86.181150563061237, "yard_cells": 5611.1835784951854, "utility": 0.93145527696442931, "num_areas": 1.0 }, "geometry": { "type": "MultiPolygon", "coordinates": [ [ [ [ 1265749.034566706512123, 5538687.034894553944468 ], [ 1265749.034566706512123, 5538781.343784033320844 ], [ 1265849.034566706512123, 5538781.343784033320844 ], [ 1265849.034566706512123, 5538681.343784033320844 ], [ 1265752.434265846852213, 5538681.343784033320844 ], [ 1265749.034566706512123, 5538687.034894553944468 ] ] ] ] } },
{ "type": "Feature", "properties": { "id": 19631, "street_cells": 203.9871448593214, "yard_cells": 5030.8634181814268, "utility": 0.94448840767374476, "num_areas": 0.0 }, "geometry": { "type": "MultiPolygon", "coordinates": [ [ [ [ 1265849.034566706512123, 5544181.343784033320844 ], [ 1265949.034566706512123, 5544181.343784033320844 ], [ 1265949.034566706512123, 5544081.343784033320844 ], [ 1265849.034566706512123, 5544081.343784033320844 ], [ 1265849.034566706512123, 5544181.343784033320844 ] ] ] ] } },
{ "type": "Feature", "properties": { "id": 19675, "street_cells": 237.33096101582049, "yard_cells": 4757.0810152050108, "utility": 0.97091592874183974, "num_areas": 0.0 }, "geometry": { "type": "MultiPolygon", "coordinates": [ [ [ [ 1265849.034566706512123, 5539781.343784033320844 ], [ 1265949.034566706512123, 5539781.343784033320844 ], [ 1265949.034566706512123, 5539681.343784033320844 ], [ 1265849.034566706512123, 5539681.343784033320844 ], [ 1265849.034566706512123, 5539781.343784033320844 ] ] ] ] } },
{ "type": "Feature", "properties": { "id": 19687, "street_cells": 160.89318906776609, "yard_cells": 5531.1198988528922, "utility": 0.91217531228886728, "num_areas": 0.0 }, "geometry": { "type": "MultiPolygon", "coordinates": [ [ [ [ 1265849.034566706512123, 5538581.343784033320844 ], [ 1265949.034566706512123, 5538581.343784033320844 ], [ 1265949.034566706512123, 5538481.343784033320844 ], [ 1265849.034566706512123, 5538481.343784033320844 ], [ 1265849.034566706512123, 5538581.343784033320844 ] ] ] ] } },
{ "type": "Feature", "properties": { "id": 19817, "street_cells": 17.14005324691534, "yard_cells": 5343.5231939997757, "utility": 0.92557368010584606, "num_areas": 1.0 }, "geometry": { "type": "MultiPolygon", "coordinates": [ [ [ [ 1265949.034566706512123, 5541481.343784033320844 ], [ 1266049.034566706512123, 5541481.343784033320844 ], [ 1266049.034566706512123, 5541381.343784033320844 ], [ 1265949.034566706512123, 5541381.343784033320844 ], [ 1265949.034566706512123, 5541481.343784033320844 ] ] ] ] } },
{ "type": "Feature", "properties": { "id": 19846, "street_cells": 353.34486205093572, "yard_cells": 5548.9911384615116, "utility": 0.97327440464776527, "num_areas": 0.0 }, "geometry": { "type": "MultiPolygon", "coordinates": [ [ [ [ 1265949.034566706512123, 5538581.343784033320844 ], [ 1266049.034566706512123, 5538581.343784033320844 ], [ 1266049.034566706512123, 5538481.343784033320844 ], [ 1265949.034566706512123, 5538481.343784033320844 ], [ 1265949.034566706512123, 5538581.343784033320844 ] ] ] ] } },
{ "type": "Feature", "properties": { "id": 20011, "street_cells": 186.73449331186711, "yard_cells": 5469.198301845463, "utility": 0.95494514708736145, "num_areas": 0.0 }, "geometry": { "type": "MultiPolygon", "coordinates": [ [ [ [ 1266049.034566706512123, 5537981.343784033320844 ], [ 1266149.034566706512123, 5537981.343784033320844 ], [ 1266149.034566706512123, 5537881.343784033320844 ], [ 1266049.034566706512123, 5537881.343784033320844 ], [ 1266049.034566706512123, 5537981.343784033320844 ] ] ] ] } },
{ "type": "Feature", "properties": { "id": 20116, "street_cells": 405.52240374088291, "yard_cells": 4573.2963979057968, "utility": 0.86807570607225604, "num_areas": 0.0 }, "geometry": { "type": "MultiPolygon", "coordinates": [ [ [ [ 1266149.034566706512123, 5543381.343784033320844 ], [ 1266249.034566706512123, 5543381.343784033320844 ], [ 1266249.034566706512123, 5543281.343784033320844 ], [ 1266149.034566706512123, 5543281.343784033320844 ], [ 1266149.034566706512123, 5543381.343784033320844 ] ] ] ] } },
{ "type": "Feature", "properties": { "id": 20157, "street_cells": 398.08790247887367, "yard_cells": 4665.5144264637493, "utility": 0.96479933480752011, "num_areas": 0.0 }, "geometry": { "type": "MultiPolygon", "coordinates": [ [ [ [ 1266149.034566706512123, 5539281.343784033320844 ], [ 1266249.034566706512123, 5539281.343784033320844 ], [ 1266249.034566706512123, 5539181.343784033320844 ], [ 1266149.034566706512123, 5539181.343784033320844 ], [ 1266149.034566706512123, 5539281.343784033320844 ] ] ] ] } },
{ "type": "Feature", "properties": { "id": 20316, "street_cells": 76.873986503761273, "yard_cells": 5002.0070006772876, "utility": 0.81753137536033327, "num_areas": 0.0 }, "geometry": { "type": "MultiPolygon", "coordinates": [ [ [ [ 1266249.034566706512123, 5539281.343784033320844 ], [ 1266349.034566706512123, 5539281.343784033320844 ], [ 1266349.034566706512123, 5539181.343784033320844 ], [ 1266249.034566706512123, 5539181.343784033320844 ], [ 1266249.034566706512123, 5539281.343784033320844 ] ] ] ] } },
{ "type": "Feature", "properties": { "id": 20620, "street_cells": 197.73974210172889, "yard_cells": 5129.848033968894, "utility": 0.81301265391331257, "num_areas": 0.0 }, "geometry": { "type": "MultiPolygon", "coordinates": [ [ [ [ 1266449.034566706512123, 5540681.343784033320844 ], [ 1266549.034566706512123, 5540681.343784033320844 ], [ 1266549.034566706512123, 5540581.343784033320844 ], [ 1266449.034566706512123, 5540581.343784033320844 ], [ 1266449.034566706512123, 5540681.343784033320844 ] ] ] ] } },
{ "type": "Feature", "properties": { "id": 20811, "street_cells": 51.85118915289641, "yard_cells": 5830.8957028184086, "utility": 0.66434375393363321, "num_areas": 1.0 }, "geometry": { "type": "MultiPolygon", "coordinates": [ [ [ [ 1266549.034566706512123, 5537481.343784033320844 ], [ 1266649.034566706512123, 5537481.343784033320844 ], [ 1266649.034566706512123, 5537381.343784033320844 ], [ 1266549.034566706512123, 5537381.343784033320844 ], [ 1266549.034566706512123, 5537481.343784033320844 ] ] ] ] } },
{ "type": "Feature", "properties": { "id": 20816, "street_cells": 130.75493516661231, "yard_cells": 6004.332790393848, "utility": 0.62264950583549283, "num_areas": 0.0 }, "geometry": { "type": "MultiPolygon", "coordinates": [ [ [ [ 1266642.385641937144101, 5536882.034575785510242 ], [ 1266641.4034004942514, 5536881.361196899786592 ], [ 1266641.377703078556806, 5536881.343784033320844 ], [ 1266549.034566706512123, 5536881.343784033320844 ], [ 1266549.034566706512123, 5536981.343784033320844 ], [ 1266649.034566706512123, 5536981.343784033320844 ], [ 1266649.034566706512123, 5536882.094918382354081 ], [ 1266642.385641937144101, 5536882.034575785510242 ] ] ] ] } },
{ "type": "Feature", "properties": { "id": 20954, "street_cells": 63.054135034978387, "yard_cells": 6250.9698437964544, "utility": 0.87340342975539342, "num_areas": 0.0 }, "geometry": { "type": "MultiPolygon", "coordinates": [ [ [ [ 1266649.034566706512123, 5539081.343784033320844 ], [ 1266749.034566706512123, 5539081.343784033320844 ], [ 1266749.034566706512123, 5538981.343784033320844 ], [ 1266649.034566706512123, 5538981.343784033320844 ], [ 1266649.034566706512123, 5539081.343784033320844 ] ] ] ] } },
{ "type": "Feature", "properties": { "id": 21105, "street_cells": 410.31305187175752, "yard_cells": 4927.360329084564, "utility": 1.0613288933576579, "num_areas": 0.0 }, "geometry": { "type": "MultiPolygon", "coordinates": [ [ [ [ 1266749.034566706512123, 5539881.343784033320844 ], [ 1266849.034566706512123, 5539881.343784033320844 ], [ 1266849.034566706512123, 5539781.343784033320844 ], [ 1266749.034566706512123, 5539781.343784033320844 ], [ 1266749.034566706512123, 5539881.343784033320844 ] ] ] ] } },
{ "type": "Feature", "properties": { "id": 21113, "street_cells": 88.551796498894703, "yard_cells": 4722.670635862276, "utility": 0.63628510815926376, "num_areas": 1.0 }, "geometry": { "type": "MultiPolygon", "coordinates": [ [ [ [ 1266749.034566706512123, 5539081.343784033320844 ], [ 1266849.034566706512123, 5539081.343784033320844 ], [ 1266849.034566706512123, 5538981.343784033320844 ], [ 1266749.034566706512123, 5538981.343784033320844 ], [ 1266749.034566706512123, 5539081.343784033320844 ] ] ] ] } },
{ "type": "Feature", "properties": { "id": 21133, "street_cells": 329.6650426357985, "yard_cells": 5797.3144633388147, "utility": 0.71868774512555433, "num_areas": 0.0 }, "geometry": { "type": "MultiPolygon", "coordinates": [ [ [ [ 1266749.034566706512123, 5537081.343784033320844 ], [ 1266849.034566706512123, 5537081.343784033320844 ], [ 1266849.034566706512123, 5536981.343784033320844 ], [ 1266749.034566706512123, 5536981.343784033320844 ], [ 1266749.034566706512123, 5537081.343784033320844 ] ] ] ] } },
{ "type": "Feature", "properties": { "id": 21236, "street_cells": 166.48388651162389, "yard_cells": 7087.8723481572233, "utility": 0.8513778369204188, "num_areas": 0.0 }, "geometry": { "type": "MultiPolygon", "coordinates": [ [ [ [ 1266849.034566706512123, 5542681.343784033320844 ], [ 1266949.034566706512123, 5542681.343784033320844 ], [ 1266949.034566706512123, 5542581.343784033320844 ], [ 1266849.034566706512123, 5542581.343784033320844 ], [ 1266849.034566706512123, 5542681.343784033320844 ] ] ] ] } },
{ "type": "Feature", "properties": { "id": 21581, "street_cells": 387.23632563613359, "yard_cells": 4578.2422373865274, "utility": 0.98619186075003418, "num_areas": 0.0 }, "geometry": { "type": "MultiPolygon", "coordinates": [ [ [ [ 1267049.034566706512123, 5539981.343784033320844 ], [ 1267149.034566706512123, 5539981.343784033320844 ], [ 1267149.034566706512123, 5539881.343784033320844 ], [ 1267049.034566706512123, 5539881.343784033320844 ], [ 1267049.034566706512123, 5539981.343784033320844 ] ] ] ] } },
{ "type": "Feature", "properties": { "id": 21588, "street_cells": 382.48125309571628, "yard_cells": 4492.831018535886, "utility": 0.93371051639563518, "num_areas": 0.0 }, "geometry": { "type": "MultiPolygon", "coordinates": [ [ [ [ 1267049.034566706512123, 5539281.343784033320844 ], [ 1267149.034566706512123, 5539281.343784033320844 ], [ 1267149.034566706512123, 5539181.343784033320844 ], [ 1267049.034566706512123, 5539181.343784033320844 ], [ 1267049.034566706512123, 5539281.343784033320844 ] ] ] ] } },
{ "type": "Feature", "properties": { "id": 21741, "street_cells": 372.95016006529329, "yard_cells": 4514.1450785961933, "utility": 1.0125807354651459, "num_areas": 0.0 }, "geometry": { "type": "MultiPolygon", "coordinates": [ [ [ [ 1267149.034566706512123, 5539881.343784033320844 ], [ 1267249.034566706512123, 5539881.343784033320844 ], [ 1267249.034566706512123, 5539781.343784033320844 ], [ 1267149.034566706512123, 5539781.343784033320844 ], [ 1267149.034566706512123, 5539881.343784033320844 ] ] ] ] } },
{ "type": "Feature", "properties": { "id": 21901, "street_cells": 451.28774762153631, "yard_cells": 4348.6233609674673, "utility": 0.98094216184736205, "num_areas": 0.0 }, "geometry": { "type": "MultiPolygon", "coordinates": [ [ [ [ 1267249.034566706512123, 5539781.343784033320844 ], [ 1267349.034566706512123, 5539781.343784033320844 ], [ 1267349.034566706512123, 5539681.343784033320844 ], [ 1267249.034566706512123, 5539681.343784033320844 ], [ 1267249.034566706512123, 5539781.343784033320844 ] ] ] ] } },
{ "type": "Feature", "properties": { "id": 21907, "street_cells": 421.37787138968707, "yard_cells": 4340.0818873234093, "utility": 1.021940199350156, "num_areas": 0.0 }, "geometry": { "type": "MultiPolygon", "coordinates": [ [ [ [ 1267249.034566706512123, 5539181.343784033320844 ], [ 1267349.034566706512123, 5539181.343784033320844 ], [ 1267349.034566706512123, 5539081.343784033320844 ], [ 1267249.034566706512123, 5539081.343784033320844 ], [ 1267249.034566706512123, 5539181.343784033320844 ] ] ] ] } },
{ "type": "Feature", "properties": { "id": 22226, "street_cells": 278.40787494089449, "yard_cells": 4820.1514186765999, "utility": 1.063326117826209, "num_areas": 0.0 }, "geometry": { "type": "MultiPolygon", "coordinates": [ [ [ [ 1267449.034566706512123, 5539081.343784033320844 ], [ 1267549.034566706512123, 5539081.343784033320844 ], [ 1267549.034566706512123, 5538981.343784033320844 ], [ 1267449.034566706512123, 5538981.343784033320844 ], [ 1267449.034566706512123, 5539081.343784033320844 ] ] ] ] } },
{ "type": "Feature", "properties": { "id": 22325, "street_cells": 309.00137211382389, "yard_cells": 5271.5795891173184, "utility": 0.53822698087868404, "num_areas": 0.0 }, "geometry": { "type": "MultiPolygon", "coordinates": [ [ [ [ 1267549.034566706512123, 5545081.343784033320844 ], [ 1267649.034566706512123, 5545081.343784033320844 ], [ 1267649.034566706512123, 5544981.343784033320844 ], [ 1267549.034566706512123, 5544981.343784033320844 ], [ 1267549.034566706512123, 5545081.343784033320844 ] ] ] ] } },
{ "type": "Feature", "properties": { "id": 22379, "street_cells": 203.87185742631559, "yard_cells": 5131.3929288961881, "utility": 0.79526818071024841, "num_areas": 0.0 }, "geometry": { "type": "MultiPolygon", "coordinates": [ [ [ [ 1267549.034566706512123, 5539681.343784033320844 ], [ 1267649.034566706512123, 5539681.343784033320844 ], [ 1267649.034566706512123, 5539581.343784033320844 ], [ 1267549.034566706512123, 5539581.343784033320844 ], [ 1267549.034566706512123, 5539681.343784033320844 ] ] ] ] } },
{ "type": "Feature", "properties": { "id": 22847, "street_cells": 25.216609269380569, "yard_cells": 6181.6371284079087, "utility": 0.71500943612815748, "num_areas": 3.0 }, "geometry": { "type": "MultiPolygon", "coordinates": [ [ [ [ 1267849.034566706512123, 5540581.343784033320844 ], [ 1267949.034566706512123, 5540581.343784033320844 ], [ 1267949.034566706512123, 5540481.343784033320844 ], [ 1267849.034566706512123, 5540481.343784033320844 ], [ 1267849.034566706512123, 5540581.343784033320844 ] ] ] ] } },
{ "type": "Feature", "properties": { "id": 23659, "street_cells": 22.884208333492278, "yard_cells": 5847.4888360901969, "utility": 0.73267785413050524, "num_areas": 0.0 }, "geometry": { "type": "MultiPolygon", "coordinates": [ [ [ [ 1268349.034566706512123, 5538881.343784033320844 ], [ 1268449.034566706512123, 5538881.343784033320844 ], [ 1268449.034566706512123, 5538781.343784033320844 ], [ 1268349.034566706512123, 5538781.343784033320844 ], [ 1268349.034566706512123, 5538881.343784033320844 ] ] ] ] } },
{ "type": "Feature", "properties": { "id": 23771, "street_cells": 36.247905880212777, "yard_cells": 5264.309234178625, "utility": 0.82768480977550907, "num_areas": 0.0 }, "geometry": { "type": "MultiPolygon", "coordinates": [ [ [ [ 1268449.034566706512123, 5543581.343784033320844 ], [ 1268549.034566706512123, 5543581.343784033320844 ], [ 1268549.034566706512123, 5543481.343784033320844 ], [ 1268449.034566706512123, 5543481.343784033320844 ], [ 1268449.034566706512123, 5543581.343784033320844 ] ] ] ] } },
{ "type": "Feature", "properties": { "id": 23930, "street_cells": 403.86855466142299, "yard_cells": 5390.4229854245277, "utility": 0.88767949881141417, "num_areas": 2.0 }, "geometry": { "type": "MultiPolygon", "coordinates": [ [ [ [ 1268549.034566706512123, 5543581.343784033320844 ], [ 1268649.034566706512123, 5543581.343784033320844 ], [ 1268649.034566706512123, 5543481.343784033320844 ], [ 1268549.034566706512123, 5543481.343784033320844 ], [ 1268549.034566706512123, 5543581.343784033320844 ] ] ] ] } },
{ "type": "Feature", "properties": { "id": 24261, "street_cells": 262.90037349909551, "yard_cells": 4982.6655507262331, "utility": 0.42975162208821788, "num_areas": 4.0 }, "geometry": { "type": "MultiPolygon", "coordinates": [ [ [ [ 1268749.034566706512123, 5542281.343784033320844 ], [ 1268849.034566706512123, 5542281.343784033320844 ], [ 1268849.034566706512123, 5542181.343784033320844 ], [ 1268749.034566706512123, 5542181.343784033320844 ], [ 1268749.034566706512123, 5542281.343784033320844 ] ] ] ] } },
{ "type": "Feature", "properties": { "id": 25055, "street_cells": 405.65131325200201, "yard_cells": 5699.9746062643826, "utility": 0.94182338332187576, "num_areas": 0.0 }, "geometry": { "type": "MultiPolygon", "coordinates": [ [ [ [ 1269249.034566706512123, 5542381.343784033320844 ], [ 1269349.034566706512123, 5542381.343784033320844 ], [ 1269349.034566706512123, 5542281.343784033320844 ], [ 1269249.034566706512123, 5542281.343784033320844 ], [ 1269249.034566706512123, 5542381.343784033320844 ] ] ] ] } },
{ "type": "Feature", "properties": { "id": 25703, "street_cells": 135.3512080207467, "yard_cells": 5217.9668658589944, "utility": 0.93645458491183753, "num_areas": 0.0 }, "geometry": { "type": "MultiPolygon", "coordinates": [ [ [ [ 1269722.840282435528934, 5541154.313003056682646 ], [ 1269745.01568117341958, 5541146.159186707809567 ], [ 1269749.034566706512123, 5541144.455984814092517 ], [ 1269749.034566706512123, 5541081.343784033320844 ], [ 1269649.034566706512123, 5541081.343784033320844 ], [ 1269649.034566706512123, 5541181.343784033320844 ], [ 1269657.656470290385187, 5541181.343784033320844 ], [ 1269722.840282435528934, 5541154.313003056682646 ] ] ] ] } },
{ "type": "Feature", "properties": { "id": 26659, "street_cells": 194.83976573720579, "yard_cells": 5121.5098157626053, "utility": 0.91929194769205835, "num_areas": 0.0 }, "geometry": { "type": "MultiPolygon", "coordinates": [ [ [ [ 1270302.317869324004278, 5540892.808076760731637 ], [ 1270308.040328935720026, 5540890.271688754670322 ], [ 1270328.023470380343497, 5540881.343784033320844 ], [ 1270249.034566706512123, 5540881.343784033320844 ], [ 1270249.034566706512123, 5540981.343784033320844 ], [ 1270346.481167370453477, 5540981.343784033320844 ], [ 1270302.317869324004278, 5540892.808076760731637 ] ] ] ] } },
{ "type": "Feature", "properties": { "id": 26819, "street_cells": 119.9642244094284, "yard_cells": 5315.4781482988037, "utility": 0.96047729989444275, "num_areas": 0.0 }, "geometry": { "type": "MultiPolygon", "coordinates": [ [ [ [ 1270436.532205266179517, 5540832.865137711167336 ], [ 1270436.580200990429148, 5540832.844700532965362 ], [ 1270438.931611831532791, 5540831.793484089896083 ], [ 1270449.034566706512123, 5540827.487463670782745 ], [ 1270449.034566706512123, 5540781.343784033320844 ], [ 1270349.034566706512123, 5540781.343784033320844 ], [ 1270349.034566706512123, 5540871.956618025898933 ], [ 1270436.532205266179517, 5540832.865137711167336 ] ] ] ] } },
{ "type": "Feature", "properties": { "id": 26820, "street_cells": 0.0, "yard_cells": 6424.2059857100248, "utility": 1.091378911976467, "num_areas": 0.0 }, "geometry": { "type": "MultiPolygon", "coordinates": [ [ [ [ 1270349.034566706512123, 5540781.343784033320844 ], [ 1270449.034566706512123, 5540781.343784033320844 ], [ 1270449.034566706512123, 5540681.343784033320844 ], [ 1270349.034566706512123, 5540681.343784033320844 ], [ 1270349.034566706512123, 5540781.343784033320844 ] ] ] ] } }
]
}
