{
"type": "FeatureCollection",
"name": "no_street",
"crs": { "type": "name", "properties": { "name": "urn:ogc:def:crs:EPSG::3857" } },
"features": [
{ "type": "Feature", "properties": { "id": 367, "street_cells": 0.0, "yard_cells": 5782.7660910412669, "utility": 0.43202392583232518, "num_areas": 0.0 }, "geometry": { "type": "MultiPolygon", "coordinates": [ [ [ [ 1253749.034566706512123, 5546681.343784033320844 ], [ 1253849.034566706512123, 5546681.343784033320844 ], [ 1253849.034566706512123, 5546581.343784033320844 ], [ 1253749.034566706512123, 5546581.343784033320844 ], [ 1253749.034566706512123, 5546681.343784033320844 ] ] ] ] } },
{ "type": "Feature", "properties": { "id": 1482, "street_cells": 0.0, "yard_cells": 5716.0411629294977, "utility": 0.39802390065416371, "num_areas": 0.0 }, "geometry": { "type": "MultiPolygon", "coordinates": [ [ [ [ 1254449.034566706512123, 5546481.343784033320844 ], [ 1254549.034566706512123, 5546481.343784033320844 ], [ 1254549.034566706512123, 5546381.343784033320844 ], [ 1254449.034566706512123, 5546381.343784033320844 ], [ 1254449.034566706512123, 5546481.343784033320844 ] ] ] ] } },
{ "type": "Feature", "properties": { "id": 2948, "street_cells": 0.0, "yard_cells": 7600.6727195931599, "utility": 0.36088746020900492, "num_areas": 0.0 }, "geometry": { "type": "MultiPolygon", "coordinates": [ [ [ [ 1255349.034566706512123, 5542981.343784033320844 ], [ 1255449.034566706512123, 5542981.343784033320844 ], [ 1255449.034566706512123, 5542881.343784033320844 ], [ 1255349.034566706512123, 5542881.343784033320844 ], [ 1255349.034566706512123, 5542981.343784033320844 ] ] ] ] } },
{ "type": "Feature", "properties": { "id": 3106, "street_cells": 0.0, "yard_cells": 8073.2486254048999, "utility": 0.50193438899170006, "num_areas": 0.0 }, "geometry": { "type": "MultiPolygon", "coordinates": [ [ [ [ 1255449.034566706512123, 5543081.343784033320844 ], [ 1255549.034566706512123, 5543081.343784033320844 ], [ 1255549.034566706512123, 5542981.343784033320844 ], [ 1255449.034566706512123, 5542981.343784033320844 ], [ 1255449.034566706512123, 5543081.343784033320844 ] ] ] ] } },
{ "type": "Feature", "properties": { "id": 7871, "street_cells": 0.0, "yard_cells": 5169.4527223864015, "utility": 0.49818139453909288, "num_areas": 0.0 }, "geometry": { "type": "MultiPolygon", "coordinates": [ [ [ [ 1258449.034566706512123, 5543581.343784033320844 ], [ 1258549.034566706512123, 5543581.343784033320844 ], [ 1258549.034566706512123, 5543481.343784033320844 ], [ 1258449.034566706512123, 5543481.343784033320844 ], [ 1258449.034566706512123, 5543581.343784033320844 ] ] ] ] } },
{ "type": "Feature", "properties": { "id": 8051, "street_cells": 0.0, "yard_cells": 8539.2132212691722, "utility": 0.47683141574139942, "num_areas": 1.0 }, "geometry": { "type": "MultiPolygon", "coordinates": [ [ [ [ 1258549.034566706512123, 5541481.343784033320844 ], [ 1258649.034566706512123, 5541481.343784033320844 ], [ 1258649.034566706512123, 5541381.343784033320844 ], [ 1258549.034566706512123, 5541381.343784033320844 ], [ 1258549.034566706512123, 5541481.343784033320844 ] ] ] ] } },
{ "type": "Feature", "properties": { "id": 8508, "street_cells": 0.0, "yard_cells": 4503.6567931322788, "utility": 0.5313481859421032, "num_areas": 1.0 }, "geometry": { "type": "MultiPolygon", "coordinates": [ [ [ [ 1258849.034566706512123, 5543481.343784033320844 ], [ 1258949.034566706512123, 5543481.343784033320844 ], [ 1258949.034566706512123, 5543381.343784033320844 ], [ 1258849.034566706512123, 5543381.343784033320844 ], [ 1258849.034566706512123, 5543481.343784033320844 ] ] ] ] } },
{ "type": "Feature", "properties": { "id": 8826, "street_cells": 0.0, "yard_cells": 4486.1574629948773, "utility": 0.55636299469126738, "num_areas": 0.0 }, "geometry": { "type": "MultiPolygon", "coordinates": [ [ [ [ 1259049.034566706512123, 5543481.343784033320844 ], [ 1259149.034566706512123, 5543481.343784033320844 ], [ 1259149.034566706512123, 5543381.343784033320844 ], [ 1259049.034566706512123, 5543381.343784033320844 ], [ 1259049.034566706512123, 5543481.343784033320844 ] ] ] ] } },
{ "type": "Feature", "properties": { "id": 9000, "street_cells": 0.0, "yard_cells": 4995.3746715120642, "utility": 0.46742652749620389, "num_areas": 0.0 }, "geometry": { "type": "MultiPolygon", "coordinates": [ [ [ [ 1259149.034566706512123, 5541981.343784033320844 ], [ 1259249.034566706512123, 5541981.343784033320844 ], [ 1259249.034566706512123, 5541881.343784033320844 ], [ 1259149.034566706512123, 5541881.343784033320844 ], [ 1259149.034566706512123, 5541981.343784033320844 ] ] ] ] } },
{ "type": "Feature", "properties": { "id": 9307, "street_cells": 0.0, "yard_cells": 4386.0208471977021, "utility": 0.48561494013118522, "num_areas": 0.0 }, "geometry": { "type": "MultiPolygon", "coordinates": [ [ [ [ 1259349.034566706512123, 5543081.343784033320844 ], [ 1259449.034566706512123, 5543081.343784033320844 ], [ 1259449.034566706512123, 5542981.343784033320844 ], [ 1259349.034566706512123, 5542981.343784033320844 ], [ 1259349.034566706512123, 5543081.343784033320844 ] ] ] ] } },
{ "type": "Feature", "properties": { "id": 9314, "street_cells": 0.0, "yard_cells": 4613.0571067452111, "utility": 0.47481564739072768, "num_areas": 1.0 }, "geometry": { "type": "MultiPolygon", "coordinates": [ [ [ [ 1259349.034566706512123, 5542381.343784033320844 ], [ 1259449.034566706512123, 5542381.343784033320844 ], [ 1259449.034566706512123, 5542281.343784033320844 ], [ 1259349.034566706512123, 5542281.343784033320844 ], [ 1259349.034566706512123, 5542381.343784033320844 ] ] ] ] } },
{ "type": "Feature", "properties": { "id": 9741, "street_cells": 0.0, "yard_cells": 4828.3026421926916, "utility": 0.33513572150577459, "num_areas": 4.0 }, "geometry": { "type": "MultiPolygon", "coordinates": [ [ [ [ 1259649.278317219344899, 5547362.869409847073257 ], [ 1259670.590352218830958, 5547375.012775938026607 ], [ 1259681.98935675015673, 5547381.343784033320844 ], [ 1259749.034566706512123, 5547381.343784033320844 ], [ 1259749.034566706512123, 5547281.343784033320844 ], [ 1259649.034566706512123, 5547281.343784033320844 ], [ 1259649.034566706512123, 5547362.725936091504991 ], [ 1259649.278317219344899, 5547362.869409847073257 ] ] ] ] } },
{ "type": "Feature", "properties": { "id": 9789, "street_cells": 0.0, "yard_cells": 4313.6058061392296, "utility": 0.5429628831640555, "num_areas": 2.0 }, "geometry": { "type": "MultiPolygon", "coordinates": [ [ [ [ 1259649.034566706512123, 5542581.343784033320844 ], [ 1259749.034566706512123, 5542581.343784033320844 ], [ 1259749.034566706512123, 5542481.343784033320844 ], [ 1259649.034566706512123, 5542481.343784033320844 ], [ 1259649.034566706512123, 5542581.343784033320844 ] ] ] ] } },
{ "type": "Feature", "properties": { "id": 10276, "street_cells": 0.0, "yard_cells": 4386.9847510553427, "utility": 0.57199155121280543, "num_areas": 0.0 }, "geometry": { "type": "MultiPolygon", "coordinates": [ [ [ [ 1259949.034566706512123, 5541581.343784033320844 ], [ 1260049.034566706512123, 5541581.343784033320844 ], [ 1260049.034566706512123, 5541481.343784033320844 ], [ 1259949.034566706512123, 5541481.343784033320844 ], [ 1259949.034566706512123, 5541581.343784033320844 ] ] ] ] } },
{ "type": "Feature", "properties": { "id": 10591, "street_cells": 0.0, "yard_cells": 4359.1041282479709, "utility": 0.48188264028292621, "num_areas": 0.0 }, "geometry": { "type": "MultiPolygon", "coordinates": [ [ [ [ 1260149.034566706512123, 5541881.343784033320844 ], [ 1260249.034566706512123, 5541881.343784033320844 ], [ 1260249.034566706512123, 5541781.343784033320844 ], [ 1260149.034566706512123, 5541781.343784033320844 ], [ 1260149.034566706512123, 5541881.343784033320844 ] ] ] ] } },
{ "type": "Feature", "properties": { "id": 11685, "street_cells": 0.0, "yard_cells": 5633.6687829079747, "utility": 0.35210839325448678, "num_areas": 0.0 }, "geometry": { "type": "MultiPolygon", "coordinates": [ [ [ [ 1260849.034566706512123, 5543781.343784033320844 ], [ 1260949.034566706512123, 5543781.343784033320844 ], [ 1260949.034566706512123, 5543681.343784033320844 ], [ 1260849.034566706512123, 5543681.343784033320844 ], [ 1260849.034566706512123, 5543781.343784033320844 ] ] ] ] } },
{ "type": "Feature", "properties": { "id": 11698, "street_cells": 0.0, "yard_cells": 4459.3173176269047, "utility": 0.39788890541957112, "num_areas": 1.0 }, "geometry": { "type": "MultiPolygon", "coordinates": [ [ [ [ 1260849.034566706512123, 5542481.343784033320844 ], [ 1260949.034566706512123, 5542481.343784033320844 ], [ 1260949.034566706512123, 5542381.343784033320844 ], [ 1260849.034566706512123, 5542381.343784033320844 ], [ 1260849.034566706512123, 5542481.343784033320844 ] ] ] ] } },
{ "type": "Feature", "properties": { "id": 12329, "street_cells": 0.0, "yard_cells": 4379.2317712325603, "utility": 0.61155271955627089, "num_areas": 3.0 }, "geometry": { "type": "MultiPolygon", "coordinates": [ [ [ [ 1261249.034566706512123, 5542981.343784033320844 ], [ 1261349.034566706512123, 5542981.343784033320844 ], [ 1261349.034566706512123, 5542881.343784033320844 ], [ 1261249.034566706512123, 5542881.343784033320844 ], [ 1261249.034566706512123, 5542981.343784033320844 ] ] ] ] } },
{ "type": "Feature", "properties": { "id": 12481, "street_cells": 0.0, "yard_cells": 4127.0297242860543, "utility": 0.33558666118631231, "num_areas": 3.0 }, "geometry": { "type": "MultiPolygon", "coordinates": [ [ [ [ 1261349.034566706512123, 5543681.343784033320844 ], [ 1261449.034566706512123, 5543681.343784033320844 ], [ 1261449.034566706512123, 5543581.343784033320844 ], [ 1261349.034566706512123, 5543581.343784033320844 ], [ 1261349.034566706512123, 5543681.343784033320844 ] ] ] ] } },
{ "type": "Feature", "properties": { "id": 12983, "street_cells": 0.0, "yard_cells": 4108.8070764273871, "utility": 0.4460934255154963, "num_areas": 0.0 }, "geometry": { "type": "MultiPolygon", "coordinates": [ [ [ [ 1261649.034566706512123, 5541181.343784033320844 ], [ 1261749.034566706512123, 5541181.343784033320844 ], [ 1261749.034566706512123, 5541081.343784033320844 ], [ 1261649.034566706512123, 5541081.343784033320844 ], [ 1261649.034566706512123, 5541181.343784033320844 ] ] ] ] } },
{ "type": "Feature", "properties": { "id": 13116, "street_cells": 0.0, "yard_cells": 4106.5190786896892, "utility": 0.41561752237173138, "num_areas": 0.0 }, "geometry": { "type": "MultiPolygon", "coordinates": [ [ [ [ 1261749.034566706512123, 5543781.343784033320844 ], [ 1261849.034566706512123, 5543781.343784033320844 ], [ 1261849.034566706512123, 5543681.343784033320844 ], [ 1261749.034566706512123, 5543681.343784033320844 ], [ 1261749.034566706512123, 5543781.343784033320844 ] ] ] ] } },
{ "type": "Feature", "properties": { "id": 13756, "street_cells": 0.0, "yard_cells": 4889.2083321157843, "utility": 0.39381175703416399, "num_areas": 0.0 }, "geometry": { "type": "MultiPolygon", "coordinates": [ [ [ [ 1262149.034566706512123, 5543381.343784033320844 ], [ 1262249.034566706512123, 5543381.343784033320844 ], [ 1262249.034566706512123, 5543281.343784033320844 ], [ 1262149.034566706512123, 5543281.343784033320844 ], [ 1262149.034566706512123, 5543381.343784033320844 ] ] ] ] } },
{ "type": "Feature", "properties": { "id": 14054, "street_cells": 0.0, "yard_cells": 6351.1158476867713, "utility": 0.6395067717494084, "num_areas": 0.0 }, "geometry": { "type": "MultiPolygon", "coordinates": [ [ [ [ 1262349.034566706512123, 5545381.343784033320844 ], [ 1262449.034566706512123, 5545381.343784033320844 ], [ 1262449.034566706512123, 5545281.343784033320844 ], [ 1262349.034566706512123, 5545281.343784033320844 ], [ 1262349.034566706512123, 5545381.343784033320844 ] ] ] ] } },
{ "type": "Feature", "properties": { "id": 14213, "street_cells": 0.0, "yard_cells": 4789.9968914773781, "utility": 0.5376101513140038, "num_areas": 1.0 }, "geometry": { "type": "MultiPolygon", "coordinates": [ [ [ [ 1262449.034566706512123, 5545381.343784033320844 ], [ 1262549.034566706512123, 5545381.343784033320844 ], [ 1262549.034566706512123, 5545281.343784033320844 ], [ 1262449.034566706512123, 5545281.343784033320844 ], [ 1262449.034566706512123, 5545381.343784033320844 ] ] ] ] } },
{ "type": "Feature", "properties": { "id": 14233, "street_cells": 0.0, "yard_cells": 4623.4276258559621, "utility": 0.58635416274733443, "num_areas": 1.0 }, "geometry": { "type": "MultiPolygon", "coordinates": [ [ [ [ 1262449.034566706512123, 5543381.343784033320844 ], [ 1262549.034566706512123, 5543381.343784033320844 ], [ 1262549.034566706512123, 5543281.343784033320844 ], [ 1262449.034566706512123, 5543281.343784033320844 ], [ 1262449.034566706512123, 5543381.343784033320844 ] ] ] ] } },
{ "type": "Feature", "properties": { "id": 15374, "street_cells": 0.0, "yard_cells": 4411.8330925637201, "utility": 0.18316851078278351, "num_areas": 4.0 }, "geometry": { "type": "MultiPolygon", "coordinates": [ [ [ [ 1263149.034566706512123, 5540581.343784033320844 ], [ 1263249.034566706512123, 5540581.343784033320844 ], [ 1263249.034566706512123, 5540481.343784033320844 ], [ 1263149.034566706512123, 5540481.343784033320844 ], [ 1263149.034566706512123, 5540581.343784033320844 ] ] ] ] } },
{ "type": "Feature", "properties": { "id": 15481, "street_cells": 0.0, "yard_cells": 4645.3295534255703, "utility": 0.57266991186843408, "num_areas": 1.0 }, "geometry": { "type": "MultiPolygon", "coordinates": [ [ [ [ 1263249.034566706512123, 5545781.343784033320844 ], [ 1263349.034566706512123, 5545781.343784033320844 ], [ 1263349.034566706512123, 5545681.343784033320844 ], [ 1263249.034566706512123, 5545681.343784033320844 ], [ 1263249.034566706512123, 5545781.343784033320844 ] ] ] ] } },
{ "type": "Feature", "properties": { "id": 15483, "street_cells": 0.0, "yard_cells": 5924.8242503711954, "utility": 0.70042441068131234, "num_areas": 0.0 }, "geometry": { "type": "MultiPolygon", "coordinates": [ [ [ [ 1263249.034566706512123, 5545581.343784033320844 ], [ 1263349.034566706512123, 5545581.343784033320844 ], [ 1263349.034566706512123, 5545481.343784033320844 ], [ 1263249.034566706512123, 5545481.343784033320844 ], [ 1263249.034566706512123, 5545581.343784033320844 ] ] ] ] } },
{ "type": "Feature", "properties": { "id": 15491, "street_cells": 0.0, "yard_cells": 5033.011056731455, "utility": 0.48942238519856218, "num_areas": 1.0 }, "geometry": { "type": "MultiPolygon", "coordinates": [ [ [ [ 1263249.034566706512123, 5544781.343784033320844 ], [ 1263349.034566706512123, 5544781.343784033320844 ], [ 1263349.034566706512123, 5544681.343784033320844 ], [ 1263249.034566706512123, 5544681.343784033320844 ], [ 1263249.034566706512123, 5544781.343784033320844 ] ] ] ] } },
{ "type": "Feature", "properties": { "id": 15640, "street_cells": 0.0, "yard_cells": 5241.3123961271558, "utility": 0.56726096355175382, "num_areas": 1.0 }, "geometry": { "type": "MultiPolygon", "coordinates": [ [ [ [ 1263349.034566706512123, 5545781.343784033320844 ], [ 1263449.034566706512123, 5545781.343784033320844 ], [ 1263449.034566706512123, 5545681.343784033320844 ], [ 1263349.034566706512123, 5545681.343784033320844 ], [ 1263349.034566706512123, 5545781.343784033320844 ] ] ] ] } },
{ "type": "Feature", "properties": { "id": 15978, "street_cells": 0.0, "yard_cells": 5603.4457935541868, "utility": 0.67150569990852305, "num_areas": 0.0 }, "geometry": { "type": "MultiPolygon", "coordinates": [ [ [ [ 1263549.034566706512123, 5543781.343784033320844 ], [ 1263649.034566706512123, 5543781.343784033320844 ], [ 1263649.034566706512123, 5543681.343784033320844 ], [ 1263549.034566706512123, 5543681.343784033320844 ], [ 1263549.034566706512123, 5543781.343784033320844 ] ] ] ] } },
{ "type": "Feature", "properties": { "id": 15979, "street_cells": 0.0, "yard_cells": 5187.4791655037552, "utility": 0.36908504337518722, "num_areas": 1.0 }, "geometry": { "type": "MultiPolygon", "coordinates": [ [ [ [ 1263549.034566706512123, 5543681.343784033320844 ], [ 1263649.034566706512123, 5543681.343784033320844 ], [ 1263649.034566706512123, 5543581.343784033320844 ], [ 1263549.034566706512123, 5543581.343784033320844 ], [ 1263549.034566706512123, 5543681.343784033320844 ] ] ] ] } },
{ "type": "Feature", "properties": { "id": 16076, "street_cells": 0.0, "yard_cells": 6086.9394750226056, "utility": 0.43351315728365097, "num_areas": 0.0 }, "geometry": { "type": "MultiPolygon", "coordinates": [ [ [ [ 1263649.034566706512123, 5549881.343784033320844 ], [ 1263749.034566706512123, 5549881.343784033320844 ], [ 1263749.034566706512123, 5549781.343784033320844 ], [ 1263649.034566706512123, 5549781.343784033320844 ], [ 1263649.034566706512123, 5549881.343784033320844 ] ] ] ] } },
{ "type": "Feature", "properties": { "id": 16137, "street_cells": 0.0, "yard_cells": 4610.8284833878861, "utility": 0.60139737685591077, "num_areas": 0.0 }, "geometry": { "type": "MultiPolygon", "coordinates": [ [ [ [ 1263649.034566706512123, 5543781.343784033320844 ], [ 1263749.034566706512123, 5543781.343784033320844 ], [ 1263749.034566706512123, 5543681.343784033320844 ], [ 1263649.034566706512123, 5543681.343784033320844 ], [ 1263649.034566706512123, 5543781.343784033320844 ] ] ] ] } },
{ "type": "Feature", "properties": { "id": 16274, "street_cells": 0.0, "yard_cells": 4784.0205503366888, "utility": 0.60643602726309631, "num_areas": 0.0 }, "geometry": { "type": "MultiPolygon", "coordinates": [ [ [ [ 1263749.034566706512123, 5545981.343784033320844 ], [ 1263849.034566706512123, 5545981.343784033320844 ], [ 1263849.034566706512123, 5545881.343784033320844 ], [ 1263749.034566706512123, 5545881.343784033320844 ], [ 1263749.034566706512123, 5545981.343784033320844 ] ] ] ] } },
{ "type": "Feature", "properties": { "id": 16300, "street_cells": 0.0, "yard_cells": 5292.0143771898001, "utility": 0.60987922833599206, "num_areas": 0.0 }, "geometry": { "type": "MultiPolygon", "coordinates": [ [ [ [ 1263749.034566706512123, 5543381.343784033320844 ], [ 1263849.034566706512123, 5543381.343784033320844 ], [ 1263849.034566706512123, 5543281.343784033320844 ], [ 1263749.034566706512123, 5543281.343784033320844 ], [ 1263749.034566706512123, 5543381.343784033320844 ] ] ] ] } },
{ "type": "Feature", "properties": { "id": 16435, "street_cells": 0.0, "yard_cells": 4443.4433844343293, "utility": 0.34299558930942659, "num_areas": 0.0 }, "geometry": { "type": "MultiPolygon", "coordinates": [ [ [ [ 1263849.034566706512123, 5545781.343784033320844 ], [ 1263949.034566706512123, 5545781.343784033320844 ], [ 1263949.034566706512123, 5545681.343784033320844 ], [ 1263849.034566706512123, 5545681.343784033320844 ], [ 1263849.034566706512123, 5545781.343784033320844 ] ] ] ] } },
{ "type": "Feature", "properties": { "id": 16446, "street_cells": 0.0, "yard_cells": 4984.0696221873332, "utility": 0.54475945050669949, "num_areas": 0.0 }, "geometry": { "type": "MultiPolygon", "coordinates": [ [ [ [ 1263849.034566706512123, 5544681.343784033320844 ], [ 1263949.034566706512123, 5544681.343784033320844 ], [ 1263949.034566706512123, 5544581.343784033320844 ], [ 1263849.034566706512123, 5544581.343784033320844 ], [ 1263849.034566706512123, 5544681.343784033320844 ] ] ] ] } },
{ "type": "Feature", "properties": { "id": 16927, "street_cells": 0.0, "yard_cells": 5267.9026477793632, "utility": 0.53473410075195815, "num_areas": 1.0 }, "geometry": { "type": "MultiPolygon", "coordinates": [ [ [ [ 1264149.034566706512123, 5544281.343784033320844 ], [ 1264249.034566706512123, 5544281.343784033320844 ], [ 1264249.034566706512123, 5544181.343784033320844 ], [ 1264149.034566706512123, 5544181.343784033320844 ], [ 1264149.034566706512123, 5544281.343784033320844 ] ] ] ] } },
{ "type": "Feature", "properties": { "id": 16960, "street_cells": 0.0, "yard_cells": 4147.2311960207198, "utility": 0.37426704502650399, "num_areas": 3.0 }, "geometry": { "type": "MultiPolygon", "coordinates": [ [ [ [ 1264149.034566706512123, 5540981.343784033320844 ], [ 1264249.034566706512123, 5540981.343784033320844 ], [ 1264249.034566706512123, 5540881.343784033320844 ], [ 1264149.034566706512123, 5540881.343784033320844 ], [ 1264149.034566706512123, 5540981.343784033320844 ] ] ] ] } },
{ "type": "Feature", "properties": { "id": 17575, "street_cells": 0.0, "yard_cells": 4662.1681776797632, "utility": 0.42370142920836962, "num_areas": 0.0 }, "geometry": { "type": "MultiPolygon", "coordinates": [ [ [ [ 1264549.034566706512123, 5543081.343784033320844 ], [ 1264649.034566706512123, 5543081.343784033320844 ], [ 1264649.034566706512123, 5542981.343784033320844 ], [ 1264549.034566706512123, 5542981.343784033320844 ], [ 1264549.034566706512123, 5543081.343784033320844 ] ] ] ] } },
{ "type": "Feature", "properties": { "id": 17578, "street_cells": 0.0, "yard_cells": 5177.8352869767696, "utility": 0.49626460090544472, "num_areas": 0.0 }, "geometry": { "type": "MultiPolygon", "coordinates": [ [ [ [ 1264549.034566706512123, 5542781.343784033320844 ], [ 1264649.034566706512123, 5542781.343784033320844 ], [ 1264649.034566706512123, 5542681.343784033320844 ], [ 1264549.034566706512123, 5542681.343784033320844 ], [ 1264549.034566706512123, 5542781.343784033320844 ] ] ] ] } },
{ "type": "Feature", "properties": { "id": 18045, "street_cells": 0.0, "yard_cells": 4921.4808836719021, "utility": 0.55981798304004426, "num_areas": 0.0 }, "geometry": { "type": "MultiPolygon", "coordinates": [ [ [ [ 1264849.034566706512123, 5543781.343784033320844 ], [ 1264949.034566706512123, 5543781.343784033320844 ], [ 1264949.034566706512123, 5543681.343784033320844 ], [ 1264849.034566706512123, 5543681.343784033320844 ], [ 1264849.034566706512123, 5543781.343784033320844 ] ] ] ] } },
{ "type": "Feature", "properties": { "id": 18850, "street_cells": 0.0, "yard_cells": 4580.8953610977624, "utility": 0.50128740472758526, "num_areas": 0.0 }, "geometry": { "type": "MultiPolygon", "coordinates": [ [ [ [ 1265349.034566706512123, 5542781.343784033320844 ], [ 1265449.034566706512123, 5542781.343784033320844 ], [ 1265449.034566706512123, 5542681.343784033320844 ], [ 1265349.034566706512123, 5542681.343784033320844 ], [ 1265349.034566706512123, 5542781.343784033320844 ] ] ] ] } },
{ "type": "Feature", "properties": { "id": 18866, "street_cells": 0.0, "yard_cells": 4292.2625441189293, "utility": 0.26253119521847279, "num_areas": 1.0 }, "geometry": { "type": "MultiPolygon", "coordinates": [ [ [ [ 1265349.034566706512123, 5541181.343784033320844 ], [ 1265449.034566706512123, 5541181.343784033320844 ], [ 1265449.034566706512123, 5541081.343784033320844 ], [ 1265349.034566706512123, 5541081.343784033320844 ], [ 1265349.034566706512123, 5541181.343784033320844 ] ] ] ] } },
{ "type": "Feature", "properties": { "id": 18878, "street_cells": 0.0, "yard_cells": 4292.7467013206333, "utility": 0.5095978608604943, "num_areas": 0.0 }, "geometry": { "type": "MultiPolygon", "coordinates": [ [ [ [ 1265349.034566706512123, 5539981.343784033320844 ], [ 1265449.034566706512123, 5539981.343784033320844 ], [ 1265449.034566706512123, 5539881.343784033320844 ], [ 1265349.034566706512123, 5539881.343784033320844 ], [ 1265349.034566706512123, 5539981.343784033320844 ] ] ] ] } },
{ "type": "Feature", "properties": { "id": 19037, "street_cells": 0.0, "yard_cells": 4360.9408056268003, "utility": 0.57034583782720849, "num_areas": 0.0 }, "geometry": { "type": "MultiPolygon", "coordinates": [ [ [ [ 1265449.034566706512123, 5539981.343784033320844 ], [ 1265549.034566706512123, 5539981.343784033320844 ], [ 1265549.034566706512123, 5539881.343784033320844 ], [ 1265449.034566706512123, 5539881.343784033320844 ], [ 1265449.034566706512123, 5539981.343784033320844 ] ] ] ] } },
{ "type": "Feature", "properties": { "id": 19038, "street_cells": 0.0, "yard_cells": 4371.0481571038254, "utility": 0.45797208266833223, "num_areas": 0.0 }, "geometry": { "type": "MultiPolygon", "coordinates": [ [ [ [ 1265449.034566706512123, 5539881.343784033320844 ], [ 1265549.034566706512123, 5539881.343784033320844 ], [ 1265549.034566706512123, 5539781.343784033320844 ], [ 1265449.034566706512123, 5539781.343784033320844 ], [ 1265449.034566706512123, 5539881.343784033320844 ] ] ] ] } },
{ "type": "Feature", "properties": { "id": 19184, "street_cells": 0.0, "yard_cells": 5304.0008095055819, "utility": 0.36797779822411403, "num_areas": 0.0 }, "geometry": { "type": "MultiPolygon", "coordinates": [ [ [ [ 1265549.034566706512123, 5541181.343784033320844 ], [ 1265649.034566706512123, 5541181.343784033320844 ], [ 1265649.034566706512123, 5541081.343784033320844 ], [ 1265549.034566706512123, 5541081.343784033320844 ], [ 1265549.034566706512123, 5541181.343784033320844 ] ] ] ] } },
{ "type": "Feature", "properties": { "id": 19345, "street_cells": 0.0, "yard_cells": 4805.7986906468868, "utility": 0.62380363262748739, "num_areas": 0.0 }, "geometry": { "type": "MultiPolygon", "coordinates": [ [ [ [ 1265649.034566706512123, 5540981.343784033320844 ], [ 1265749.034566706512123, 5540981.343784033320844 ], [ 1265749.034566706512123, 5540881.343784033320844 ], [ 1265649.034566706512123, 5540881.343784033320844 ], [ 1265649.034566706512123, 5540981.343784033320844 ] ] ] ] } },
{ "type": "Feature", "properties": { "id": 19498, "street_cells": 0.0, "yard_cells": 6047.263721998781, "utility": 0.61516774989233058, "num_areas": 0.0 }, "geometry": { "type": "MultiPolygon", "coordinates": [ [ [ [ 1265749.034566706512123, 5541581.343784033320844 ], [ 1265849.034566706512123, 5541581.343784033320844 ], [ 1265849.034566706512123, 5541481.343784033320844 ], [ 1265749.034566706512123, 5541481.343784033320844 ], [ 1265749.034566706512123, 5541581.343784033320844 ] ] ] ] } },
{ "type": "Feature", "properties": { "id": 19504, "street_cells": 0.0, "yard_cells": 6084.0324303353718, "utility": 0.67887064055779545, "num_areas": 0.0 }, "geometry": { "type": "MultiPolygon", "coordinates": [ [ [ [ 1265749.034566706512123, 5540981.343784033320844 ], [ 1265849.034566706512123, 5540981.343784033320844 ], [ 1265849.034566706512123, 5540881.343784033320844 ], [ 1265749.034566706512123, 5540881.343784033320844 ], [ 1265749.034566706512123, 5540981.343784033320844 ] ] ] ] } },
{ "type": "Feature", "properties": { "id": 19526, "street_cells": 0.0, "yard_cells": 5611.1835784951854, "utility": 0.51346736956327277, "num_areas": 1.0 }, "geometry": { "type": "MultiPolygon", "coordinates": [ [ [ [ 1265749.034566706512123, 5538687.034894553944468 ], [ 1265749.034566706512123, 5538781.343784033320844 ], [ 1265849.034566706512123, 5538781.343784033320844 ], [ 1265849.034566706512123, 5538681.343784033320844 ], [ 1265752.434265846852213, 5538681.343784033320844 ], [ 1265749.034566706512123, 5538687.034894553944468 ] ] ] ] } },
{ "type": "Feature", "properties": { "id": 19631, "street_cells": 0.0, "yard_cells": 5030.8634181814268, "utility": 0.49490720015676082, "num_areas": 0.0 }, "geometry": { "type": "MultiPolygon", "coordinates": [ [ [ [ 1265849.034566706512123, 5544181.343784033320844 ], [ 1265949.034566706512123, 5544181.343784033320844 ], [ 1265949.034566706512123, 5544081.343784033320844 ], [ 1265849.034566706512123, 5544081.343784033320844 ], [ 1265849.034566706512123, 5544181.343784033320844 ] ] ] ] } },
{ "type": "Feature", "properties": { "id": 19645, "street_cells": 0.0, "yard_cells": 4510.8627101369202, "utility": 0.45815353753106608, "num_areas": 0.0 }, "geometry": { "type": "MultiPolygon", "coordinates": [ [ [ [ 1265849.034566706512123, 5542781.343784033320844 ], [ 1265949.034566706512123, 5542781.343784033320844 ], [ 1265949.034566706512123, 5542681.343784033320844 ], [ 1265849.034566706512123, 5542681.343784033320844 ], [ 1265849.034566706512123, 5542781.343784033320844 ] ] ] ] } },
{ "type": "Feature", "properties": { "id": 19675, "street_cells": 0.0, "yard_cells": 4757.0810152050108, "utility": 0.59325663644500481, "num_areas": 0.0 }, "geometry": { "type": "MultiPolygon", "coordinates": [ [ [ [ 1265849.034566706512123, 5539781.343784033320844 ], [ 1265949.034566706512123, 5539781.343784033320844 ], [ 1265949.034566706512123, 5539681.343784033320844 ], [ 1265849.034566706512123, 5539681.343784033320844 ], [ 1265849.034566706512123, 5539781.343784033320844 ] ] ] ] } },
{ "type": "Feature", "properties": { "id": 19687, "street_cells": 0.0, "yard_cells": 5531.1198988528922, "utility": 0.50127634790054887, "num_areas": 0.0 }, "geometry": { "type": "MultiPolygon", "coordinates": [ [ [ [ 1265849.034566706512123, 5538581.343784033320844 ], [ 1265949.034566706512123, 5538581.343784033320844 ], [ 1265949.034566706512123, 5538481.343784033320844 ], [ 1265849.034566706512123, 5538481.343784033320844 ], [ 1265849.034566706512123, 5538581.343784033320844 ] ] ] ] } },
{ "type": "Feature", "properties": { "id": 19817, "street_cells": 0.0, "yard_cells": 5343.5231939997757, "utility": 0.55995045999955106, "num_areas": 1.0 }, "geometry": { "type": "MultiPolygon", "coordinates": [ [ [ [ 1265949.034566706512123, 5541481.343784033320844 ], [ 1266049.034566706512123, 5541481.343784033320844 ], [ 1266049.034566706512123, 5541381.343784033320844 ], [ 1265949.034566706512123, 5541381.343784033320844 ], [ 1265949.034566706512123, 5541481.343784033320844 ] ] ] ] } },
{ "type": "Feature", "properties": { "id": 19846, "street_cells": 0.0, "yard_cells": 5548.9911384615116, "utility": 0.54116428073864831, "num_areas": 0.0 }, "geometry": { "type": "MultiPolygon", "coordinates": [ [ [ [ 1265949.034566706512123, 5538581.343784033320844 ], [ 1266049.034566706512123, 5538581.343784033320844 ], [ 1266049.034566706512123, 5538481.343784033320844 ], [ 1265949.034566706512123, 5538481.343784033320844 ], [ 1265949.034566706512123, 5538581.343784033320844 ] ] ] ] } },
{ "type": "Feature", "properties": { "id": 19962, "street_cells": 0.0, "yard_cells": 4697.0846736233216, "utility": 0.38702516174182078, "num_areas": 0.0 }, "geometry": { "type": "MultiPolygon", "coordinates": [ [ [ [ 1266049.034566706512123, 5542881.343784033320844 ], [ 1266149.034566706512123, 5542881.343784033320844 ], [ 1266149.034566706512123, 5542781.343784033320844 ], [ 1266049.034566706512123, 5542781.343784033320844 ], [ 1266049.034566706512123, 5542881.343784033320844 ] ] ] ] } },
{ "type": "Feature", "properties": { "id": 19985, "street_cells": 0.0, "yard_cells": 4814.2367233242039, "utility": 0.53745611016032224, "num_areas": 1.0 }, "geometry": { "type": "MultiPolygon", "coordinates": [ [ [ [ 1266049.034566706512123, 5540581.343784033320844 ], [ 1266149.034566706512123, 5540581.343784033320844 ], [ 1266149.034566706512123, 5540481.343784033320844 ], [ 1266049.034566706512123, 5540481.343784033320844 ], [ 1266049.034566706512123, 5540581.343784033320844 ] ] ] ] } },
{ "type": "Feature", "properties": { "id": 20011, "street_cells": 0.0, "yard_cells": 5469.198301845463, "utility": 0.56494760111769327, "num_areas": 0.0 }, "geometry": { "type": "MultiPolygon", "coordinates": [ [ [ [ 1266049.034566706512123, 5537981.343784033320844 ], [ 1266149.034566706512123, 5537981.343784033320844 ], [ 1266149.034566706512123, 5537881.343784033320844 ], [ 1266049.034566706512123, 5537881.343784033320844 ], [ 1266049.034566706512123, 5537981.343784033320844 ] ] ] ] } },
{ "type": "Feature", "properties": { "id": 20155, "street_cells": 0.0, "yard_cells": 4477.8901821686886, "utility": 0.43445629100521038, "num_areas": 0.0 }, "geometry": { "type": "MultiPolygon", "coordinates": [ [ [ [ 1266149.034566706512123, 5539481.343784033320844 ], [ 1266249.034566706512123, 5539481.343784033320844 ], [ 1266249.034566706512123, 5539381.343784033320844 ], [ 1266149.034566706512123, 5539381.343784033320844 ], [ 1266149.034566706512123, 5539481.343784033320844 ] ] ] ] } },
{ "type": "Feature", "properties": { "id": 20156, "street_cells": 0.0, "yard_cells": 4347.3148755629663, "utility": 0.54697455425698116, "num_areas": 0.0 }, "geometry": { "type": "MultiPolygon", "coordinates": [ [ [ [ 1266149.034566706512123, 5539381.343784033320844 ], [ 1266249.034566706512123, 5539381.343784033320844 ], [ 1266249.034566706512123, 5539281.343784033320844 ], [ 1266149.034566706512123, 5539281.343784033320844 ], [ 1266149.034566706512123, 5539381.343784033320844 ] ] ] ] } },
{ "type": "Feature", "properties": { "id": 20157, "street_cells": 0.0, "yard_cells": 4665.5144264637493, "utility": 0.5667368572965652, "num_areas": 0.0 }, "geometry": { "type": "MultiPolygon", "coordinates": [ [ [ [ 1266149.034566706512123, 5539281.343784033320844 ], [ 1266249.034566706512123, 5539281.343784033320844 ], [ 1266249.034566706512123, 5539181.343784033320844 ], [ 1266149.034566706512123, 5539181.343784033320844 ], [ 1266149.034566706512123, 5539281.343784033320844 ] ] ] ] } },
{ "type": "Feature", "properties": { "id": 20158, "street_cells": 0.0, "yard_cells": 4457.5815007044002, "utility": 0.56610362183516405, "num_areas": 0.0 }, "geometry": { "type": "MultiPolygon", "coordinates": [ [ [ [ 1266149.034566706512123, 5539181.343784033320844 ], [ 1266249.034566706512123, 5539181.343784033320844 ], [ 1266249.034566706512123, 5539081.343784033320844 ], [ 1266149.034566706512123, 5539081.343784033320844 ], [ 1266149.034566706512123, 5539181.343784033320844 ] ] ] ] } },
{ "type": "Feature", "properties": { "id": 20307, "street_cells": 0.0, "yard_cells": 4275.1250982494093, "utility": 0.57337257662516161, "num_areas": 0.0 }, "geometry": { "type": "MultiPolygon", "coordinates": [ [ [ [ 1266249.034566706512123, 5540181.343784033320844 ], [ 1266349.034566706512123, 5540181.343784033320844 ], [ 1266349.034566706512123, 5540081.343784033320844 ], [ 1266249.034566706512123, 5540081.343784033320844 ], [ 1266249.034566706512123, 5540181.343784033320844 ] ] ] ] } },
{ "type": "Feature", "properties": { "id": 20316, "street_cells": 0.0, "yard_cells": 5002.0070006772876, "utility": 0.46813308960268202, "num_areas": 0.0 }, "geometry": { "type": "MultiPolygon", "coordinates": [ [ [ [ 1266249.034566706512123, 5539281.343784033320844 ], [ 1266349.034566706512123, 5539281.343784033320844 ], [ 1266349.034566706512123, 5539181.343784033320844 ], [ 1266249.034566706512123, 5539181.343784033320844 ], [ 1266249.034566706512123, 5539281.343784033320844 ] ] ] ] } },
{ "type": "Feature", "properties": { "id": 20620, "street_cells": 0.0, "yard_cells": 5129.848033968894, "utility": 0.41514342078675759, "num_areas": 0.0 }, "geometry": { "type": "MultiPolygon", "coordinates": [ [ [ [ 1266449.034566706512123, 5540681.343784033320844 ], [ 1266549.034566706512123, 5540681.343784033320844 ], [ 1266549.034566706512123, 5540581.343784033320844 ], [ 1266449.034566706512123, 5540581.343784033320844 ], [ 1266449.034566706512123, 5540681.343784033320844 ] ] ] ] } },
{ "type": "Feature", "properties": { "id": 20791, "street_cells": 0.0, "yard_cells": 4699.7539819851518, "utility": 0.60893820898312812, "num_areas": 0.0 }, "geometry": { "type": "MultiPolygon", "coordinates": [ [ [ [ 1266549.034566706512123, 5539481.343784033320844 ], [ 1266649.034566706512123, 5539481.343784033320844 ], [ 1266649.034566706512123, 5539381.343784033320844 ], [ 1266549.034566706512123, 5539381.343784033320844 ], [ 1266549.034566706512123, 5539481.343784033320844 ] ] ] ] } },
{ "type": "Feature", "properties": { "id": 20811, "street_cells": 0.0, "yard_cells": 5830.8957028184086, "utility": 0.3251002354404236, "num_areas": 1.0 }, "geometry": { "type": "MultiPolygon", "coordinates": [ [ [ [ 1266549.034566706512123, 5537481.343784033320844 ], [ 1266649.034566706512123, 5537481.343784033320844 ], [ 1266649.034566706512123, 5537381.343784033320844 ], [ 1266549.034566706512123, 5537381.343784033320844 ], [ 1266549.034566706512123, 5537481.343784033320844 ] ] ] ] } },
{ "type": "Feature", "properties": { "id": 20816, "street_cells": 0.0, "yard_cells": 6004.332790393848, "utility": 0.30919294537157888, "num_areas": 0.0 }, "geometry": { "type": "MultiPolygon", "coordinates": [ [ [ [ 1266642.385641937144101, 5536882.034575785510242 ], [ 1266641.4034004942514, 5536881.361196899786592 ], [ 1266641.377703078556806, 5536881.343784033320844 ], [ 1266549.034566706512123, 5536881.343784033320844 ], [ 1266549.034566706512123, 5536981.343784033320844 ], [ 1266649.034566706512123, 5536981.343784033320844 ], [ 1266649.034566706512123, 5536882.094918382354081 ], [ 1266642.385641937144101, 5536882.034575785510242 ] ] ] ] } },
{ "type": "Feature", "properties": { "id": 20954, "street_cells": 0.0, "yard_cells": 6250.9698437964544, "utility": 0.55357570740292805, "num_areas": 0.0 }, "geometry": { "type": "MultiPolygon", "coordinates": [ [ [ [ 1266649.034566706512123, 5539081.343784033320844 ], [ 1266749.034566706512123, 5539081.343784033320844 ], [ 1266749.034566706512123, 5538981.343784033320844 ], [ 1266649.034566706512123, 5538981.343784033320844 ], [ 1266649.034566706512123, 5539081.343784033320844 ] ] ] ] } },
{ "type": "Feature", "properties": { "id": 21105, "street_cells": 0.0, "yard_cells": 4927.360329084564, "utility": 0.62939243791898702, "num_areas": 0.0 }, "geometry": { "type": "MultiPolygon", "coordinates": [ [ [ [ 1266749.034566706512123, 5539881.343784033320844 ], [ 1266849.034566706512123, 5539881.343784033320844 ], [ 1266849.034566706512123, 5539781.343784033320844 ], [ 1266749.034566706512123, 5539781.343784033320844 ], [ 1266749.034566706512123, 5539881.343784033320844 ] ] ] ] } },
{ "type": "Feature", "properties": { "id": 21113, "street_cells": 0.0, "yard_cells": 4722.670635862276, "utility": 0.32398897775143137, "num_areas": 1.0 }, "geometry": { "type": "MultiPolygon", "coordinates": [ [ [ [ 1266749.034566706512123, 5539081.343784033320844 ], [ 1266849.034566706512123, 5539081.343784033320844 ], [ 1266849.034566706512123, 5538981.343784033320844 ], [ 1266749.034566706512123, 5538981.343784033320844 ], [ 1266749.034566706512123, 5539081.343784033320844 ] ] ] ] } },
{ "type": "Feature", "properties": { "id": 21236, "street_cells": 0.0, "yard_cells": 7087.8723481572233, "utility": 0.43001342980685819, "num_areas": 0.0 }, "geometry": { "type": "MultiPolygon", "coordinates": [ [ [ [ 1266849.034566706512123, 5542681.343784033320844 ], [ 1266949.034566706512123, 5542681.343784033320844 ], [ 1266949.034566706512123, 5542581.343784033320844 ], [ 1266849.034566706512123, 5542581.343784033320844 ], [ 1266849.034566706512123, 5542681.343784033320844 ] ] ] ] } },
{ "type": "Feature", "properties": { "id": 21581, "street_cells": 0.0, "yard_cells": 4578.2422373865274, "utility": 0.56213351491461505, "num_areas": 0.0 }, "geometry": { "type": "MultiPolygon", "coordinates": [ [ [ [ 1267049.034566706512123, 5539981.343784033320844 ], [ 1267149.034566706512123, 5539981.343784033320844 ], [ 1267149.034566706512123, 5539881.343784033320844 ], [ 1267049.034566706512123, 5539881.343784033320844 ], [ 1267049.034566706512123, 5539981.343784033320844 ] ] ] ] } },
{ "type": "Feature", "properties": { "id": 21582, "street_cells": 0.0, "yard_cells": 4433.2278954680078, "utility": 0.56205753909624567, "num_areas": 0.0 }, "geometry": { "type": "MultiPolygon", "coordinates": [ [ [ [ 1267049.034566706512123, 5539881.343784033320844 ], [ 1267149.034566706512123, 5539881.343784033320844 ], [ 1267149.034566706512123, 5539781.343784033320844 ], [ 1267049.034566706512123, 5539781.343784033320844 ], [ 1267049.034566706512123, 5539881.343784033320844 ] ] ] ] } },
{ "type": "Feature", "properties": { "id": 21587, "street_cells": 0.0, "yard_cells": 3799.5283828387041, "utility": 0.51312979030754935, "num_areas": 0.0 }, "geometry": { "type": "MultiPolygon", "coordinates": [ [ [ [ 1267049.034566706512123, 5539381.343784033320844 ], [ 1267149.034566706512123, 5539381.343784033320844 ], [ 1267149.034566706512123, 5539281.343784033320844 ], [ 1267049.034566706512123, 5539281.343784033320844 ], [ 1267049.034566706512123, 5539381.343784033320844 ] ] ] ] } },
{ "type": "Feature", "properties": { "id": 21588, "street_cells": 0.0, "yard_cells": 4492.831018535886, "utility": 0.56755395842199596, "num_areas": 0.0 }, "geometry": { "type": "MultiPolygon", "coordinates": [ [ [ [ 1267049.034566706512123, 5539281.343784033320844 ], [ 1267149.034566706512123, 5539281.343784033320844 ], [ 1267149.034566706512123, 5539181.343784033320844 ], [ 1267049.034566706512123, 5539181.343784033320844 ], [ 1267049.034566706512123, 5539281.343784033320844 ] ] ] ] } },
{ "type": "Feature", "properties": { "id": 21741, "street_cells": 0.0, "yard_cells": 4514.1450785961933, "utility": 0.64696417365787529, "num_areas": 0.0 }, "geometry": { "type": "MultiPolygon", "coordinates": [ [ [ [ 1267149.034566706512123, 5539881.343784033320844 ], [ 1267249.034566706512123, 5539881.343784033320844 ], [ 1267249.034566706512123, 5539781.343784033320844 ], [ 1267149.034566706512123, 5539781.343784033320844 ], [ 1267149.034566706512123, 5539881.343784033320844 ] ] ] ] } },
{ "type": "Feature", "properties": { "id": 21743, "street_cells": 0.0, "yard_cells": 4012.9900273308158, "utility": 0.41734362320853469, "num_areas": 2.0 }, "geometry": { "type": "MultiPolygon", "coordinates": [ [ [ [ 1267149.034566706512123, 5539681.343784033320844 ], [ 1267249.034566706512123, 5539681.343784033320844 ], [ 1267249.034566706512123, 5539581.343784033320844 ], [ 1267149.034566706512123, 5539581.343784033320844 ], [ 1267149.034566706512123, 5539681.343784033320844 ] ] ] ] } },
{ "type": "Feature", "properties": { "id": 21746, "street_cells": 0.0, "yard_cells": 3806.581533207494, "utility": 0.56842138410558496, "num_areas": 2.0 }, "geometry": { "type": "MultiPolygon", "coordinates": [ [ [ [ 1267149.034566706512123, 5539381.343784033320844 ], [ 1267249.034566706512123, 5539381.343784033320844 ], [ 1267249.034566706512123, 5539281.343784033320844 ], [ 1267149.034566706512123, 5539281.343784033320844 ], [ 1267149.034566706512123, 5539381.343784033320844 ] ] ] ] } },
{ "type": "Feature", "properties": { "id": 21748, "street_cells": 0.0, "yard_cells": 4297.2898027570918, "utility": 0.55564034208286128, "num_areas": 0.0 }, "geometry": { "type": "MultiPolygon", "coordinates": [ [ [ [ 1267149.034566706512123, 5539181.343784033320844 ], [ 1267249.034566706512123, 5539181.343784033320844 ], [ 1267249.034566706512123, 5539081.343784033320844 ], [ 1267149.034566706512123, 5539081.343784033320844 ], [ 1267149.034566706512123, 5539181.343784033320844 ] ] ] ] } },
{ "type": "Feature", "properties": { "id": 21751, "street_cells": 0.0, "yard_cells": 4487.6194094396196, "utility": 0.47868956623533698, "num_areas": 0.0 }, "geometry": { "type": "MultiPolygon", "coordinates": [ [ [ [ 1267149.034566706512123, 5538881.343784033320844 ], [ 1267249.034566706512123, 5538881.343784033320844 ], [ 1267249.034566706512123, 5538781.343784033320844 ], [ 1267149.034566706512123, 5538781.343784033320844 ], [ 1267149.034566706512123, 5538881.343784033320844 ] ] ] ] } },
{ "type": "Feature", "properties": { "id": 21901, "street_cells": 0.0, "yard_cells": 4348.6233609674673, "utility": 0.6075964703843777, "num_areas": 0.0 }, "geometry": { "type": "MultiPolygon", "coordinates": [ [ [ [ 1267249.034566706512123, 5539781.343784033320844 ], [ 1267349.034566706512123, 5539781.343784033320844 ], [ 1267349.034566706512123, 5539681.343784033320844 ], [ 1267249.034566706512123, 5539681.343784033320844 ], [ 1267249.034566706512123, 5539781.343784033320844 ] ] ] ] } },
{ "type": "Feature", "properties": { "id": 21904, "street_cells": 0.0, "yard_cells": 4209.1956651906748, "utility": 0.62509701195421785, "num_areas": 0.0 }, "geometry": { "type": "MultiPolygon", "coordinates": [ [ [ [ 1267249.034566706512123, 5539481.343784033320844 ], [ 1267349.034566706512123, 5539481.343784033320844 ], [ 1267349.034566706512123, 5539381.343784033320844 ], [ 1267249.034566706512123, 5539381.343784033320844 ], [ 1267249.034566706512123, 5539481.343784033320844 ] ] ] ] } },
{ "type": "Feature", "properties": { "id": 21907, "street_cells": 0.0, "yard_cells": 4340.0818873234093, "utility": 0.64550617451006087, "num_areas": 0.0 }, "geometry": { "type": "MultiPolygon", "coordinates": [ [ [ [ 1267249.034566706512123, 5539181.343784033320844 ], [ 1267349.034566706512123, 5539181.343784033320844 ], [ 1267349.034566706512123, 5539081.343784033320844 ], [ 1267249.034566706512123, 5539081.343784033320844 ], [ 1267249.034566706512123, 5539181.343784033320844 ] ] ] ] } },
{ "type": "Feature", "properties": { "id": 21910, "street_cells": 0.0, "yard_cells": 4533.4620077293366, "utility": 0.49133266689615812, "num_areas": 0.0 }, "geometry": { "type": "MultiPolygon", "coordinates": [ [ [ [ 1267249.034566706512123, 5538881.343784033320844 ], [ 1267349.034566706512123, 5538881.343784033320844 ], [ 1267349.034566706512123, 5538781.343784033320844 ], [ 1267249.034566706512123, 5538781.343784033320844 ], [ 1267249.034566706512123, 5538881.343784033320844 ] ] ] ] } },
{ "type": "Feature", "properties": { "id": 22063, "street_cells": 0.0, "yard_cells": 3887.9894546410069, "utility": 0.50087420480820721, "num_areas": 0.0 }, "geometry": { "type": "MultiPolygon", "coordinates": [ [ [ [ 1267349.034566706512123, 5539481.343784033320844 ], [ 1267449.034566706512123, 5539481.343784033320844 ], [ 1267449.034566706512123, 5539381.343784033320844 ], [ 1267349.034566706512123, 5539381.343784033320844 ], [ 1267349.034566706512123, 5539481.343784033320844 ] ] ] ] } },
{ "type": "Feature", "properties": { "id": 22065, "street_cells": 0.0, "yard_cells": 3806.7190127668991, "utility": 0.54326072939951109, "num_areas": 1.0 }, "geometry": { "type": "MultiPolygon", "coordinates": [ [ [ [ 1267349.034566706512123, 5539281.343784033320844 ], [ 1267449.034566706512123, 5539281.343784033320844 ], [ 1267449.034566706512123, 5539181.343784033320844 ], [ 1267349.034566706512123, 5539181.343784033320844 ], [ 1267349.034566706512123, 5539281.343784033320844 ] ] ] ] } },
{ "type": "Feature", "properties": { "id": 22067, "street_cells": 0.0, "yard_cells": 3854.063443813357, "utility": 0.52234402356657239, "num_areas": 2.0 }, "geometry": { "type": "MultiPolygon", "coordinates": [ [ [ [ 1267349.034566706512123, 5539081.343784033320844 ], [ 1267449.034566706512123, 5539081.343784033320844 ], [ 1267449.034566706512123, 5538981.343784033320844 ], [ 1267349.034566706512123, 5538981.343784033320844 ], [ 1267349.034566706512123, 5539081.343784033320844 ] ] ] ] } },
{ "type": "Feature", "properties": { "id": 22069, "street_cells": 0.0, "yard_cells": 4178.0172989275306, "utility": 0.4032796738723467, "num_areas": 1.0 }, "geometry": { "type": "MultiPolygon", "coordinates": [ [ [ [ 1267349.034566706512123, 5538881.343784033320844 ], [ 1267449.034566706512123, 5538881.343784033320844 ], [ 1267449.034566706512123, 5538781.343784033320844 ], [ 1267349.034566706512123, 5538781.343784033320844 ], [ 1267349.034566706512123, 5538881.343784033320844 ] ] ] ] } },
{ "type": "Feature", "properties": { "id": 22223, "street_cells": 0.0, "yard_cells": 3733.5184510171821, "utility": 0.44485788715277691, "num_areas": 0.0 }, "geometry": { "type": "MultiPolygon", "coordinates": [ [ [ [ 1267449.034566706512123, 5539381.343784033320844 ], [ 1267549.034566706512123, 5539381.343784033320844 ], [ 1267549.034566706512123, 5539281.343784033320844 ], [ 1267449.034566706512123, 5539281.343784033320844 ], [ 1267449.034566706512123, 5539381.343784033320844 ] ] ] ] } },
{ "type": "Feature", "properties": { "id": 22224, "street_cells": 0.0, "yard_cells": 4025.5915629633819, "utility": 0.48828914232426007, "num_areas": 1.0 }, "geometry": { "type": "MultiPolygon", "coordinates": [ [ [ [ 1267449.034566706512123, 5539281.343784033320844 ], [ 1267549.034566706512123, 5539281.343784033320844 ], [ 1267549.034566706512123, 5539181.343784033320844 ], [ 1267449.034566706512123, 5539181.343784033320844 ], [ 1267449.034566706512123, 5539281.343784033320844 ] ] ] ] } },
{ "type": "Feature", "properties": { "id": 22225, "street_cells": 0.0, "yard_cells": 4391.4821345142554, "utility": 0.62128496728724292, "num_areas": 1.0 }, "geometry": { "type": "MultiPolygon", "coordinates": [ [ [ [ 1267449.034566706512123, 5539181.343784033320844 ], [ 1267549.034566706512123, 5539181.343784033320844 ], [ 1267549.034566706512123, 5539081.343784033320844 ], [ 1267449.034566706512123, 5539081.343784033320844 ], [ 1267449.034566706512123, 5539181.343784033320844 ] ] ] ] } },
{ "type": "Feature", "properties": { "id": 22226, "street_cells": 0.0, "yard_cells": 4820.1514186765999, "utility": 0.69395653738581009, "num_areas": 0.0 }, "geometry": { "type": "MultiPolygon", "coordinates": [ [ [ [ 1267449.034566706512123, 5539081.343784033320844 ], [ 1267549.034566706512123, 5539081.343784033320844 ], [ 1267549.034566706512123, 5538981.343784033320844 ], [ 1267449.034566706512123, 5538981.343784033320844 ], [ 1267449.034566706512123, 5539081.343784033320844 ] ] ] ] } },
{ "type": "Feature", "properties": { "id": 22227, "street_cells": 0.0, "yard_cells": 4342.5690067787073, "utility": 0.52234062198774822, "num_areas": 0.0 }, "geometry": { "type": "MultiPolygon", "coordinates": [ [ [ [ 1267449.034566706512123, 5538981.343784033320844 ], [ 1267549.034566706512123, 5538981.343784033320844 ], [ 1267549.034566706512123, 5538881.343784033320844 ], [ 1267449.034566706512123, 5538881.343784033320844 ], [ 1267449.034566706512123, 5538981.343784033320844 ] ] ] ] } },
{ "type": "Feature", "properties": { "id": 22847, "street_cells": 0.0, "yard_cells": 6181.6371284079087, "utility": 0.30718568880176861, "num_areas": 3.0 }, "geometry": { "type": "MultiPolygon", "coordinates": [ [ [ [ 1267849.034566706512123, 5540581.343784033320844 ], [ 1267949.034566706512123, 5540581.343784033320844 ], [ 1267949.034566706512123, 5540481.343784033320844 ], [ 1267849.034566706512123, 5540481.343784033320844 ], [ 1267849.034566706512123, 5540581.343784033320844 ] ] ] ] } },
{ "type": "Feature", "properties": { "id": 26820, "street_cells": 0.0, "yard_cells": 6424.2059857100248, "utility": 0.51539250789263236, "num_areas": 0.0 }, "geometry": { "type": "MultiPolygon", "coordinates": [ [ [ [ 1270349.034566706512123, 5540781.343784033320844 ], [ 1270449.034566706512123, 5540781.343784033320844 ], [ 1270449.034566706512123, 5540681.343784033320844 ], [ 1270349.034566706512123, 5540681.343784033320844 ], [ 1270349.034566706512123, 5540781.343784033320844 ] ] ] ] } }
]
}
