{
"type": "FeatureCollection",
"name": "higher_density",
"crs": { "type": "name", "properties": { "name": "urn:ogc:def:crs:EPSG::3857" } },
"features": [
{ "type": "Feature", "properties": { "id": 8826, "street_cells": 188.47162948250769, "yard_cells": 4486.1574629948773, "utility": 0.53694927424503958, "num_areas": 0.0 }, "geometry": { "type": "MultiPolygon", "coordinates": [ [ [ [ 1259049.034566706512123, 5543481.343784033320844 ], [ 1259149.034566706512123, 5543481.343784033320844 ], [ 1259149.034566706512123, 5543381.343784033320844 ], [ 1259049.034566706512123, 5543381.343784033320844 ], [ 1259049.034566706512123, 5543481.343784033320844 ] ] ] ] } },
{ "type": "Feature", "properties": { "id": 8999, "street_cells": 367.76351848053753, "yard_cells": 3648.105186867866, "utility": 0.36485444926471822, "num_areas": 2.0 }, "geometry": { "type": "MultiPolygon", "coordinates": [ [ [ [ 1259149.034566706512123, 5542081.343784033320844 ], [ 1259249.034566706512123, 5542081.343784033320844 ], [ 1259249.034566706512123, 5541981.343784033320844 ], [ 1259149.034566706512123, 5541981.343784033320844 ], [ 1259149.034566706512123, 5542081.343784033320844 ] ] ] ] } },
{ "type": "Feature", "properties": { "id": 9000, "street_cells": 431.42663938472981, "yard_cells": 4995.3746715120642, "utility": 0.53390817713683336, "num_areas": 0.0 }, "geometry": { "type": "MultiPolygon", "coordinates": [ [ [ [ 1259149.034566706512123, 5541981.343784033320844 ], [ 1259249.034566706512123, 5541981.343784033320844 ], [ 1259249.034566706512123, 5541881.343784033320844 ], [ 1259149.034566706512123, 5541881.343784033320844 ], [ 1259149.034566706512123, 5541981.343784033320844 ] ] ] ] } },
{ "type": "Feature", "properties": { "id": 9001, "street_cells": 668.97053891168912, "yard_cells": 3586.924948111875, "utility": 0.44307761257055578, "num_areas": 0.0 }, "geometry": { "type": "MultiPolygon", "coordinates": [ [ [ [ 1259149.034566706512123, 5541881.343784033320844 ], [ 1259249.034566706512123, 5541881.343784033320844 ], [ 1259249.034566706512123, 5541781.343784033320844 ], [ 1259149.034566706512123, 5541781.343784033320844 ], [ 1259149.034566706512123, 5541881.343784033320844 ] ] ] ] } },
{ "type": "Feature", "properties": { "id": 9314, "street_cells": 256.3281202796847, "yard_cells": 4613.0571067452111, "utility": 0.52320094734637801, "num_areas": 1.0 }, "geometry": { "type": "MultiPolygon", "coordinates": [ [ [ [ 1259349.034566706512123, 5542381.343784033320844 ], [ 1259449.034566706512123, 5542381.343784033320844 ], [ 1259449.034566706512123, 5542281.343784033320844 ], [ 1259349.034566706512123, 5542281.343784033320844 ], [ 1259349.034566706512123, 5542381.343784033320844 ] ] ] ] } },
{ "type": "Feature", "properties": { "id": 9319, "street_cells": 420.08305368423459, "yard_cells": 4012.6217113361122, "utility": 0.52254128650385445, "num_areas": 2.0 }, "geometry": { "type": "MultiPolygon", "coordinates": [ [ [ [ 1259349.034566706512123, 5541881.343784033320844 ], [ 1259449.034566706512123, 5541881.343784033320844 ], [ 1259449.034566706512123, 5541781.343784033320844 ], [ 1259349.034566706512123, 5541781.343784033320844 ], [ 1259349.034566706512123, 5541881.343784033320844 ] ] ] ] } },
{ "type": "Feature", "properties": { "id": 9741, "street_cells": 2.3759009083732958, "yard_cells": 4828.3026421926916, "utility": 0.3504948053494038, "num_areas": 4.0 }, "geometry": { "type": "MultiPolygon", "coordinates": [ [ [ [ 1259649.278317219344899, 5547362.869409847073257 ], [ 1259670.590352218830958, 5547375.012775938026607 ], [ 1259681.98935675015673, 5547381.343784033320844 ], [ 1259749.034566706512123, 5547381.343784033320844 ], [ 1259749.034566706512123, 5547281.343784033320844 ], [ 1259649.034566706512123, 5547281.343784033320844 ], [ 1259649.034566706512123, 5547362.725936091504991 ], [ 1259649.278317219344899, 5547362.869409847073257 ] ] ] ] } },
{ "type": "Feature", "properties": { "id": 9798, "street_cells": 378.86575245838623, "yard_cells": 3701.97583973052, "utility": 0.47083980417045679, "num_areas": 2.0 }, "geometry": { "type": "MultiPolygon", "coordinates": [ [ [ [ 1259649.034566706512123, 5541681.343784033320844 ], [ 1259749.034566706512123, 5541681.343784033320844 ], [ 1259749.034566706512123, 5541581.343784033320844 ], [ 1259649.034566706512123, 5541581.343784033320844 ], [ 1259649.034566706512123, 5541681.343784033320844 ] ] ] ] } },
{ "type": "Feature", "properties": { "id": 10276, "street_cells": 208.80996038094159, "yard_cells": 4386.9847510553427, "utility": 0.61975647601967065, "num_areas": 0.0 }, "geometry": { "type": "MultiPolygon", "coordinates": [ [ [ [ 1259949.034566706512123, 5541581.343784033320844 ], [ 1260049.034566706512123, 5541581.343784033320844 ], [ 1260049.034566706512123, 5541481.343784033320844 ], [ 1259949.034566706512123, 5541481.343784033320844 ], [ 1259949.034566706512123, 5541581.343784033320844 ] ] ] ] } },
{ "type": "Feature", "properties": { "id": 10434, "street_cells": 379.17347317561507, "yard_cells": 4006.0994699173611, "utility": 0.53505615540858331, "num_areas": 1.0 }, "geometry": { "type": "MultiPolygon", "coordinates": [ [ [ [ 1260049.034566706512123, 5541681.343784033320844 ], [ 1260149.034566706512123, 5541681.343784033320844 ], [ 1260149.034566706512123, 5541581.343784033320844 ], [ 1260049.034566706512123, 5541581.343784033320844 ], [ 1260049.034566706512123, 5541681.343784033320844 ] ] ] ] } },
{ "type": "Feature", "properties": { "id": 10591, "street_cells": 5.9744626402854921, "yard_cells": 4359.1041282479709, "utility": 0.50423631156557136, "num_areas": 0.0 }, "geometry": { "type": "MultiPolygon", "coordinates": [ [ [ [ 1260149.034566706512123, 5541881.343784033320844 ], [ 1260249.034566706512123, 5541881.343784033320844 ], [ 1260249.034566706512123, 5541781.343784033320844 ], [ 1260149.034566706512123, 5541781.343784033320844 ], [ 1260149.034566706512123, 5541881.343784033320844 ] ] ] ] } },
{ "type": "Feature", "properties": { "id": 10750, "street_cells": 236.9960661418736, "yard_cells": 3819.0193392359652, "utility": 0.36049613300457217, "num_areas": 0.0 }, "geometry": { "type": "MultiPolygon", "coordinates": [ [ [ [ 1260249.034566706512123, 5541881.343784033320844 ], [ 1260349.034566706512123, 5541881.343784033320844 ], [ 1260349.034566706512123, 5541781.343784033320844 ], [ 1260249.034566706512123, 5541781.343784033320844 ], [ 1260249.034566706512123, 5541881.343784033320844 ] ] ] ] } },
{ "type": "Feature", "properties": { "id": 13756, "street_cells": 0.0, "yard_cells": 4889.2083321157843, "utility": 0.355066316097921, "num_areas": 0.0 }, "geometry": { "type": "MultiPolygon", "coordinates": [ [ [ [ 1262149.034566706512123, 5543381.343784033320844 ], [ 1262249.034566706512123, 5543381.343784033320844 ], [ 1262249.034566706512123, 5543281.343784033320844 ], [ 1262149.034566706512123, 5543281.343784033320844 ], [ 1262149.034566706512123, 5543381.343784033320844 ] ] ] ] } },
{ "type": "Feature", "properties": { "id": 14054, "street_cells": 0.0, "yard_cells": 6351.1158476867713, "utility": 0.53961395907630161, "num_areas": 0.0 }, "geometry": { "type": "MultiPolygon", "coordinates": [ [ [ [ 1262349.034566706512123, 5545381.343784033320844 ], [ 1262449.034566706512123, 5545381.343784033320844 ], [ 1262449.034566706512123, 5545281.343784033320844 ], [ 1262349.034566706512123, 5545281.343784033320844 ], [ 1262349.034566706512123, 5545381.343784033320844 ] ] ] ] } },
{ "type": "Feature", "properties": { "id": 14233, "street_cells": 360.0273892251775, "yard_cells": 4623.4276258559621, "utility": 0.56300716729690903, "num_areas": 1.0 }, "geometry": { "type": "MultiPolygon", "coordinates": [ [ [ [ 1262449.034566706512123, 5543381.343784033320844 ], [ 1262549.034566706512123, 5543381.343784033320844 ], [ 1262549.034566706512123, 5543281.343784033320844 ], [ 1262449.034566706512123, 5543281.343784033320844 ], [ 1262449.034566706512123, 5543381.343784033320844 ] ] ] ] } },
{ "type": "Feature", "properties": { "id": 15483, "street_cells": 0.0, "yard_cells": 5924.8242503711954, "utility": 0.61558237851129227, "num_areas": 0.0 }, "geometry": { "type": "MultiPolygon", "coordinates": [ [ [ [ 1263249.034566706512123, 5545581.343784033320844 ], [ 1263349.034566706512123, 5545581.343784033320844 ], [ 1263349.034566706512123, 5545481.343784033320844 ], [ 1263249.034566706512123, 5545481.343784033320844 ], [ 1263249.034566706512123, 5545581.343784033320844 ] ] ] ] } },
{ "type": "Feature", "properties": { "id": 15640, "street_cells": 285.08639860264958, "yard_cells": 5241.3123961271558, "utility": 0.52181578187535527, "num_areas": 1.0 }, "geometry": { "type": "MultiPolygon", "coordinates": [ [ [ [ 1263349.034566706512123, 5545781.343784033320844 ], [ 1263449.034566706512123, 5545781.343784033320844 ], [ 1263449.034566706512123, 5545681.343784033320844 ], [ 1263349.034566706512123, 5545681.343784033320844 ], [ 1263349.034566706512123, 5545781.343784033320844 ] ] ] ] } },
{ "type": "Feature", "properties": { "id": 15978, "street_cells": 0.0, "yard_cells": 5603.4457935541868, "utility": 0.61790776727505536, "num_areas": 0.0 }, "geometry": { "type": "MultiPolygon", "coordinates": [ [ [ [ 1263549.034566706512123, 5543781.343784033320844 ], [ 1263649.034566706512123, 5543781.343784033320844 ], [ 1263649.034566706512123, 5543681.343784033320844 ], [ 1263549.034566706512123, 5543681.343784033320844 ], [ 1263549.034566706512123, 5543781.343784033320844 ] ] ] ] } },
{ "type": "Feature", "properties": { "id": 15979, "street_cells": 732.15261323191226, "yard_cells": 5187.4791655037552, "utility": 0.40938016896774843, "num_areas": 1.0 }, "geometry": { "type": "MultiPolygon", "coordinates": [ [ [ [ 1263549.034566706512123, 5543681.343784033320844 ], [ 1263649.034566706512123, 5543681.343784033320844 ], [ 1263649.034566706512123, 5543581.343784033320844 ], [ 1263549.034566706512123, 5543581.343784033320844 ], [ 1263549.034566706512123, 5543681.343784033320844 ] ] ] ] } },
{ "type": "Feature", "properties": { "id": 16137, "street_cells": 168.62465070784091, "yard_cells": 4610.8284833878861, "utility": 0.56946074268915325, "num_areas": 0.0 }, "geometry": { "type": "MultiPolygon", "coordinates": [ [ [ [ 1263649.034566706512123, 5543781.343784033320844 ], [ 1263749.034566706512123, 5543781.343784033320844 ], [ 1263749.034566706512123, 5543681.343784033320844 ], [ 1263649.034566706512123, 5543681.343784033320844 ], [ 1263649.034566706512123, 5543781.343784033320844 ] ] ] ] } },
{ "type": "Feature", "properties": { "id": 16446, "street_cells": 258.4470125362277, "yard_cells": 4984.0696221873332, "utility": 0.49986573754603297, "num_areas": 0.0 }, "geometry": { "type": "MultiPolygon", "coordinates": [ [ [ [ 1263849.034566706512123, 5544681.343784033320844 ], [ 1263949.034566706512123, 5544681.343784033320844 ], [ 1263949.034566706512123, 5544581.343784033320844 ], [ 1263849.034566706512123, 5544581.343784033320844 ], [ 1263849.034566706512123, 5544681.343784033320844 ] ] ] ] } },
{ "type": "Feature", "properties": { "id": 16927, "street_cells": 64.424480557069188, "yard_cells": 5267.9026477793632, "utility": 0.50111132732620278, "num_areas": 1.0 }, "geometry": { "type": "MultiPolygon", "coordinates": [ [ [ [ 1264149.034566706512123, 5544281.343784033320844 ], [ 1264249.034566706512123, 5544281.343784033320844 ], [ 1264249.034566706512123, 5544181.343784033320844 ], [ 1264149.034566706512123, 5544181.343784033320844 ], [ 1264149.034566706512123, 5544281.343784033320844 ] ] ] ] } },
{ "type": "Feature", "properties": { "id": 18878, "street_cells": 478.64365828293381, "yard_cells": 4292.7467013206333, "utility": 0.59744424943702545, "num_areas": 0.0 }, "geometry": { "type": "MultiPolygon", "coordinates": [ [ [ [ 1265349.034566706512123, 5539981.343784033320844 ], [ 1265449.034566706512123, 5539981.343784033320844 ], [ 1265449.034566706512123, 5539881.343784033320844 ], [ 1265349.034566706512123, 5539881.343784033320844 ], [ 1265349.034566706512123, 5539981.343784033320844 ] ] ] ] } },
{ "type": "Feature", "properties": { "id": 18879, "street_cells": 668.17917704880244, "yard_cells": 3830.4666534550488, "utility": 0.41479889914080909, "num_areas": 1.0 }, "geometry": { "type": "MultiPolygon", "coordinates": [ [ [ [ 1265349.034566706512123, 5539881.343784033320844 ], [ 1265449.034566706512123, 5539881.343784033320844 ], [ 1265449.034566706512123, 5539781.343784033320844 ], [ 1265349.034566706512123, 5539781.343784033320844 ], [ 1265349.034566706512123, 5539881.343784033320844 ] ] ] ] } },
{ "type": "Feature", "properties": { "id": 18880, "street_cells": 522.31057634353635, "yard_cells": 3540.196528506116, "utility": 0.37959093902406371, "num_areas": 2.0 }, "geometry": { "type": "MultiPolygon", "coordinates": [ [ [ [ 1265349.034566706512123, 5539781.343784033320844 ], [ 1265449.034566706512123, 5539781.343784033320844 ], [ 1265449.034566706512123, 5539681.343784033320844 ], [ 1265349.034566706512123, 5539681.343784033320844 ], [ 1265349.034566706512123, 5539781.343784033320844 ] ] ] ] } },
{ "type": "Feature", "properties": { "id": 18881, "street_cells": 346.2276368647814, "yard_cells": 3983.2930382043269, "utility": 0.56758247364907721, "num_areas": 0.0 }, "geometry": { "type": "MultiPolygon", "coordinates": [ [ [ [ 1265349.034566706512123, 5539681.343784033320844 ], [ 1265449.034566706512123, 5539681.343784033320844 ], [ 1265449.034566706512123, 5539581.343784033320844 ], [ 1265349.034566706512123, 5539581.343784033320844 ], [ 1265349.034566706512123, 5539681.343784033320844 ] ] ] ] } },
{ "type": "Feature", "properties": { "id": 19036, "street_cells": 373.47678840458389, "yard_cells": 4087.450643396277, "utility": 0.61470457378383292, "num_areas": 0.0 }, "geometry": { "type": "MultiPolygon", "coordinates": [ [ [ [ 1265449.034566706512123, 5540081.343784033320844 ], [ 1265549.034566706512123, 5540081.343784033320844 ], [ 1265549.034566706512123, 5539981.343784033320844 ], [ 1265449.034566706512123, 5539981.343784033320844 ], [ 1265449.034566706512123, 5540081.343784033320844 ] ] ] ] } },
{ "type": "Feature", "properties": { "id": 19037, "street_cells": 405.75128435343498, "yard_cells": 4360.9408056268003, "utility": 0.65529582908013284, "num_areas": 0.0 }, "geometry": { "type": "MultiPolygon", "coordinates": [ [ [ [ 1265449.034566706512123, 5539981.343784033320844 ], [ 1265549.034566706512123, 5539981.343784033320844 ], [ 1265549.034566706512123, 5539881.343784033320844 ], [ 1265449.034566706512123, 5539881.343784033320844 ], [ 1265449.034566706512123, 5539981.343784033320844 ] ] ] ] } },
{ "type": "Feature", "properties": { "id": 19038, "street_cells": 80.951580361649405, "yard_cells": 4371.0481571038254, "utility": 0.50073714299988281, "num_areas": 0.0 }, "geometry": { "type": "MultiPolygon", "coordinates": [ [ [ [ 1265449.034566706512123, 5539881.343784033320844 ], [ 1265549.034566706512123, 5539881.343784033320844 ], [ 1265549.034566706512123, 5539781.343784033320844 ], [ 1265449.034566706512123, 5539781.343784033320844 ], [ 1265449.034566706512123, 5539881.343784033320844 ] ] ] ] } },
{ "type": "Feature", "properties": { "id": 19042, "street_cells": 513.53310373425484, "yard_cells": 3489.336011483334, "utility": 0.56708483012727284, "num_areas": 1.0 }, "geometry": { "type": "MultiPolygon", "coordinates": [ [ [ [ 1265449.034566706512123, 5539481.343784033320844 ], [ 1265549.034566706512123, 5539481.343784033320844 ], [ 1265549.034566706512123, 5539381.343784033320844 ], [ 1265449.034566706512123, 5539381.343784033320844 ], [ 1265449.034566706512123, 5539481.343784033320844 ] ] ] ] } },
{ "type": "Feature", "properties": { "id": 19184, "street_cells": 239.66862864196301, "yard_cells": 5304.0008095055819, "utility": 0.35537073164935568, "num_areas": 0.0 }, "geometry": { "type": "MultiPolygon", "coordinates": [ [ [ [ 1265549.034566706512123, 5541181.343784033320844 ], [ 1265649.034566706512123, 5541181.343784033320844 ], [ 1265649.034566706512123, 5541081.343784033320844 ], [ 1265549.034566706512123, 5541081.343784033320844 ], [ 1265549.034566706512123, 5541181.343784033320844 ] ] ] ] } },
{ "type": "Feature", "properties": { "id": 19193, "street_cells": 435.96157276406888, "yard_cells": 3627.7988280953632, "utility": 0.55961721643879236, "num_areas": 1.0 }, "geometry": { "type": "MultiPolygon", "coordinates": [ [ [ [ 1265549.034566706512123, 5540281.343784033320844 ], [ 1265649.034566706512123, 5540281.343784033320844 ], [ 1265649.034566706512123, 5540181.343784033320844 ], [ 1265549.034566706512123, 5540181.343784033320844 ], [ 1265549.034566706512123, 5540281.343784033320844 ] ] ] ] } },
{ "type": "Feature", "properties": { "id": 19195, "street_cells": 521.43410122096543, "yard_cells": 3775.21623814851, "utility": 0.62367148540702899, "num_areas": 0.0 }, "geometry": { "type": "MultiPolygon", "coordinates": [ [ [ [ 1265549.034566706512123, 5540081.343784033320844 ], [ 1265649.034566706512123, 5540081.343784033320844 ], [ 1265649.034566706512123, 5539981.343784033320844 ], [ 1265549.034566706512123, 5539981.343784033320844 ], [ 1265549.034566706512123, 5540081.343784033320844 ] ] ] ] } },
{ "type": "Feature", "properties": { "id": 19196, "street_cells": 475.16706460341811, "yard_cells": 3546.2852603202518, "utility": 0.52745908135667086, "num_areas": 0.0 }, "geometry": { "type": "MultiPolygon", "coordinates": [ [ [ [ 1265549.034566706512123, 5539981.343784033320844 ], [ 1265649.034566706512123, 5539981.343784033320844 ], [ 1265649.034566706512123, 5539881.343784033320844 ], [ 1265549.034566706512123, 5539881.343784033320844 ], [ 1265549.034566706512123, 5539981.343784033320844 ] ] ] ] } },
{ "type": "Feature", "properties": { "id": 19350, "street_cells": 290.12997418855377, "yard_cells": 4110.1473970487714, "utility": 0.50117435875748029, "num_areas": 0.0 }, "geometry": { "type": "MultiPolygon", "coordinates": [ [ [ [ 1265649.034566706512123, 5540481.343784033320844 ], [ 1265749.034566706512123, 5540481.343784033320844 ], [ 1265749.034566706512123, 5540381.343784033320844 ], [ 1265649.034566706512123, 5540381.343784033320844 ], [ 1265649.034566706512123, 5540481.343784033320844 ] ] ] ] } },
{ "type": "Feature", "properties": { "id": 19498, "street_cells": 2.689874032139778, "yard_cells": 6047.263721998781, "utility": 0.5596875198892185, "num_areas": 0.0 }, "geometry": { "type": "MultiPolygon", "coordinates": [ [ [ [ 1265749.034566706512123, 5541581.343784033320844 ], [ 1265849.034566706512123, 5541581.343784033320844 ], [ 1265849.034566706512123, 5541481.343784033320844 ], [ 1265749.034566706512123, 5541481.343784033320844 ], [ 1265749.034566706512123, 5541581.343784033320844 ] ] ] ] } },
{ "type": "Feature", "properties": { "id": 19504, "street_cells": 0.0, "yard_cells": 6084.0324303353718, "utility": 0.61738861365211539, "num_areas": 0.0 }, "geometry": { "type": "MultiPolygon", "coordinates": [ [ [ [ 1265749.034566706512123, 5540981.343784033320844 ], [ 1265849.034566706512123, 5540981.343784033320844 ], [ 1265849.034566706512123, 5540881.343784033320844 ], [ 1265749.034566706512123, 5540881.343784033320844 ], [ 1265749.034566706512123, 5540981.343784033320844 ] ] ] ] } },
{ "type": "Feature", "properties": { "id": 19515, "street_cells": 224.4186478352174, "yard_cells": 4009.480566403206, "utility": 0.52349613701234354, "num_areas": 1.0 }, "geometry": { "type": "MultiPolygon", "coordinates": [ [ [ [ 1265749.034566706512123, 5539881.343784033320844 ], [ 1265849.034566706512123, 5539881.343784033320844 ], [ 1265849.034566706512123, 5539781.343784033320844 ], [ 1265749.034566706512123, 5539781.343784033320844 ], [ 1265749.034566706512123, 5539881.343784033320844 ] ] ] ] } },
{ "type": "Feature", "properties": { "id": 19645, "street_cells": 173.04713539555669, "yard_cells": 4510.8627101369202, "utility": 0.4808365968496604, "num_areas": 0.0 }, "geometry": { "type": "MultiPolygon", "coordinates": [ [ [ [ 1265849.034566706512123, 5542781.343784033320844 ], [ 1265949.034566706512123, 5542781.343784033320844 ], [ 1265949.034566706512123, 5542681.343784033320844 ], [ 1265849.034566706512123, 5542681.343784033320844 ], [ 1265849.034566706512123, 5542781.343784033320844 ] ] ] ] } },
{ "type": "Feature", "properties": { "id": 19673, "street_cells": 480.45754584297538, "yard_cells": 3820.482431656681, "utility": 0.076275185570416501, "num_areas": 0.0 }, "geometry": { "type": "MultiPolygon", "coordinates": [ [ [ [ 1265849.034566706512123, 5539981.343784033320844 ], [ 1265949.034566706512123, 5539981.343784033320844 ], [ 1265949.034566706512123, 5539881.343784033320844 ], [ 1265849.034566706512123, 5539881.343784033320844 ], [ 1265849.034566706512123, 5539981.343784033320844 ] ] ] ] } },
{ "type": "Feature", "properties": { "id": 19675, "street_cells": 237.33096101582049, "yard_cells": 4757.0810152050108, "utility": 0.66242147791088746, "num_areas": 0.0 }, "geometry": { "type": "MultiPolygon", "coordinates": [ [ [ [ 1265849.034566706512123, 5539781.343784033320844 ], [ 1265949.034566706512123, 5539781.343784033320844 ], [ 1265949.034566706512123, 5539681.343784033320844 ], [ 1265849.034566706512123, 5539681.343784033320844 ], [ 1265849.034566706512123, 5539781.343784033320844 ] ] ] ] } },
{ "type": "Feature", "properties": { "id": 19676, "street_cells": 176.95648867692799, "yard_cells": 4110.7116539726267, "utility": 0.41616123915455799, "num_areas": 4.0 }, "geometry": { "type": "MultiPolygon", "coordinates": [ [ [ [ 1265849.034566706512123, 5539681.343784033320844 ], [ 1265949.034566706512123, 5539681.343784033320844 ], [ 1265949.034566706512123, 5539581.343784033320844 ], [ 1265849.034566706512123, 5539581.343784033320844 ], [ 1265849.034566706512123, 5539681.343784033320844 ] ] ] ] } },
{ "type": "Feature", "properties": { "id": 19680, "street_cells": 271.95692361593251, "yard_cells": 3929.2479140009959, "utility": 0.40905730754330588, "num_areas": 2.0 }, "geometry": { "type": "MultiPolygon", "coordinates": [ [ [ [ 1265849.034566706512123, 5539281.343784033320844 ], [ 1265949.034566706512123, 5539281.343784033320844 ], [ 1265949.034566706512123, 5539181.343784033320844 ], [ 1265849.034566706512123, 5539181.343784033320844 ], [ 1265849.034566706512123, 5539281.343784033320844 ] ] ] ] } },
{ "type": "Feature", "properties": { "id": 19817, "street_cells": 17.14005324691534, "yard_cells": 5343.5231939997757, "utility": 0.51072018332516944, "num_areas": 1.0 }, "geometry": { "type": "MultiPolygon", "coordinates": [ [ [ [ 1265949.034566706512123, 5541481.343784033320844 ], [ 1266049.034566706512123, 5541481.343784033320844 ], [ 1266049.034566706512123, 5541381.343784033320844 ], [ 1265949.034566706512123, 5541381.343784033320844 ], [ 1265949.034566706512123, 5541481.343784033320844 ] ] ] ] } },
{ "type": "Feature", "properties": { "id": 19833, "street_cells": 427.81377203959278, "yard_cells": 4205.4350444953889, "utility": 0.17935657233127281, "num_areas": 3.0 }, "geometry": { "type": "MultiPolygon", "coordinates": [ [ [ [ 1265949.034566706512123, 5539881.343784033320844 ], [ 1266049.034566706512123, 5539881.343784033320844 ], [ 1266049.034566706512123, 5539781.343784033320844 ], [ 1265949.034566706512123, 5539781.343784033320844 ], [ 1265949.034566706512123, 5539881.343784033320844 ] ] ] ] } },
{ "type": "Feature", "properties": { "id": 19834, "street_cells": 536.11474357784027, "yard_cells": 3534.737512099091, "utility": 0.52199198633912414, "num_areas": 0.0 }, "geometry": { "type": "MultiPolygon", "coordinates": [ [ [ [ 1265949.034566706512123, 5539781.343784033320844 ], [ 1266049.034566706512123, 5539781.343784033320844 ], [ 1266049.034566706512123, 5539681.343784033320844 ], [ 1265949.034566706512123, 5539681.343784033320844 ], [ 1265949.034566706512123, 5539781.343784033320844 ] ] ] ] } },
{ "type": "Feature", "properties": { "id": 19962, "street_cells": 48.579624502733353, "yard_cells": 4697.0846736233216, "utility": 0.39699090754781807, "num_areas": 0.0 }, "geometry": { "type": "MultiPolygon", "coordinates": [ [ [ [ 1266049.034566706512123, 5542881.343784033320844 ], [ 1266149.034566706512123, 5542881.343784033320844 ], [ 1266149.034566706512123, 5542781.343784033320844 ], [ 1266049.034566706512123, 5542781.343784033320844 ], [ 1266049.034566706512123, 5542881.343784033320844 ] ] ] ] } },
{ "type": "Feature", "properties": { "id": 20155, "street_cells": 234.3548985274509, "yard_cells": 4477.8901821686886, "utility": 0.49140042768330933, "num_areas": 0.0 }, "geometry": { "type": "MultiPolygon", "coordinates": [ [ [ [ 1266149.034566706512123, 5539481.343784033320844 ], [ 1266249.034566706512123, 5539481.343784033320844 ], [ 1266249.034566706512123, 5539381.343784033320844 ], [ 1266149.034566706512123, 5539381.343784033320844 ], [ 1266149.034566706512123, 5539481.343784033320844 ] ] ] ] } },
{ "type": "Feature", "properties": { "id": 20156, "street_cells": 427.43424261324111, "yard_cells": 4347.3148755629663, "utility": 0.63242497164359823, "num_areas": 0.0 }, "geometry": { "type": "MultiPolygon", "coordinates": [ [ [ [ 1266149.034566706512123, 5539381.343784033320844 ], [ 1266249.034566706512123, 5539381.343784033320844 ], [ 1266249.034566706512123, 5539281.343784033320844 ], [ 1266149.034566706512123, 5539281.343784033320844 ], [ 1266149.034566706512123, 5539381.343784033320844 ] ] ] ] } },
{ "type": "Feature", "properties": { "id": 20157, "street_cells": 398.08790247887367, "yard_cells": 4665.5144264637493, "utility": 0.65061970040522266, "num_areas": 0.0 }, "geometry": { "type": "MultiPolygon", "coordinates": [ [ [ [ 1266149.034566706512123, 5539281.343784033320844 ], [ 1266249.034566706512123, 5539281.343784033320844 ], [ 1266249.034566706512123, 5539181.343784033320844 ], [ 1266149.034566706512123, 5539181.343784033320844 ], [ 1266149.034566706512123, 5539281.343784033320844 ] ] ] ] } },
{ "type": "Feature", "properties": { "id": 20158, "street_cells": 93.022410947084438, "yard_cells": 4457.5815007044002, "utility": 0.59384885616578054, "num_areas": 0.0 }, "geometry": { "type": "MultiPolygon", "coordinates": [ [ [ [ 1266149.034566706512123, 5539181.343784033320844 ], [ 1266249.034566706512123, 5539181.343784033320844 ], [ 1266249.034566706512123, 5539081.343784033320844 ], [ 1266149.034566706512123, 5539081.343784033320844 ], [ 1266149.034566706512123, 5539181.343784033320844 ] ] ] ] } },
{ "type": "Feature", "properties": { "id": 20307, "street_cells": 537.18822092115886, "yard_cells": 4275.1250982494093, "utility": 0.61700635199998188, "num_areas": 0.0 }, "geometry": { "type": "MultiPolygon", "coordinates": [ [ [ [ 1266249.034566706512123, 5540181.343784033320844 ], [ 1266349.034566706512123, 5540181.343784033320844 ], [ 1266349.034566706512123, 5540081.343784033320844 ], [ 1266249.034566706512123, 5540081.343784033320844 ], [ 1266249.034566706512123, 5540181.343784033320844 ] ] ] ] } },
{ "type": "Feature", "properties": { "id": 20316, "street_cells": 76.873986503761273, "yard_cells": 5002.0070006772876, "utility": 0.51123653593571261, "num_areas": 0.0 }, "geometry": { "type": "MultiPolygon", "coordinates": [ [ [ [ 1266249.034566706512123, 5539281.343784033320844 ], [ 1266349.034566706512123, 5539281.343784033320844 ], [ 1266349.034566706512123, 5539181.343784033320844 ], [ 1266249.034566706512123, 5539181.343784033320844 ], [ 1266249.034566706512123, 5539281.343784033320844 ] ] ] ] } },
{ "type": "Feature", "properties": { "id": 20954, "street_cells": 63.054135034978387, "yard_cells": 6250.9698437964544, "utility": 0.5825110330040657, "num_areas": 0.0 }, "geometry": { "type": "MultiPolygon", "coordinates": [ [ [ [ 1266649.034566706512123, 5539081.343784033320844 ], [ 1266749.034566706512123, 5539081.343784033320844 ], [ 1266749.034566706512123, 5538981.343784033320844 ], [ 1266649.034566706512123, 5538981.343784033320844 ], [ 1266649.034566706512123, 5539081.343784033320844 ] ] ] ] } },
{ "type": "Feature", "properties": { "id": 21105, "street_cells": 410.31305187175752, "yard_cells": 4927.360329084564, "utility": 0.62450270115796913, "num_areas": 0.0 }, "geometry": { "type": "MultiPolygon", "coordinates": [ [ [ [ 1266749.034566706512123, 5539881.343784033320844 ], [ 1266849.034566706512123, 5539881.343784033320844 ], [ 1266849.034566706512123, 5539781.343784033320844 ], [ 1266749.034566706512123, 5539781.343784033320844 ], [ 1266749.034566706512123, 5539881.343784033320844 ] ] ] ] } },
{ "type": "Feature", "properties": { "id": 21113, "street_cells": 88.551796498894703, "yard_cells": 4722.670635862276, "utility": 0.36953245985988248, "num_areas": 1.0 }, "geometry": { "type": "MultiPolygon", "coordinates": [ [ [ [ 1266749.034566706512123, 5539081.343784033320844 ], [ 1266849.034566706512123, 5539081.343784033320844 ], [ 1266849.034566706512123, 5538981.343784033320844 ], [ 1266749.034566706512123, 5538981.343784033320844 ], [ 1266749.034566706512123, 5539081.343784033320844 ] ] ] ] } },
{ "type": "Feature", "properties": { "id": 21271, "street_cells": 564.69449868351228, "yard_cells": 3166.5044721581512, "utility": 0.5188653090601183, "num_areas": 0.0 }, "geometry": { "type": "MultiPolygon", "coordinates": [ [ [ [ 1266849.034566706512123, 5539181.343784033320844 ], [ 1266949.034566706512123, 5539181.343784033320844 ], [ 1266949.034566706512123, 5539081.343784033320844 ], [ 1266849.034566706512123, 5539081.343784033320844 ], [ 1266849.034566706512123, 5539181.343784033320844 ] ] ] ] } },
{ "type": "Feature", "properties": { "id": 21430, "street_cells": 671.77059135115712, "yard_cells": 2846.3455800837842, "utility": 0.48418300631698502, "num_areas": 1.0 }, "geometry": { "type": "MultiPolygon", "coordinates": [ [ [ [ 1266949.034566706512123, 5539181.343784033320844 ], [ 1267049.034566706512123, 5539181.343784033320844 ], [ 1267049.034566706512123, 5539081.343784033320844 ], [ 1266949.034566706512123, 5539081.343784033320844 ], [ 1266949.034566706512123, 5539181.343784033320844 ] ] ] ] } },
{ "type": "Feature", "properties": { "id": 21581, "street_cells": 387.23632563613359, "yard_cells": 4578.2422373865274, "utility": 0.55961287273058635, "num_areas": 0.0 }, "geometry": { "type": "MultiPolygon", "coordinates": [ [ [ [ 1267049.034566706512123, 5539981.343784033320844 ], [ 1267149.034566706512123, 5539981.343784033320844 ], [ 1267149.034566706512123, 5539881.343784033320844 ], [ 1267049.034566706512123, 5539881.343784033320844 ], [ 1267049.034566706512123, 5539981.343784033320844 ] ] ] ] } },
{ "type": "Feature", "properties": { "id": 21582, "street_cells": 401.67031501755122, "yard_cells": 4433.2278954680078, "utility": 0.57284628080007183, "num_areas": 0.0 }, "geometry": { "type": "MultiPolygon", "coordinates": [ [ [ [ 1267049.034566706512123, 5539881.343784033320844 ], [ 1267149.034566706512123, 5539881.343784033320844 ], [ 1267149.034566706512123, 5539781.343784033320844 ], [ 1267049.034566706512123, 5539781.343784033320844 ], [ 1267049.034566706512123, 5539881.343784033320844 ] ] ] ] } },
{ "type": "Feature", "properties": { "id": 21587, "street_cells": 435.0011513158679, "yard_cells": 3799.5283828387041, "utility": 0.62095007878321129, "num_areas": 0.0 }, "geometry": { "type": "MultiPolygon", "coordinates": [ [ [ [ 1267049.034566706512123, 5539381.343784033320844 ], [ 1267149.034566706512123, 5539381.343784033320844 ], [ 1267149.034566706512123, 5539281.343784033320844 ], [ 1267049.034566706512123, 5539281.343784033320844 ], [ 1267049.034566706512123, 5539381.343784033320844 ] ] ] ] } },
{ "type": "Feature", "properties": { "id": 21588, "street_cells": 382.48125309571628, "yard_cells": 4492.831018535886, "utility": 0.67486446586356996, "num_areas": 0.0 }, "geometry": { "type": "MultiPolygon", "coordinates": [ [ [ [ 1267049.034566706512123, 5539281.343784033320844 ], [ 1267149.034566706512123, 5539281.343784033320844 ], [ 1267149.034566706512123, 5539181.343784033320844 ], [ 1267049.034566706512123, 5539181.343784033320844 ], [ 1267049.034566706512123, 5539281.343784033320844 ] ] ] ] } },
{ "type": "Feature", "properties": { "id": 21592, "street_cells": 403.89863750189551, "yard_cells": 3395.4172244458459, "utility": 0.29758480040265489, "num_areas": 0.0 }, "geometry": { "type": "MultiPolygon", "coordinates": [ [ [ [ 1267049.034566706512123, 5538881.343784033320844 ], [ 1267149.034566706512123, 5538881.343784033320844 ], [ 1267149.034566706512123, 5538781.343784033320844 ], [ 1267049.034566706512123, 5538781.343784033320844 ], [ 1267049.034566706512123, 5538881.343784033320844 ] ] ] ] } },
{ "type": "Feature", "properties": { "id": 21740, "street_cells": 608.85388379096992, "yard_cells": 3093.9890941488561, "utility": 0.61306994607554621, "num_areas": 0.0 }, "geometry": { "type": "MultiPolygon", "coordinates": [ [ [ [ 1267149.034566706512123, 5539981.343784033320844 ], [ 1267249.034566706512123, 5539981.343784033320844 ], [ 1267249.034566706512123, 5539881.343784033320844 ], [ 1267149.034566706512123, 5539881.343784033320844 ], [ 1267149.034566706512123, 5539981.343784033320844 ] ] ] ] } },
{ "type": "Feature", "properties": { "id": 21741, "street_cells": 372.95016006529329, "yard_cells": 4514.1450785961933, "utility": 0.76006595865899818, "num_areas": 0.0 }, "geometry": { "type": "MultiPolygon", "coordinates": [ [ [ [ 1267149.034566706512123, 5539881.343784033320844 ], [ 1267249.034566706512123, 5539881.343784033320844 ], [ 1267249.034566706512123, 5539781.343784033320844 ], [ 1267149.034566706512123, 5539781.343784033320844 ], [ 1267149.034566706512123, 5539881.343784033320844 ] ] ] ] } },
{ "type": "Feature", "properties": { "id": 21743, "street_cells": 60.846038025617602, "yard_cells": 4012.9900273308158, "utility": 0.46956599658843767, "num_areas": 2.0 }, "geometry": { "type": "MultiPolygon", "coordinates": [ [ [ [ 1267149.034566706512123, 5539681.343784033320844 ], [ 1267249.034566706512123, 5539681.343784033320844 ], [ 1267249.034566706512123, 5539581.343784033320844 ], [ 1267149.034566706512123, 5539581.343784033320844 ], [ 1267149.034566706512123, 5539681.343784033320844 ] ] ] ] } },
{ "type": "Feature", "properties": { "id": 21746, "street_cells": 348.48698984310028, "yard_cells": 3806.581533207494, "utility": 0.67170906319784429, "num_areas": 2.0 }, "geometry": { "type": "MultiPolygon", "coordinates": [ [ [ [ 1267149.034566706512123, 5539381.343784033320844 ], [ 1267249.034566706512123, 5539381.343784033320844 ], [ 1267249.034566706512123, 5539281.343784033320844 ], [ 1267149.034566706512123, 5539281.343784033320844 ], [ 1267149.034566706512123, 5539381.343784033320844 ] ] ] ] } },
{ "type": "Feature", "properties": { "id": 21747, "street_cells": 813.42545765787372, "yard_cells": 3176.493515506826, "utility": 0.42012735167775761, "num_areas": 0.0 }, "geometry": { "type": "MultiPolygon", "coordinates": [ [ [ [ 1267149.034566706512123, 5539281.343784033320844 ], [ 1267249.034566706512123, 5539281.343784033320844 ], [ 1267249.034566706512123, 5539181.343784033320844 ], [ 1267149.034566706512123, 5539181.343784033320844 ], [ 1267149.034566706512123, 5539281.343784033320844 ] ] ] ] } },
{ "type": "Feature", "properties": { "id": 21748, "street_cells": 353.9739038899541, "yard_cells": 4297.2898027570918, "utility": 0.65821870652228376, "num_areas": 0.0 }, "geometry": { "type": "MultiPolygon", "coordinates": [ [ [ [ 1267149.034566706512123, 5539181.343784033320844 ], [ 1267249.034566706512123, 5539181.343784033320844 ], [ 1267249.034566706512123, 5539081.343784033320844 ], [ 1267149.034566706512123, 5539081.343784033320844 ], [ 1267149.034566706512123, 5539181.343784033320844 ] ] ] ] } },
{ "type": "Feature", "properties": { "id": 21749, "street_cells": 755.29230554997923, "yard_cells": 2716.0846163731771, "utility": 0.42184054648767683, "num_areas": 2.0 }, "geometry": { "type": "MultiPolygon", "coordinates": [ [ [ [ 1267149.034566706512123, 5539081.343784033320844 ], [ 1267249.034566706512123, 5539081.343784033320844 ], [ 1267249.034566706512123, 5538981.343784033320844 ], [ 1267149.034566706512123, 5538981.343784033320844 ], [ 1267149.034566706512123, 5539081.343784033320844 ] ] ] ] } },
{ "type": "Feature", "properties": { "id": 21750, "street_cells": 114.0777150414884, "yard_cells": 3584.944430006668, "utility": 0.28788254930781842, "num_areas": 0.0 }, "geometry": { "type": "MultiPolygon", "coordinates": [ [ [ [ 1267149.034566706512123, 5538981.343784033320844 ], [ 1267249.034566706512123, 5538981.343784033320844 ], [ 1267249.034566706512123, 5538881.343784033320844 ], [ 1267149.034566706512123, 5538881.343784033320844 ], [ 1267149.034566706512123, 5538981.343784033320844 ] ] ] ] } },
{ "type": "Feature", "properties": { "id": 21751, "street_cells": 35.723422852158549, "yard_cells": 4487.6194094396196, "utility": 0.5344633827520282, "num_areas": 0.0 }, "geometry": { "type": "MultiPolygon", "coordinates": [ [ [ [ 1267149.034566706512123, 5538881.343784033320844 ], [ 1267249.034566706512123, 5538881.343784033320844 ], [ 1267249.034566706512123, 5538781.343784033320844 ], [ 1267149.034566706512123, 5538781.343784033320844 ], [ 1267149.034566706512123, 5538881.343784033320844 ] ] ] ] } },
{ "type": "Feature", "properties": { "id": 21898, "street_cells": 496.22067376971239, "yard_cells": 3678.1014554604581, "utility": 0.55639521763455613, "num_areas": 3.0 }, "geometry": { "type": "MultiPolygon", "coordinates": [ [ [ [ 1267249.034566706512123, 5540081.343784033320844 ], [ 1267349.034566706512123, 5540081.343784033320844 ], [ 1267349.034566706512123, 5539981.343784033320844 ], [ 1267249.034566706512123, 5539981.343784033320844 ], [ 1267249.034566706512123, 5540081.343784033320844 ] ] ] ] } },
{ "type": "Feature", "properties": { "id": 21901, "street_cells": 451.28774762153631, "yard_cells": 4348.6233609674673, "utility": 0.72754180432568127, "num_areas": 0.0 }, "geometry": { "type": "MultiPolygon", "coordinates": [ [ [ [ 1267249.034566706512123, 5539781.343784033320844 ], [ 1267349.034566706512123, 5539781.343784033320844 ], [ 1267349.034566706512123, 5539681.343784033320844 ], [ 1267249.034566706512123, 5539681.343784033320844 ], [ 1267249.034566706512123, 5539781.343784033320844 ] ] ] ] } },
{ "type": "Feature", "properties": { "id": 21904, "street_cells": 453.98959315903488, "yard_cells": 4209.1956651906748, "utility": 0.74725040354948713, "num_areas": 0.0 }, "geometry": { "type": "MultiPolygon", "coordinates": [ [ [ [ 1267249.034566706512123, 5539481.343784033320844 ], [ 1267349.034566706512123, 5539481.343784033320844 ], [ 1267349.034566706512123, 5539381.343784033320844 ], [ 1267249.034566706512123, 5539381.343784033320844 ], [ 1267249.034566706512123, 5539481.343784033320844 ] ] ] ] } },
{ "type": "Feature", "properties": { "id": 21905, "street_cells": 709.29557994604113, "yard_cells": 3342.3438205712168, "utility": 0.58261930306055321, "num_areas": 2.0 }, "geometry": { "type": "MultiPolygon", "coordinates": [ [ [ [ 1267249.034566706512123, 5539381.343784033320844 ], [ 1267349.034566706512123, 5539381.343784033320844 ], [ 1267349.034566706512123, 5539281.343784033320844 ], [ 1267249.034566706512123, 5539281.343784033320844 ], [ 1267249.034566706512123, 5539381.343784033320844 ] ] ] ] } },
{ "type": "Feature", "properties": { "id": 21907, "street_cells": 421.37787138968707, "yard_cells": 4340.0818873234093, "utility": 0.76590443555243726, "num_areas": 0.0 }, "geometry": { "type": "MultiPolygon", "coordinates": [ [ [ [ 1267249.034566706512123, 5539181.343784033320844 ], [ 1267349.034566706512123, 5539181.343784033320844 ], [ 1267349.034566706512123, 5539081.343784033320844 ], [ 1267249.034566706512123, 5539081.343784033320844 ], [ 1267249.034566706512123, 5539181.343784033320844 ] ] ] ] } },
{ "type": "Feature", "properties": { "id": 21908, "street_cells": 479.57036407887938, "yard_cells": 3491.0726634482271, "utility": 0.50703329581503864, "num_areas": 2.0 }, "geometry": { "type": "MultiPolygon", "coordinates": [ [ [ [ 1267249.034566706512123, 5539081.343784033320844 ], [ 1267349.034566706512123, 5539081.343784033320844 ], [ 1267349.034566706512123, 5538981.343784033320844 ], [ 1267249.034566706512123, 5538981.343784033320844 ], [ 1267249.034566706512123, 5539081.343784033320844 ] ] ] ] } },
{ "type": "Feature", "properties": { "id": 21910, "street_cells": 0.0, "yard_cells": 4533.4620077293366, "utility": 0.54413990772903964, "num_areas": 0.0 }, "geometry": { "type": "MultiPolygon", "coordinates": [ [ [ [ 1267249.034566706512123, 5538881.343784033320844 ], [ 1267349.034566706512123, 5538881.343784033320844 ], [ 1267349.034566706512123, 5538781.343784033320844 ], [ 1267249.034566706512123, 5538781.343784033320844 ], [ 1267249.034566706512123, 5538881.343784033320844 ] ] ] ] } },
{ "type": "Feature", "properties": { "id": 22060, "street_cells": 460.20492895767097, "yard_cells": 2996.1672439456452, "utility": 0.41535656126434201, "num_areas": 3.0 }, "geometry": { "type": "MultiPolygon", "coordinates": [ [ [ [ 1267349.034566706512123, 5539781.343784033320844 ], [ 1267449.034566706512123, 5539781.343784033320844 ], [ 1267449.034566706512123, 5539681.343784033320844 ], [ 1267349.034566706512123, 5539681.343784033320844 ], [ 1267349.034566706512123, 5539781.343784033320844 ] ] ] ] } },
{ "type": "Feature", "properties": { "id": 22062, "street_cells": 101.1085877969861, "yard_cells": 3683.124388159104, "utility": 0.37787369882498922, "num_areas": 2.0 }, "geometry": { "type": "MultiPolygon", "coordinates": [ [ [ [ 1267349.034566706512123, 5539581.343784033320844 ], [ 1267449.034566706512123, 5539581.343784033320844 ], [ 1267449.034566706512123, 5539481.343784033320844 ], [ 1267349.034566706512123, 5539481.343784033320844 ], [ 1267349.034566706512123, 5539581.343784033320844 ] ] ] ] } },
{ "type": "Feature", "properties": { "id": 22063, "street_cells": 425.26516379900278, "yard_cells": 3887.9894546410069, "utility": 0.60619845027782215, "num_areas": 0.0 }, "geometry": { "type": "MultiPolygon", "coordinates": [ [ [ [ 1267349.034566706512123, 5539481.343784033320844 ], [ 1267449.034566706512123, 5539481.343784033320844 ], [ 1267449.034566706512123, 5539381.343784033320844 ], [ 1267349.034566706512123, 5539381.343784033320844 ], [ 1267349.034566706512123, 5539481.343784033320844 ] ] ] ] } },
{ "type": "Feature", "properties": { "id": 22064, "street_cells": 666.64253462478518, "yard_cells": 3691.92152822041, "utility": 0.39195354639373131, "num_areas": 0.0 }, "geometry": { "type": "MultiPolygon", "coordinates": [ [ [ [ 1267349.034566706512123, 5539381.343784033320844 ], [ 1267449.034566706512123, 5539381.343784033320844 ], [ 1267449.034566706512123, 5539281.343784033320844 ], [ 1267349.034566706512123, 5539281.343784033320844 ], [ 1267349.034566706512123, 5539381.343784033320844 ] ] ] ] } },
{ "type": "Feature", "properties": { "id": 22065, "street_cells": 408.67100771069528, "yard_cells": 3806.7190127668991, "utility": 0.65113133958781544, "num_areas": 1.0 }, "geometry": { "type": "MultiPolygon", "coordinates": [ [ [ [ 1267349.034566706512123, 5539281.343784033320844 ], [ 1267449.034566706512123, 5539281.343784033320844 ], [ 1267449.034566706512123, 5539181.343784033320844 ], [ 1267349.034566706512123, 5539181.343784033320844 ], [ 1267349.034566706512123, 5539281.343784033320844 ] ] ] ] } },
{ "type": "Feature", "properties": { "id": 22066, "street_cells": 698.18365106359124, "yard_cells": 3111.4305621878011, "utility": 0.59895829436369585, "num_areas": 2.0 }, "geometry": { "type": "MultiPolygon", "coordinates": [ [ [ [ 1267349.034566706512123, 5539181.343784033320844 ], [ 1267449.034566706512123, 5539181.343784033320844 ], [ 1267449.034566706512123, 5539081.343784033320844 ], [ 1267349.034566706512123, 5539081.343784033320844 ], [ 1267349.034566706512123, 5539181.343784033320844 ] ] ] ] } },
{ "type": "Feature", "properties": { "id": 22067, "street_cells": 446.86394782364368, "yard_cells": 3854.063443813357, "utility": 0.63259099392120099, "num_areas": 2.0 }, "geometry": { "type": "MultiPolygon", "coordinates": [ [ [ [ 1267349.034566706512123, 5539081.343784033320844 ], [ 1267449.034566706512123, 5539081.343784033320844 ], [ 1267449.034566706512123, 5538981.343784033320844 ], [ 1267349.034566706512123, 5538981.343784033320844 ], [ 1267349.034566706512123, 5539081.343784033320844 ] ] ] ] } },
{ "type": "Feature", "properties": { "id": 22069, "street_cells": 193.3031489402056, "yard_cells": 4178.0172989275306, "utility": 0.47002851889707031, "num_areas": 1.0 }, "geometry": { "type": "MultiPolygon", "coordinates": [ [ [ [ 1267349.034566706512123, 5538881.343784033320844 ], [ 1267449.034566706512123, 5538881.343784033320844 ], [ 1267449.034566706512123, 5538781.343784033320844 ], [ 1267349.034566706512123, 5538781.343784033320844 ], [ 1267349.034566706512123, 5538881.343784033320844 ] ] ] ] } },
{ "type": "Feature", "properties": { "id": 22217, "street_cells": 557.70351866483691, "yard_cells": 3266.4727473526732, "utility": 0.61361368829123275, "num_areas": 0.0 }, "geometry": { "type": "MultiPolygon", "coordinates": [ [ [ [ 1267449.034566706512123, 5539981.343784033320844 ], [ 1267549.034566706512123, 5539981.343784033320844 ], [ 1267549.034566706512123, 5539881.343784033320844 ], [ 1267449.034566706512123, 5539881.343784033320844 ], [ 1267449.034566706512123, 5539981.343784033320844 ] ] ] ] } },
{ "type": "Feature", "properties": { "id": 22223, "street_cells": 330.4747556779534, "yard_cells": 3733.5184510171821, "utility": 0.53268432377843766, "num_areas": 0.0 }, "geometry": { "type": "MultiPolygon", "coordinates": [ [ [ [ 1267449.034566706512123, 5539381.343784033320844 ], [ 1267549.034566706512123, 5539381.343784033320844 ], [ 1267549.034566706512123, 5539281.343784033320844 ], [ 1267449.034566706512123, 5539281.343784033320844 ], [ 1267449.034566706512123, 5539381.343784033320844 ] ] ] ] } },
{ "type": "Feature", "properties": { "id": 22224, "street_cells": 350.48629946634168, "yard_cells": 4025.5915629633819, "utility": 0.58320648111173246, "num_areas": 1.0 }, "geometry": { "type": "MultiPolygon", "coordinates": [ [ [ [ 1267449.034566706512123, 5539281.343784033320844 ], [ 1267549.034566706512123, 5539281.343784033320844 ], [ 1267549.034566706512123, 5539181.343784033320844 ], [ 1267449.034566706512123, 5539181.343784033320844 ], [ 1267449.034566706512123, 5539281.343784033320844 ] ] ] ] } },
{ "type": "Feature", "properties": { "id": 22225, "street_cells": 291.13715378623459, "yard_cells": 4391.4821345142554, "utility": 0.72331032408431006, "num_areas": 1.0 }, "geometry": { "type": "MultiPolygon", "coordinates": [ [ [ [ 1267449.034566706512123, 5539181.343784033320844 ], [ 1267549.034566706512123, 5539181.343784033320844 ], [ 1267549.034566706512123, 5539081.343784033320844 ], [ 1267449.034566706512123, 5539081.343784033320844 ], [ 1267449.034566706512123, 5539181.343784033320844 ] ] ] ] } },
{ "type": "Feature", "properties": { "id": 22226, "street_cells": 278.40787494089449, "yard_cells": 4820.1514186765999, "utility": 0.80225118493089187, "num_areas": 0.0 }, "geometry": { "type": "MultiPolygon", "coordinates": [ [ [ [ 1267449.034566706512123, 5539081.343784033320844 ], [ 1267549.034566706512123, 5539081.343784033320844 ], [ 1267549.034566706512123, 5538981.343784033320844 ], [ 1267449.034566706512123, 5538981.343784033320844 ], [ 1267449.034566706512123, 5539081.343784033320844 ] ] ] ] } },
{ "type": "Feature", "properties": { "id": 22227, "street_cells": 155.33455683495851, "yard_cells": 4342.5690067787073, "utility": 0.59728857572924465, "num_areas": 0.0 }, "geometry": { "type": "MultiPolygon", "coordinates": [ [ [ [ 1267449.034566706512123, 5538981.343784033320844 ], [ 1267549.034566706512123, 5538981.343784033320844 ], [ 1267549.034566706512123, 5538881.343784033320844 ], [ 1267449.034566706512123, 5538881.343784033320844 ], [ 1267449.034566706512123, 5538981.343784033320844 ] ] ] ] } },
{ "type": "Feature", "properties": { "id": 22230, "street_cells": 781.03923529377209, "yard_cells": 2805.8063082266599, "utility": 0.39978077196549772, "num_areas": 1.0 }, "geometry": { "type": "MultiPolygon", "coordinates": [ [ [ [ 1267449.034566706512123, 5538681.343784033320844 ], [ 1267549.034566706512123, 5538681.343784033320844 ], [ 1267549.034566706512123, 5538581.343784033320844 ], [ 1267449.034566706512123, 5538581.343784033320844 ], [ 1267449.034566706512123, 5538681.343784033320844 ] ] ] ] } },
{ "type": "Feature", "properties": { "id": 22231, "street_cells": 621.03034876734023, "yard_cells": 3399.7972510585041, "utility": 0.55492572069772617, "num_areas": 0.0 }, "geometry": { "type": "MultiPolygon", "coordinates": [ [ [ [ 1267449.034566706512123, 5538581.343784033320844 ], [ 1267549.034566706512123, 5538581.343784033320844 ], [ 1267549.034566706512123, 5538481.343784033320844 ], [ 1267449.034566706512123, 5538481.343784033320844 ], [ 1267449.034566706512123, 5538581.343784033320844 ] ] ] ] } },
{ "type": "Feature", "properties": { "id": 22383, "street_cells": 315.96045107785608, "yard_cells": 3508.1285146554001, "utility": 0.47218236347691411, "num_areas": 1.0 }, "geometry": { "type": "MultiPolygon", "coordinates": [ [ [ [ 1267549.034566706512123, 5539281.343784033320844 ], [ 1267649.034566706512123, 5539281.343784033320844 ], [ 1267649.034566706512123, 5539181.343784033320844 ], [ 1267549.034566706512123, 5539181.343784033320844 ], [ 1267549.034566706512123, 5539281.343784033320844 ] ] ] ] } },
{ "type": "Feature", "properties": { "id": 22384, "street_cells": 529.1726129941643, "yard_cells": 3246.1197443386768, "utility": 0.52081169108245984, "num_areas": 0.0 }, "geometry": { "type": "MultiPolygon", "coordinates": [ [ [ [ 1267549.034566706512123, 5539181.343784033320844 ], [ 1267649.034566706512123, 5539181.343784033320844 ], [ 1267649.034566706512123, 5539081.343784033320844 ], [ 1267549.034566706512123, 5539081.343784033320844 ], [ 1267549.034566706512123, 5539181.343784033320844 ] ] ] ] } },
{ "type": "Feature", "properties": { "id": 22543, "street_cells": 575.11705824080855, "yard_cells": 3656.2804499049671, "utility": 0.59596564854940137, "num_areas": 1.0 }, "geometry": { "type": "MultiPolygon", "coordinates": [ [ [ [ 1267649.034566706512123, 5539181.343784033320844 ], [ 1267749.034566706512123, 5539181.343784033320844 ], [ 1267749.034566706512123, 5539081.343784033320844 ], [ 1267649.034566706512123, 5539081.343784033320844 ], [ 1267649.034566706512123, 5539181.343784033320844 ] ] ] ] } },
{ "type": "Feature", "properties": { "id": 22544, "street_cells": 828.10219761538326, "yard_cells": 2647.293333093286, "utility": 0.56538462677702339, "num_areas": 0.0 }, "geometry": { "type": "MultiPolygon", "coordinates": [ [ [ [ 1267649.034566706512123, 5539081.343784033320844 ], [ 1267749.034566706512123, 5539081.343784033320844 ], [ 1267749.034566706512123, 5538981.343784033320844 ], [ 1267649.034566706512123, 5538981.343784033320844 ], [ 1267649.034566706512123, 5539081.343784033320844 ] ] ] ] } },
{ "type": "Feature", "properties": { "id": 22545, "street_cells": 523.61830800920723, "yard_cells": 3356.6247745991, "utility": 0.63252884006646681, "num_areas": 0.0 }, "geometry": { "type": "MultiPolygon", "coordinates": [ [ [ [ 1267649.034566706512123, 5538981.343784033320844 ], [ 1267749.034566706512123, 5538981.343784033320844 ], [ 1267749.034566706512123, 5538881.343784033320844 ], [ 1267649.034566706512123, 5538881.343784033320844 ], [ 1267649.034566706512123, 5538981.343784033320844 ] ] ] ] } }
]
}
