{
"type": "FeatureCollection",
"name": "default",
"crs": { "type": "name", "properties": { "name": "urn:ogc:def:crs:EPSG::3857" } },
"features": [
{ "type": "Feature", "properties": { "id": 1642, "street_cells": 500.50165720141962, "yard_cells": 4178.6530618427059, "utility": 2.494589345120815, "num_areas": 0.0 }, "geometry": { "type": "MultiPolygon", "coordinates": [ [ [ [ 1254549.034566706512123, 5546381.343784033320844 ], [ 1254649.034566706512123, 5546381.343784033320844 ], [ 1254649.034566706512123, 5546281.343784033320844 ], [ 1254549.034566706512123, 5546281.343784033320844 ], [ 1254549.034566706512123, 5546381.343784033320844 ] ] ] ] } },
{ "type": "Feature", "properties": { "id": 2595, "street_cells": 429.91306012049318, "yard_cells": 4200.3594697762746, "utility": 3.731982434812593, "num_areas": 0.0 }, "geometry": { "type": "MultiPolygon", "coordinates": [ [ [ [ 1255149.034566706512123, 5546481.343784033320844 ], [ 1255249.034566706512123, 5546481.343784033320844 ], [ 1255249.034566706512123, 5546381.343784033320844 ], [ 1255149.034566706512123, 5546381.343784033320844 ], [ 1255149.034566706512123, 5546481.343784033320844 ] ] ] ] } },
{ "type": "Feature", "properties": { "id": 3106, "street_cells": 122.5628733821213, "yard_cells": 8073.2486254048999, "utility": 3.4874065773215852, "num_areas": 0.0 }, "geometry": { "type": "MultiPolygon", "coordinates": [ [ [ [ 1255449.034566706512123, 5543081.343784033320844 ], [ 1255549.034566706512123, 5543081.343784033320844 ], [ 1255549.034566706512123, 5542981.343784033320844 ], [ 1255449.034566706512123, 5542981.343784033320844 ], [ 1255449.034566706512123, 5543081.343784033320844 ] ] ] ] } },
{ "type": "Feature", "properties": { "id": 5487, "street_cells": 0.0, "yard_cells": 4891.4127388072666, "utility": 2.9565145603446501, "num_areas": 0.0 }, "geometry": { "type": "MultiPolygon", "coordinates": [ [ [ [ 1256949.034566706512123, 5543481.343784033320844 ], [ 1257049.034566706512123, 5543481.343784033320844 ], [ 1257049.034566706512123, 5543381.343784033320844 ], [ 1256949.034566706512123, 5543381.343784033320844 ], [ 1256949.034566706512123, 5543481.343784033320844 ] ] ] ] } },
{ "type": "Feature", "properties": { "id": 5960, "street_cells": 469.22495975792413, "yard_cells": 4691.6238505505034, "utility": 3.398422949749706, "num_areas": 0.0 }, "geometry": { "type": "MultiPolygon", "coordinates": [ [ [ [ 1257249.034566706512123, 5543881.343784033320844 ], [ 1257349.034566706512123, 5543881.343784033320844 ], [ 1257349.034566706512123, 5543781.343784033320844 ], [ 1257249.034566706512123, 5543781.343784033320844 ], [ 1257249.034566706512123, 5543881.343784033320844 ] ] ] ] } },
{ "type": "Feature", "properties": { "id": 6119, "street_cells": 549.04625656604765, "yard_cells": 2515.7750391184818, "utility": 2.556772050457274, "num_areas": 0.0 }, "geometry": { "type": "MultiPolygon", "coordinates": [ [ [ [ 1257349.034566706512123, 5543881.343784033320844 ], [ 1257449.034566706512123, 5543881.343784033320844 ], [ 1257449.034566706512123, 5543781.343784033320844 ], [ 1257349.034566706512123, 5543781.343784033320844 ], [ 1257349.034566706512123, 5543881.343784033320844 ] ] ] ] } },
{ "type": "Feature", "properties": { "id": 6429, "street_cells": 362.51724500767892, "yard_cells": 4502.3389722052962, "utility": 4.7264014200796289, "num_areas": 0.0 }, "geometry": { "type": "MultiPolygon", "coordinates": [ [ [ [ 1257549.034566706512123, 5544681.343784033320844 ], [ 1257649.034566706512123, 5544681.343784033320844 ], [ 1257649.034566706512123, 5544581.343784033320844 ], [ 1257549.034566706512123, 5544581.343784033320844 ], [ 1257549.034566706512123, 5544681.343784033320844 ] ] ] ] } },
{ "type": "Feature", "properties": { "id": 6587, "street_cells": 396.46818124651912, "yard_cells": 4033.6339996804709, "utility": 2.6206729926391619, "num_areas": 0.0 }, "geometry": { "type": "MultiPolygon", "coordinates": [ [ [ [ 1257649.034566706512123, 5544781.343784033320844 ], [ 1257749.034566706512123, 5544781.343784033320844 ], [ 1257749.034566706512123, 5544681.343784033320844 ], [ 1257649.034566706512123, 5544681.343784033320844 ], [ 1257649.034566706512123, 5544781.343784033320844 ] ] ] ] } },
{ "type": "Feature", "properties": { "id": 6906, "street_cells": 0.0, "yard_cells": 3723.0796620603651, "utility": 2.559706514834228, "num_areas": 0.0 }, "geometry": { "type": "MultiPolygon", "coordinates": [ [ [ [ 1257849.034566706512123, 5544681.343784033320844 ], [ 1257949.034566706512123, 5544681.343784033320844 ], [ 1257949.034566706512123, 5544581.343784033320844 ], [ 1257849.034566706512123, 5544581.343784033320844 ], [ 1257849.034566706512123, 5544681.343784033320844 ] ] ] ] } },
{ "type": "Feature", "properties": { "id": 7547, "street_cells": 171.41693124510351, "yard_cells": 4735.2664999682456, "utility": 4.7130382779967848, "num_areas": 0.0 }, "geometry": { "type": "MultiPolygon", "coordinates": [ [ [ [ 1258249.034566706512123, 5544181.343784033320844 ], [ 1258349.034566706512123, 5544181.343784033320844 ], [ 1258349.034566706512123, 5544081.343784033320844 ], [ 1258249.034566706512123, 5544081.343784033320844 ], [ 1258249.034566706512123, 5544181.343784033320844 ] ] ] ] } },
{ "type": "Feature", "properties": { "id": 7893, "street_cells": 0.0, "yard_cells": 1475.972548538819, "utility": 2.882097170606249, "num_areas": 0.0 }, "geometry": { "type": "MultiPolygon", "coordinates": [ [ [ [ 1258541.336311493301764, 5541377.402724430896342 ], [ 1258538.983147940598428, 5541376.419404942542315 ], [ 1258538.334091316442937, 5541378.749227644875646 ], [ 1258449.034566706512123, 5541341.211264093406498 ], [ 1258449.034566706512123, 5541381.343784033320844 ], [ 1258549.034566706512123, 5541381.343784033320844 ], [ 1258549.034566706512123, 5541349.555401555262506 ], [ 1258541.336311493301764, 5541377.402724430896342 ] ] ] ] } },
{ "type": "Feature", "properties": { "id": 8215, "street_cells": 163.3471173211932, "yard_cells": 4443.3092762976876, "utility": 3.9208488903887901, "num_areas": 0.0 }, "geometry": { "type": "MultiPolygon", "coordinates": [ [ [ [ 1258655.440917155239731, 5540971.721566090360284 ], [ 1258665.885956414975226, 5540977.330933114513755 ], [ 1258674.719331277068704, 5540981.343784033320844 ], [ 1258749.034566706512123, 5540981.343784033320844 ], [ 1258749.034566706512123, 5540881.343784033320844 ], [ 1258649.034566706512123, 5540881.343784033320844 ], [ 1258649.034566706512123, 5540968.161971695721149 ], [ 1258655.440917155239731, 5540971.721566090360284 ] ] ] ] } },
{ "type": "Feature", "properties": { "id": 8988, "street_cells": 310.83016735278068, "yard_cells": 3592.2731030020791, "utility": 3.0634598967903939, "num_areas": 0.0 }, "geometry": { "type": "MultiPolygon", "coordinates": [ [ [ [ 1259149.034566706512123, 5543181.343784033320844 ], [ 1259249.034566706512123, 5543181.343784033320844 ], [ 1259249.034566706512123, 5543081.343784033320844 ], [ 1259149.034566706512123, 5543081.343784033320844 ], [ 1259149.034566706512123, 5543181.343784033320844 ] ] ] ] } },
{ "type": "Feature", "properties": { "id": 9789, "street_cells": 391.16730992421509, "yard_cells": 4313.6058061392296, "utility": 2.6373275175809718, "num_areas": 2.0 }, "geometry": { "type": "MultiPolygon", "coordinates": [ [ [ [ 1259649.034566706512123, 5542581.343784033320844 ], [ 1259749.034566706512123, 5542581.343784033320844 ], [ 1259749.034566706512123, 5542481.343784033320844 ], [ 1259649.034566706512123, 5542481.343784033320844 ], [ 1259649.034566706512123, 5542581.343784033320844 ] ] ] ] } },
{ "type": "Feature", "properties": { "id": 10266, "street_cells": 448.9022647455335, "yard_cells": 2595.0801396383008, "utility": 3.1332596990791739, "num_areas": 0.0 }, "geometry": { "type": "MultiPolygon", "coordinates": [ [ [ [ 1259949.034566706512123, 5542581.343784033320844 ], [ 1260049.034566706512123, 5542581.343784033320844 ], [ 1260049.034566706512123, 5542481.343784033320844 ], [ 1259949.034566706512123, 5542481.343784033320844 ], [ 1259949.034566706512123, 5542581.343784033320844 ] ] ] ] } },
{ "type": "Feature", "properties": { "id": 10276, "street_cells": 208.80996038094159, "yard_cells": 4386.9847510553427, "utility": 3.319252512920408, "num_areas": 0.0 }, "geometry": { "type": "MultiPolygon", "coordinates": [ [ [ [ 1259949.034566706512123, 5541581.343784033320844 ], [ 1260049.034566706512123, 5541581.343784033320844 ], [ 1260049.034566706512123, 5541481.343784033320844 ], [ 1259949.034566706512123, 5541481.343784033320844 ], [ 1259949.034566706512123, 5541581.343784033320844 ] ] ] ] } },
{ "type": "Feature", "properties": { "id": 11220, "street_cells": 299.74240318126982, "yard_cells": 3218.3809622842818, "utility": 2.5501738492579751, "num_areas": 1.0 }, "geometry": { "type": "MultiPolygon", "coordinates": [ [ [ [ 1260549.034566706512123, 5542581.343784033320844 ], [ 1260649.034566706512123, 5542581.343784033320844 ], [ 1260649.034566706512123, 5542481.343784033320844 ], [ 1260549.034566706512123, 5542481.343784033320844 ], [ 1260549.034566706512123, 5542581.343784033320844 ] ] ] ] } },
{ "type": "Feature", "properties": { "id": 12174, "street_cells": 204.48603859841819, "yard_cells": 2492.5213369297321, "utility": 2.5999112115275622, "num_areas": 0.0 }, "geometry": { "type": "MultiPolygon", "coordinates": [ [ [ [ 1261149.034566706512123, 5542581.343784033320844 ], [ 1261249.034566706512123, 5542581.343784033320844 ], [ 1261249.034566706512123, 5542481.343784033320844 ], [ 1261149.034566706512123, 5542481.343784033320844 ], [ 1261149.034566706512123, 5542581.343784033320844 ] ] ] ] } },
{ "type": "Feature", "properties": { "id": 12488, "street_cells": 225.50759083591399, "yard_cells": 2662.53792477774, "utility": 2.8540333229611918, "num_areas": 1.0 }, "geometry": { "type": "MultiPolygon", "coordinates": [ [ [ [ 1261349.034566706512123, 5542981.343784033320844 ], [ 1261449.034566706512123, 5542981.343784033320844 ], [ 1261449.034566706512123, 5542881.343784033320844 ], [ 1261349.034566706512123, 5542881.343784033320844 ], [ 1261349.034566706512123, 5542981.343784033320844 ] ] ] ] } },
{ "type": "Feature", "properties": { "id": 12647, "street_cells": 1324.149462202937, "yard_cells": 699.58781926085999, "utility": 3.6548371249865941, "num_areas": 0.0 }, "geometry": { "type": "MultiPolygon", "coordinates": [ [ [ [ 1261449.034566706512123, 5542981.343784033320844 ], [ 1261549.034566706512123, 5542981.343784033320844 ], [ 1261549.034566706512123, 5542881.343784033320844 ], [ 1261449.034566706512123, 5542881.343784033320844 ], [ 1261449.034566706512123, 5542981.343784033320844 ] ] ] ] } },
{ "type": "Feature", "properties": { "id": 12955, "street_cells": 420.03392774909742, "yard_cells": 4436.5813984461129, "utility": 3.3268011778164852, "num_areas": 0.0 }, "geometry": { "type": "MultiPolygon", "coordinates": [ [ [ [ 1261649.034566706512123, 5543981.343784033320844 ], [ 1261749.034566706512123, 5543981.343784033320844 ], [ 1261749.034566706512123, 5543881.343784033320844 ], [ 1261649.034566706512123, 5543881.343784033320844 ], [ 1261649.034566706512123, 5543981.343784033320844 ] ] ] ] } },
{ "type": "Feature", "properties": { "id": 13575, "street_cells": 802.9284239562229, "yard_cells": 3126.054509890731, "utility": 4.5406627155941237, "num_areas": 0.0 }, "geometry": { "type": "MultiPolygon", "coordinates": [ [ [ [ 1262049.034566706512123, 5545581.343784033320844 ], [ 1262149.034566706512123, 5545581.343784033320844 ], [ 1262149.034566706512123, 5545481.343784033320844 ], [ 1262049.034566706512123, 5545481.343784033320844 ], [ 1262049.034566706512123, 5545581.343784033320844 ] ] ] ] } },
{ "type": "Feature", "properties": { "id": 13596, "street_cells": 610.08476539552214, "yard_cells": 2669.9848902311051, "utility": 4.1432815676268149, "num_areas": 0.0 }, "geometry": { "type": "MultiPolygon", "coordinates": [ [ [ [ 1262049.034566706512123, 5543481.343784033320844 ], [ 1262149.034566706512123, 5543481.343784033320844 ], [ 1262149.034566706512123, 5543381.343784033320844 ], [ 1262049.034566706512123, 5543381.343784033320844 ], [ 1262049.034566706512123, 5543481.343784033320844 ] ] ] ] } },
{ "type": "Feature", "properties": { "id": 13734, "street_cells": 566.02868685871363, "yard_cells": 3536.6990577424881, "utility": 2.6841872382901499, "num_areas": 0.0 }, "geometry": { "type": "MultiPolygon", "coordinates": [ [ [ [ 1262149.034566706512123, 5545581.343784033320844 ], [ 1262249.034566706512123, 5545581.343784033320844 ], [ 1262249.034566706512123, 5545481.343784033320844 ], [ 1262149.034566706512123, 5545481.343784033320844 ], [ 1262149.034566706512123, 5545581.343784033320844 ] ] ] ] } },
{ "type": "Feature", "properties": { "id": 13755, "street_cells": 437.55316309668132, "yard_cells": 3485.5334716991651, "utility": 3.3912312651802452, "num_areas": 0.0 }, "geometry": { "type": "MultiPolygon", "coordinates": [ [ [ [ 1262149.034566706512123, 5543481.343784033320844 ], [ 1262249.034566706512123, 5543481.343784033320844 ], [ 1262249.034566706512123, 5543381.343784033320844 ], [ 1262149.034566706512123, 5543381.343784033320844 ], [ 1262149.034566706512123, 5543481.343784033320844 ] ] ] ] } },
{ "type": "Feature", "properties": { "id": 13912, "street_cells": 861.15387278497224, "yard_cells": 1486.5321090072389, "utility": 3.9249635841506119, "num_areas": 0.0 }, "geometry": { "type": "MultiPolygon", "coordinates": [ [ [ [ 1262249.034566706512123, 5543681.343784033320844 ], [ 1262349.034566706512123, 5543681.343784033320844 ], [ 1262349.034566706512123, 5543581.343784033320844 ], [ 1262249.034566706512123, 5543581.343784033320844 ], [ 1262249.034566706512123, 5543681.343784033320844 ] ] ] ] } },
{ "type": "Feature", "properties": { "id": 14035, "street_cells": 0.0, "yard_cells": 1275.100625708699, "utility": 2.4925619450852801, "num_areas": 0.0 }, "geometry": { "type": "MultiPolygon", "coordinates": [ [ [ [ 1262349.034566706512123, 5547281.343784033320844 ], [ 1262449.034566706512123, 5547281.343784033320844 ], [ 1262449.034566706512123, 5547181.343784033320844 ], [ 1262349.034566706512123, 5547181.343784033320844 ], [ 1262349.034566706512123, 5547281.343784033320844 ] ] ] ] } },
{ "type": "Feature", "properties": { "id": 14054, "street_cells": 0.0, "yard_cells": 6351.1158476867713, "utility": 3.5491367791264028, "num_areas": 0.0 }, "geometry": { "type": "MultiPolygon", "coordinates": [ [ [ [ 1262349.034566706512123, 5545381.343784033320844 ], [ 1262449.034566706512123, 5545381.343784033320844 ], [ 1262449.034566706512123, 5545281.343784033320844 ], [ 1262349.034566706512123, 5545281.343784033320844 ], [ 1262349.034566706512123, 5545381.343784033320844 ] ] ] ] } },
{ "type": "Feature", "properties": { "id": 14071, "street_cells": 632.14525218009953, "yard_cells": 1395.655275924941, "utility": 3.3542383981202648, "num_areas": 0.0 }, "geometry": { "type": "MultiPolygon", "coordinates": [ [ [ [ 1262349.034566706512123, 5543681.343784033320844 ], [ 1262449.034566706512123, 5543681.343784033320844 ], [ 1262449.034566706512123, 5543581.343784033320844 ], [ 1262349.034566706512123, 5543581.343784033320844 ], [ 1262349.034566706512123, 5543681.343784033320844 ] ] ] ] } },
{ "type": "Feature", "properties": { "id": 14085, "street_cells": 1440.7010955790061, "yard_cells": 0.0, "utility": 3.0841684173772359, "num_areas": 0.0 }, "geometry": { "type": "MultiPolygon", "coordinates": [ [ [ [ 1262349.034566706512123, 5542281.343784033320844 ], [ 1262449.034566706512123, 5542281.343784033320844 ], [ 1262449.034566706512123, 5542181.343784033320844 ], [ 1262349.034566706512123, 5542181.343784033320844 ], [ 1262349.034566706512123, 5542281.343784033320844 ] ] ] ] } },
{ "type": "Feature", "properties": { "id": 14115, "street_cells": 406.39235815107833, "yard_cells": 3817.2136958092451, "utility": 3.003387183041172, "num_areas": 0.0 }, "geometry": { "type": "MultiPolygon", "coordinates": [ [ [ [ 1262349.034566706512123, 5539281.343784033320844 ], [ 1262449.034566706512123, 5539281.343784033320844 ], [ 1262449.034566706512123, 5539181.343784033320844 ], [ 1262349.034566706512123, 5539181.343784033320844 ], [ 1262349.034566706512123, 5539281.343784033320844 ] ] ] ] } },
{ "type": "Feature", "properties": { "id": 14213, "street_cells": 0.0, "yard_cells": 4789.9968914773781, "utility": 2.749662889637901, "num_areas": 1.0 }, "geometry": { "type": "MultiPolygon", "coordinates": [ [ [ [ 1262449.034566706512123, 5545381.343784033320844 ], [ 1262549.034566706512123, 5545381.343784033320844 ], [ 1262549.034566706512123, 5545281.343784033320844 ], [ 1262449.034566706512123, 5545281.343784033320844 ], [ 1262449.034566706512123, 5545381.343784033320844 ] ] ] ] } },
{ "type": "Feature", "properties": { "id": 14223, "street_cells": 456.58063466511669, "yard_cells": 2275.800573766232, "utility": 4.4823698102451957, "num_areas": 0.0 }, "geometry": { "type": "MultiPolygon", "coordinates": [ [ [ [ 1262449.034566706512123, 5544381.343784033320844 ], [ 1262549.034566706512123, 5544381.343784033320844 ], [ 1262549.034566706512123, 5544281.343784033320844 ], [ 1262449.034566706512123, 5544281.343784033320844 ], [ 1262449.034566706512123, 5544381.343784033320844 ] ] ] ] } },
{ "type": "Feature", "properties": { "id": 14541, "street_cells": 667.36521638482816, "yard_cells": 3117.601160502194, "utility": 3.050593210102527, "num_areas": 1.0 }, "geometry": { "type": "MultiPolygon", "coordinates": [ [ [ [ 1262649.034566706512123, 5544381.343784033320844 ], [ 1262749.034566706512123, 5544381.343784033320844 ], [ 1262749.034566706512123, 5544281.343784033320844 ], [ 1262649.034566706512123, 5544281.343784033320844 ], [ 1262649.034566706512123, 5544381.343784033320844 ] ] ] ] } },
{ "type": "Feature", "properties": { "id": 14704, "street_cells": 1091.255850312114, "yard_cells": 386.35477813115722, "utility": 2.8737178623875752, "num_areas": 0.0 }, "geometry": { "type": "MultiPolygon", "coordinates": [ [ [ [ 1262749.034566706512123, 5543981.343784033320844 ], [ 1262849.034566706512123, 5543981.343784033320844 ], [ 1262849.034566706512123, 5543881.343784033320844 ], [ 1262749.034566706512123, 5543881.343784033320844 ], [ 1262749.034566706512123, 5543981.343784033320844 ] ] ] ] } },
{ "type": "Feature", "properties": { "id": 15018, "street_cells": 379.96083249002697, "yard_cells": 2627.0376493324479, "utility": 3.8030014440202118, "num_areas": 0.0 }, "geometry": { "type": "MultiPolygon", "coordinates": [ [ [ [ 1262949.034566706512123, 5544381.343784033320844 ], [ 1263049.034566706512123, 5544381.343784033320844 ], [ 1263049.034566706512123, 5544281.343784033320844 ], [ 1262949.034566706512123, 5544281.343784033320844 ], [ 1262949.034566706512123, 5544381.343784033320844 ] ] ] ] } },
{ "type": "Feature", "properties": { "id": 15335, "street_cells": 468.34462500028309, "yard_cells": 2211.2673869944242, "utility": 4.5052779054017664, "num_areas": 0.0 }, "geometry": { "type": "MultiPolygon", "coordinates": [ [ [ [ 1263149.034566706512123, 5544481.343784033320844 ], [ 1263249.034566706512123, 5544481.343784033320844 ], [ 1263249.034566706512123, 5544381.343784033320844 ], [ 1263149.034566706512123, 5544381.343784033320844 ], [ 1263149.034566706512123, 5544481.343784033320844 ] ] ] ] } },
{ "type": "Feature", "properties": { "id": 15481, "street_cells": 298.77835048213598, "yard_cells": 4645.3295534255703, "utility": 3.3483947322358092, "num_areas": 1.0 }, "geometry": { "type": "MultiPolygon", "coordinates": [ [ [ [ 1263249.034566706512123, 5545781.343784033320844 ], [ 1263349.034566706512123, 5545781.343784033320844 ], [ 1263349.034566706512123, 5545681.343784033320844 ], [ 1263249.034566706512123, 5545681.343784033320844 ], [ 1263249.034566706512123, 5545781.343784033320844 ] ] ] ] } },
{ "type": "Feature", "properties": { "id": 15483, "street_cells": 0.0, "yard_cells": 5924.8242503711954, "utility": 7.799503885661025, "num_areas": 0.0 }, "geometry": { "type": "MultiPolygon", "coordinates": [ [ [ [ 1263249.034566706512123, 5545581.343784033320844 ], [ 1263349.034566706512123, 5545581.343784033320844 ], [ 1263349.034566706512123, 5545481.343784033320844 ], [ 1263249.034566706512123, 5545481.343784033320844 ], [ 1263249.034566706512123, 5545581.343784033320844 ] ] ] ] } },
{ "type": "Feature", "properties": { "id": 15978, "street_cells": 0.0, "yard_cells": 5603.4457935541868, "utility": 3.264144312953428, "num_areas": 0.0 }, "geometry": { "type": "MultiPolygon", "coordinates": [ [ [ [ 1263549.034566706512123, 5543781.343784033320844 ], [ 1263649.034566706512123, 5543781.343784033320844 ], [ 1263649.034566706512123, 5543681.343784033320844 ], [ 1263549.034566706512123, 5543681.343784033320844 ], [ 1263549.034566706512123, 5543781.343784033320844 ] ] ] ] } },
{ "type": "Feature", "properties": { "id": 16094, "street_cells": 308.29765725135798, "yard_cells": 4309.4522800347768, "utility": 2.5335427640993271, "num_areas": 1.0 }, "geometry": { "type": "MultiPolygon", "coordinates": [ [ [ [ 1263649.034566706512123, 5548081.343784033320844 ], [ 1263749.034566706512123, 5548081.343784033320844 ], [ 1263749.034566706512123, 5547981.343784033320844 ], [ 1263649.034566706512123, 5547981.343784033320844 ], [ 1263649.034566706512123, 5548081.343784033320844 ] ] ] ] } },
{ "type": "Feature", "properties": { "id": 16114, "street_cells": 376.51293735578662, "yard_cells": 4308.2043780260719, "utility": 3.8133741729977779, "num_areas": 0.0 }, "geometry": { "type": "MultiPolygon", "coordinates": [ [ [ [ 1263649.034566706512123, 5546081.343784033320844 ], [ 1263749.034566706512123, 5546081.343784033320844 ], [ 1263749.034566706512123, 5545981.343784033320844 ], [ 1263649.034566706512123, 5545981.343784033320844 ], [ 1263649.034566706512123, 5546081.343784033320844 ] ] ] ] } },
{ "type": "Feature", "properties": { "id": 16137, "street_cells": 168.62465070784091, "yard_cells": 4610.8284833878861, "utility": 3.570700889112516, "num_areas": 0.0 }, "geometry": { "type": "MultiPolygon", "coordinates": [ [ [ [ 1263649.034566706512123, 5543781.343784033320844 ], [ 1263749.034566706512123, 5543781.343784033320844 ], [ 1263749.034566706512123, 5543681.343784033320844 ], [ 1263649.034566706512123, 5543681.343784033320844 ], [ 1263649.034566706512123, 5543781.343784033320844 ] ] ] ] } },
{ "type": "Feature", "properties": { "id": 16271, "street_cells": 98.362333324551585, "yard_cells": 6106.6756988475099, "utility": 3.0357964186776791, "num_areas": 0.0 }, "geometry": { "type": "MultiPolygon", "coordinates": [ [ [ [ 1263749.034566706512123, 5546281.343784033320844 ], [ 1263849.034566706512123, 5546281.343784033320844 ], [ 1263849.034566706512123, 5546181.343784033320844 ], [ 1263749.034566706512123, 5546181.343784033320844 ], [ 1263749.034566706512123, 5546281.343784033320844 ] ] ] ] } },
{ "type": "Feature", "properties": { "id": 16274, "street_cells": 385.83039495199921, "yard_cells": 4784.0205503366888, "utility": 5.7586518181591932, "num_areas": 0.0 }, "geometry": { "type": "MultiPolygon", "coordinates": [ [ [ [ 1263749.034566706512123, 5545981.343784033320844 ], [ 1263849.034566706512123, 5545981.343784033320844 ], [ 1263849.034566706512123, 5545881.343784033320844 ], [ 1263749.034566706512123, 5545881.343784033320844 ], [ 1263749.034566706512123, 5545981.343784033320844 ] ] ] ] } },
{ "type": "Feature", "properties": { "id": 16281, "street_cells": 381.49089616537088, "yard_cells": 3301.7746303722229, "utility": 3.804966068620113, "num_areas": 0.0 }, "geometry": { "type": "MultiPolygon", "coordinates": [ [ [ [ 1263749.034566706512123, 5545281.343784033320844 ], [ 1263849.034566706512123, 5545281.343784033320844 ], [ 1263849.034566706512123, 5545181.343784033320844 ], [ 1263749.034566706512123, 5545181.343784033320844 ], [ 1263749.034566706512123, 5545281.343784033320844 ] ] ] ] } },
{ "type": "Feature", "properties": { "id": 16300, "street_cells": 0.0, "yard_cells": 5292.0143771898001, "utility": 4.2908616900880219, "num_areas": 0.0 }, "geometry": { "type": "MultiPolygon", "coordinates": [ [ [ [ 1263749.034566706512123, 5543381.343784033320844 ], [ 1263849.034566706512123, 5543381.343784033320844 ], [ 1263849.034566706512123, 5543281.343784033320844 ], [ 1263749.034566706512123, 5543281.343784033320844 ], [ 1263749.034566706512123, 5543381.343784033320844 ] ] ] ] } },
{ "type": "Feature", "properties": { "id": 16771, "street_cells": 463.03511076457801, "yard_cells": 3018.1385721343231, "utility": 3.0007203490363912, "num_areas": 1.0 }, "geometry": { "type": "MultiPolygon", "coordinates": [ [ [ [ 1264049.034566706512123, 5543981.343784033320844 ], [ 1264149.034566706512123, 5543981.343784033320844 ], [ 1264149.034566706512123, 5543881.343784033320844 ], [ 1264049.034566706512123, 5543881.343784033320844 ], [ 1264049.034566706512123, 5543981.343784033320844 ] ] ] ] } },
{ "type": "Feature", "properties": { "id": 18045, "street_cells": 102.2856218669564, "yard_cells": 4921.4808836719021, "utility": 2.869624261696182, "num_areas": 0.0 }, "geometry": { "type": "MultiPolygon", "coordinates": [ [ [ [ 1264849.034566706512123, 5543781.343784033320844 ], [ 1264949.034566706512123, 5543781.343784033320844 ], [ 1264949.034566706512123, 5543681.343784033320844 ], [ 1264849.034566706512123, 5543681.343784033320844 ], [ 1264849.034566706512123, 5543781.343784033320844 ] ] ] ] } },
{ "type": "Feature", "properties": { "id": 18850, "street_cells": 0.0, "yard_cells": 4580.8953610977624, "utility": 2.9827502466607339, "num_areas": 0.0 }, "geometry": { "type": "MultiPolygon", "coordinates": [ [ [ [ 1265349.034566706512123, 5542781.343784033320844 ], [ 1265449.034566706512123, 5542781.343784033320844 ], [ 1265449.034566706512123, 5542681.343784033320844 ], [ 1265349.034566706512123, 5542681.343784033320844 ], [ 1265349.034566706512123, 5542781.343784033320844 ] ] ] ] } },
{ "type": "Feature", "properties": { "id": 18882, "street_cells": 587.45694933980701, "yard_cells": 3155.827812027419, "utility": 3.2525034512139981, "num_areas": 0.0 }, "geometry": { "type": "MultiPolygon", "coordinates": [ [ [ [ 1265349.034566706512123, 5539581.343784033320844 ], [ 1265449.034566706512123, 5539581.343784033320844 ], [ 1265449.034566706512123, 5539481.343784033320844 ], [ 1265349.034566706512123, 5539481.343784033320844 ], [ 1265349.034566706512123, 5539581.343784033320844 ] ] ] ] } },
{ "type": "Feature", "properties": { "id": 19026, "street_cells": 89.247118216753009, "yard_cells": 4252.6668162099086, "utility": 3.9110841124331288, "num_areas": 1.0 }, "geometry": { "type": "MultiPolygon", "coordinates": [ [ [ [ 1265449.034566706512123, 5541081.343784033320844 ], [ 1265549.034566706512123, 5541081.343784033320844 ], [ 1265549.034566706512123, 5540981.343784033320844 ], [ 1265449.034566706512123, 5540981.343784033320844 ], [ 1265449.034566706512123, 5541081.343784033320844 ] ] ] ] } },
{ "type": "Feature", "properties": { "id": 19036, "street_cells": 373.47678840458389, "yard_cells": 4087.450643396277, "utility": 2.6586726017636582, "num_areas": 0.0 }, "geometry": { "type": "MultiPolygon", "coordinates": [ [ [ [ 1265449.034566706512123, 5540081.343784033320844 ], [ 1265549.034566706512123, 5540081.343784033320844 ], [ 1265549.034566706512123, 5539981.343784033320844 ], [ 1265449.034566706512123, 5539981.343784033320844 ], [ 1265449.034566706512123, 5540081.343784033320844 ] ] ] ] } },
{ "type": "Feature", "properties": { "id": 19037, "street_cells": 405.75128435343498, "yard_cells": 4360.9408056268003, "utility": 3.3994074320785361, "num_areas": 0.0 }, "geometry": { "type": "MultiPolygon", "coordinates": [ [ [ [ 1265449.034566706512123, 5539981.343784033320844 ], [ 1265549.034566706512123, 5539981.343784033320844 ], [ 1265549.034566706512123, 5539881.343784033320844 ], [ 1265449.034566706512123, 5539881.343784033320844 ], [ 1265449.034566706512123, 5539981.343784033320844 ] ] ] ] } },
{ "type": "Feature", "properties": { "id": 19195, "street_cells": 521.43410122096543, "yard_cells": 3775.21623814851, "utility": 3.0256338618111158, "num_areas": 0.0 }, "geometry": { "type": "MultiPolygon", "coordinates": [ [ [ [ 1265549.034566706512123, 5540081.343784033320844 ], [ 1265649.034566706512123, 5540081.343784033320844 ], [ 1265649.034566706512123, 5539981.343784033320844 ], [ 1265549.034566706512123, 5539981.343784033320844 ], [ 1265549.034566706512123, 5540081.343784033320844 ] ] ] ] } },
{ "type": "Feature", "properties": { "id": 19237, "street_cells": 263.88205305226148, "yard_cells": 4050.1902507841592, "utility": 4.851651324624509, "num_areas": 0.0 }, "geometry": { "type": "MultiPolygon", "coordinates": [ [ [ [ 1265549.034566706512123, 5535881.343784033320844 ], [ 1265649.034566706512123, 5535881.343784033320844 ], [ 1265649.034566706512123, 5535781.343784033320844 ], [ 1265549.034566706512123, 5535781.343784033320844 ], [ 1265549.034566706512123, 5535881.343784033320844 ] ] ] ] } },
{ "type": "Feature", "properties": { "id": 19345, "street_cells": 83.43431467264891, "yard_cells": 4805.7986906468868, "utility": 6.5293987024549578, "num_areas": 0.0 }, "geometry": { "type": "MultiPolygon", "coordinates": [ [ [ [ 1265649.034566706512123, 5540981.343784033320844 ], [ 1265749.034566706512123, 5540981.343784033320844 ], [ 1265749.034566706512123, 5540881.343784033320844 ], [ 1265649.034566706512123, 5540881.343784033320844 ], [ 1265649.034566706512123, 5540981.343784033320844 ] ] ] ] } },
{ "type": "Feature", "properties": { "id": 19504, "street_cells": 0.0, "yard_cells": 6084.0324303353718, "utility": 3.9395326552501539, "num_areas": 0.0 }, "geometry": { "type": "MultiPolygon", "coordinates": [ [ [ [ 1265749.034566706512123, 5540981.343784033320844 ], [ 1265849.034566706512123, 5540981.343784033320844 ], [ 1265849.034566706512123, 5540881.343784033320844 ], [ 1265749.034566706512123, 5540881.343784033320844 ], [ 1265749.034566706512123, 5540981.343784033320844 ] ] ] ] } },
{ "type": "Feature", "properties": { "id": 19527, "street_cells": 405.8653359785676, "yard_cells": 3156.714815961197, "utility": 4.2073499197740496, "num_areas": 0.0 }, "geometry": { "type": "MultiPolygon", "coordinates": [ [ [ [ 1265793.211446529254317, 5538591.527256065048277 ], [ 1265789.306784606073052, 5538602.667984748259187 ], [ 1265789.331363091710955, 5538603.518316358327866 ], [ 1265773.587894692784175, 5538645.218657799065113 ], [ 1265764.71659587114118, 5538660.783112415112555 ], [ 1265752.434265846852213, 5538681.343784033320844 ], [ 1265849.034566706512123, 5538681.343784033320844 ], [ 1265849.034566706512123, 5538581.343784033320844 ], [ 1265796.781568184262142, 5538581.343784033320844 ], [ 1265793.211446529254317, 5538591.527256065048277 ] ] ] ] } },
{ "type": "Feature", "properties": { "id": 19665, "street_cells": 528.43761329501865, "yard_cells": 2968.4812332959218, "utility": 3.5285537406600298, "num_areas": 0.0 }, "geometry": { "type": "MultiPolygon", "coordinates": [ [ [ [ 1265849.034566706512123, 5540781.343784033320844 ], [ 1265949.034566706512123, 5540781.343784033320844 ], [ 1265949.034566706512123, 5540681.343784033320844 ], [ 1265849.034566706512123, 5540681.343784033320844 ], [ 1265849.034566706512123, 5540781.343784033320844 ] ] ] ] } },
{ "type": "Feature", "properties": { "id": 19675, "street_cells": 237.33096101582049, "yard_cells": 4757.0810152050108, "utility": 3.4748724233909321, "num_areas": 0.0 }, "geometry": { "type": "MultiPolygon", "coordinates": [ [ [ [ 1265849.034566706512123, 5539781.343784033320844 ], [ 1265949.034566706512123, 5539781.343784033320844 ], [ 1265949.034566706512123, 5539681.343784033320844 ], [ 1265849.034566706512123, 5539681.343784033320844 ], [ 1265849.034566706512123, 5539781.343784033320844 ] ] ] ] } },
{ "type": "Feature", "properties": { "id": 19696, "street_cells": 266.12332199811942, "yard_cells": 4760.3937375913374, "utility": 4.6738371880034606, "num_areas": 0.0 }, "geometry": { "type": "MultiPolygon", "coordinates": [ [ [ [ 1265849.034566706512123, 5537681.343784033320844 ], [ 1265949.034566706512123, 5537681.343784033320844 ], [ 1265949.034566706512123, 5537581.343784033320844 ], [ 1265849.034566706512123, 5537581.343784033320844 ], [ 1265849.034566706512123, 5537681.343784033320844 ] ] ] ] } },
{ "type": "Feature", "properties": { "id": 19714, "street_cells": 0.0, "yard_cells": 3097.2877906057979, "utility": 6.8755268729078791, "num_areas": 0.0 }, "geometry": { "type": "MultiPolygon", "coordinates": [ [ [ [ 1265849.034566706512123, 5535881.343784033320844 ], [ 1265949.034566706512123, 5535881.343784033320844 ], [ 1265949.034566706512123, 5535781.343784033320844 ], [ 1265849.034566706512123, 5535781.343784033320844 ], [ 1265849.034566706512123, 5535881.343784033320844 ] ] ] ] } },
{ "type": "Feature", "properties": { "id": 19790, "street_cells": 538.29415539614854, "yard_cells": 3997.9630690040071, "utility": 5.2128323415753917, "num_areas": 0.0 }, "geometry": { "type": "MultiPolygon", "coordinates": [ [ [ [ 1265949.034566706512123, 5544181.343784033320844 ], [ 1266049.034566706512123, 5544181.343784033320844 ], [ 1266049.034566706512123, 5544081.343784033320844 ], [ 1265949.034566706512123, 5544081.343784033320844 ], [ 1265949.034566706512123, 5544181.343784033320844 ] ] ] ] } },
{ "type": "Feature", "properties": { "id": 19846, "street_cells": 353.34486205093572, "yard_cells": 5548.9911384615116, "utility": 5.5313475633467926, "num_areas": 0.0 }, "geometry": { "type": "MultiPolygon", "coordinates": [ [ [ [ 1265949.034566706512123, 5538581.343784033320844 ], [ 1266049.034566706512123, 5538581.343784033320844 ], [ 1266049.034566706512123, 5538481.343784033320844 ], [ 1265949.034566706512123, 5538481.343784033320844 ], [ 1265949.034566706512123, 5538581.343784033320844 ] ] ] ] } },
{ "type": "Feature", "properties": { "id": 19847, "street_cells": 458.27338569164277, "yard_cells": 4218.036319706589, "utility": 2.581686948543203, "num_areas": 0.0 }, "geometry": { "type": "MultiPolygon", "coordinates": [ [ [ [ 1265949.034566706512123, 5538481.343784033320844 ], [ 1266049.034566706512123, 5538481.343784033320844 ], [ 1266049.034566706512123, 5538381.343784033320844 ], [ 1265949.034566706512123, 5538381.343784033320844 ], [ 1265949.034566706512123, 5538481.343784033320844 ] ] ] ] } },
{ "type": "Feature", "properties": { "id": 20007, "street_cells": 402.30077166110277, "yard_cells": 4788.8549289484508, "utility": 6.1527112372998767, "num_areas": 0.0 }, "geometry": { "type": "MultiPolygon", "coordinates": [ [ [ [ 1266049.034566706512123, 5538381.343784033320844 ], [ 1266149.034566706512123, 5538381.343784033320844 ], [ 1266149.034566706512123, 5538281.343784033320844 ], [ 1266049.034566706512123, 5538281.343784033320844 ], [ 1266049.034566706512123, 5538381.343784033320844 ] ] ] ] } },
{ "type": "Feature", "properties": { "id": 20011, "street_cells": 186.73449331186711, "yard_cells": 5469.198301845463, "utility": 3.6319931928962488, "num_areas": 0.0 }, "geometry": { "type": "MultiPolygon", "coordinates": [ [ [ [ 1266049.034566706512123, 5537981.343784033320844 ], [ 1266149.034566706512123, 5537981.343784033320844 ], [ 1266149.034566706512123, 5537881.343784033320844 ], [ 1266049.034566706512123, 5537881.343784033320844 ], [ 1266049.034566706512123, 5537981.343784033320844 ] ] ] ] } },
{ "type": "Feature", "properties": { "id": 20156, "street_cells": 427.43424261324111, "yard_cells": 4347.3148755629663, "utility": 2.8371617953682828, "num_areas": 0.0 }, "geometry": { "type": "MultiPolygon", "coordinates": [ [ [ [ 1266149.034566706512123, 5539381.343784033320844 ], [ 1266249.034566706512123, 5539381.343784033320844 ], [ 1266249.034566706512123, 5539281.343784033320844 ], [ 1266149.034566706512123, 5539281.343784033320844 ], [ 1266149.034566706512123, 5539381.343784033320844 ] ] ] ] } },
{ "type": "Feature", "properties": { "id": 20157, "street_cells": 398.08790247887367, "yard_cells": 4665.5144264637493, "utility": 2.5877552581060712, "num_areas": 0.0 }, "geometry": { "type": "MultiPolygon", "coordinates": [ [ [ [ 1266149.034566706512123, 5539281.343784033320844 ], [ 1266249.034566706512123, 5539281.343784033320844 ], [ 1266249.034566706512123, 5539181.343784033320844 ], [ 1266149.034566706512123, 5539181.343784033320844 ], [ 1266149.034566706512123, 5539281.343784033320844 ] ] ] ] } },
{ "type": "Feature", "properties": { "id": 20158, "street_cells": 93.022410947084438, "yard_cells": 4457.5815007044002, "utility": 3.3156286020162109, "num_areas": 0.0 }, "geometry": { "type": "MultiPolygon", "coordinates": [ [ [ [ 1266149.034566706512123, 5539181.343784033320844 ], [ 1266249.034566706512123, 5539181.343784033320844 ], [ 1266249.034566706512123, 5539081.343784033320844 ], [ 1266149.034566706512123, 5539081.343784033320844 ], [ 1266149.034566706512123, 5539181.343784033320844 ] ] ] ] } },
{ "type": "Feature", "properties": { "id": 20307, "street_cells": 537.18822092115886, "yard_cells": 4275.1250982494093, "utility": 4.2592307180817564, "num_areas": 0.0 }, "geometry": { "type": "MultiPolygon", "coordinates": [ [ [ [ 1266249.034566706512123, 5540181.343784033320844 ], [ 1266349.034566706512123, 5540181.343784033320844 ], [ 1266349.034566706512123, 5540081.343784033320844 ], [ 1266249.034566706512123, 5540081.343784033320844 ], [ 1266249.034566706512123, 5540181.343784033320844 ] ] ] ] } },
{ "type": "Feature", "properties": { "id": 20787, "street_cells": 619.19268396496773, "yard_cells": 3359.1137279179711, "utility": 2.5328973812365669, "num_areas": 1.0 }, "geometry": { "type": "MultiPolygon", "coordinates": [ [ [ [ 1266549.034566706512123, 5539881.343784033320844 ], [ 1266649.034566706512123, 5539881.343784033320844 ], [ 1266649.034566706512123, 5539781.343784033320844 ], [ 1266549.034566706512123, 5539781.343784033320844 ], [ 1266549.034566706512123, 5539881.343784033320844 ] ] ] ] } },
{ "type": "Feature", "properties": { "id": 20791, "street_cells": 48.511434352956712, "yard_cells": 4699.7539819851518, "utility": 3.581320680863, "num_areas": 0.0 }, "geometry": { "type": "MultiPolygon", "coordinates": [ [ [ [ 1266549.034566706512123, 5539481.343784033320844 ], [ 1266649.034566706512123, 5539481.343784033320844 ], [ 1266649.034566706512123, 5539381.343784033320844 ], [ 1266549.034566706512123, 5539381.343784033320844 ], [ 1266549.034566706512123, 5539481.343784033320844 ] ] ] ] } },
{ "type": "Feature", "properties": { "id": 21105, "street_cells": 410.31305187175752, "yard_cells": 4927.360329084564, "utility": 6.4023699011339286, "num_areas": 0.0 }, "geometry": { "type": "MultiPolygon", "coordinates": [ [ [ [ 1266749.034566706512123, 5539881.343784033320844 ], [ 1266849.034566706512123, 5539881.343784033320844 ], [ 1266849.034566706512123, 5539781.343784033320844 ], [ 1266749.034566706512123, 5539781.343784033320844 ], [ 1266749.034566706512123, 5539881.343784033320844 ] ] ] ] } },
{ "type": "Feature", "properties": { "id": 21235, "street_cells": 0.0, "yard_cells": 1196.669396389741, "utility": 2.506084373192361, "num_areas": 0.0 }, "geometry": { "type": "MultiPolygon", "coordinates": [ [ [ [ 1266849.034566706512123, 5542781.343784033320844 ], [ 1266949.034566706512123, 5542781.343784033320844 ], [ 1266949.034566706512123, 5542681.343784033320844 ], [ 1266849.034566706512123, 5542681.343784033320844 ], [ 1266849.034566706512123, 5542781.343784033320844 ] ] ] ] } },
{ "type": "Feature", "properties": { "id": 21236, "street_cells": 166.48388651162389, "yard_cells": 7087.8723481572233, "utility": 3.241809549377396, "num_areas": 0.0 }, "geometry": { "type": "MultiPolygon", "coordinates": [ [ [ [ 1266849.034566706512123, 5542681.343784033320844 ], [ 1266949.034566706512123, 5542681.343784033320844 ], [ 1266949.034566706512123, 5542581.343784033320844 ], [ 1266849.034566706512123, 5542581.343784033320844 ], [ 1266849.034566706512123, 5542681.343784033320844 ] ] ] ] } },
{ "type": "Feature", "properties": { "id": 21560, "street_cells": 191.93236859738829, "yard_cells": 3920.2962802562029, "utility": 2.541370985479614, "num_areas": 0.0 }, "geometry": { "type": "MultiPolygon", "coordinates": [ [ [ [ 1267049.034566706512123, 5542081.343784033320844 ], [ 1267149.034566706512123, 5542081.343784033320844 ], [ 1267149.034566706512123, 5541981.343784033320844 ], [ 1267049.034566706512123, 5541981.343784033320844 ], [ 1267049.034566706512123, 5542081.343784033320844 ] ] ] ] } },
{ "type": "Feature", "properties": { "id": 21581, "street_cells": 387.23632563613359, "yard_cells": 4578.2422373865274, "utility": 2.9703215993453469, "num_areas": 0.0 }, "geometry": { "type": "MultiPolygon", "coordinates": [ [ [ [ 1267049.034566706512123, 5539981.343784033320844 ], [ 1267149.034566706512123, 5539981.343784033320844 ], [ 1267149.034566706512123, 5539881.343784033320844 ], [ 1267049.034566706512123, 5539881.343784033320844 ], [ 1267049.034566706512123, 5539981.343784033320844 ] ] ] ] } },
{ "type": "Feature", "properties": { "id": 21582, "street_cells": 401.67031501755122, "yard_cells": 4433.2278954680078, "utility": 2.7613774417299588, "num_areas": 0.0 }, "geometry": { "type": "MultiPolygon", "coordinates": [ [ [ [ 1267049.034566706512123, 5539881.343784033320844 ], [ 1267149.034566706512123, 5539881.343784033320844 ], [ 1267149.034566706512123, 5539781.343784033320844 ], [ 1267049.034566706512123, 5539781.343784033320844 ], [ 1267049.034566706512123, 5539881.343784033320844 ] ] ] ] } },
{ "type": "Feature", "properties": { "id": 21740, "street_cells": 608.85388379096992, "yard_cells": 3093.9890941488561, "utility": 2.8810796659675022, "num_areas": 0.0 }, "geometry": { "type": "MultiPolygon", "coordinates": [ [ [ [ 1267149.034566706512123, 5539981.343784033320844 ], [ 1267249.034566706512123, 5539981.343784033320844 ], [ 1267249.034566706512123, 5539881.343784033320844 ], [ 1267149.034566706512123, 5539881.343784033320844 ], [ 1267149.034566706512123, 5539981.343784033320844 ] ] ] ] } },
{ "type": "Feature", "properties": { "id": 21741, "street_cells": 372.95016006529329, "yard_cells": 4514.1450785961933, "utility": 4.2050699663650759, "num_areas": 0.0 }, "geometry": { "type": "MultiPolygon", "coordinates": [ [ [ [ 1267149.034566706512123, 5539881.343784033320844 ], [ 1267249.034566706512123, 5539881.343784033320844 ], [ 1267249.034566706512123, 5539781.343784033320844 ], [ 1267149.034566706512123, 5539781.343784033320844 ], [ 1267149.034566706512123, 5539881.343784033320844 ] ] ] ] } },
{ "type": "Feature", "properties": { "id": 21746, "street_cells": 348.48698984310028, "yard_cells": 3806.581533207494, "utility": 2.579625005990632, "num_areas": 2.0 }, "geometry": { "type": "MultiPolygon", "coordinates": [ [ [ [ 1267149.034566706512123, 5539381.343784033320844 ], [ 1267249.034566706512123, 5539381.343784033320844 ], [ 1267249.034566706512123, 5539281.343784033320844 ], [ 1267149.034566706512123, 5539281.343784033320844 ], [ 1267149.034566706512123, 5539381.343784033320844 ] ] ] ] } },
{ "type": "Feature", "properties": { "id": 21876, "street_cells": 312.50244267433891, "yard_cells": 3013.6224693525578, "utility": 2.795747265609029, "num_areas": 0.0 }, "geometry": { "type": "MultiPolygon", "coordinates": [ [ [ [ 1267249.034566706512123, 5542281.343784033320844 ], [ 1267349.034566706512123, 5542281.343784033320844 ], [ 1267349.034566706512123, 5542181.343784033320844 ], [ 1267249.034566706512123, 5542181.343784033320844 ], [ 1267249.034566706512123, 5542281.343784033320844 ] ] ] ] } },
{ "type": "Feature", "properties": { "id": 21877, "street_cells": 758.87616989761591, "yard_cells": 2371.7547569562048, "utility": 3.0824761126153239, "num_areas": 0.0 }, "geometry": { "type": "MultiPolygon", "coordinates": [ [ [ [ 1267249.034566706512123, 5542181.343784033320844 ], [ 1267349.034566706512123, 5542181.343784033320844 ], [ 1267349.034566706512123, 5542081.343784033320844 ], [ 1267249.034566706512123, 5542081.343784033320844 ], [ 1267249.034566706512123, 5542181.343784033320844 ] ] ] ] } },
{ "type": "Feature", "properties": { "id": 21901, "street_cells": 451.28774762153631, "yard_cells": 4348.6233609674673, "utility": 3.130786275526575, "num_areas": 0.0 }, "geometry": { "type": "MultiPolygon", "coordinates": [ [ [ [ 1267249.034566706512123, 5539781.343784033320844 ], [ 1267349.034566706512123, 5539781.343784033320844 ], [ 1267349.034566706512123, 5539681.343784033320844 ], [ 1267249.034566706512123, 5539681.343784033320844 ], [ 1267249.034566706512123, 5539781.343784033320844 ] ] ] ] } },
{ "type": "Feature", "properties": { "id": 21904, "street_cells": 453.98959315903488, "yard_cells": 4209.1956651906748, "utility": 3.5092078868136181, "num_areas": 0.0 }, "geometry": { "type": "MultiPolygon", "coordinates": [ [ [ [ 1267249.034566706512123, 5539481.343784033320844 ], [ 1267349.034566706512123, 5539481.343784033320844 ], [ 1267349.034566706512123, 5539381.343784033320844 ], [ 1267249.034566706512123, 5539381.343784033320844 ], [ 1267249.034566706512123, 5539481.343784033320844 ] ] ] ] } },
{ "type": "Feature", "properties": { "id": 21907, "street_cells": 421.37787138968707, "yard_cells": 4340.0818873234093, "utility": 4.4395394545631888, "num_areas": 0.0 }, "geometry": { "type": "MultiPolygon", "coordinates": [ [ [ [ 1267249.034566706512123, 5539181.343784033320844 ], [ 1267349.034566706512123, 5539181.343784033320844 ], [ 1267349.034566706512123, 5539081.343784033320844 ], [ 1267249.034566706512123, 5539081.343784033320844 ], [ 1267249.034566706512123, 5539181.343784033320844 ] ] ] ] } },
{ "type": "Feature", "properties": { "id": 22033, "street_cells": 126.0680740647018, "yard_cells": 4893.7524954681276, "utility": 2.780935493350865, "num_areas": 0.0 }, "geometry": { "type": "MultiPolygon", "coordinates": [ [ [ [ 1267349.034566706512123, 5542481.343784033320844 ], [ 1267449.034566706512123, 5542481.343784033320844 ], [ 1267449.034566706512123, 5542381.343784033320844 ], [ 1267349.034566706512123, 5542381.343784033320844 ], [ 1267349.034566706512123, 5542481.343784033320844 ] ] ] ] } },
{ "type": "Feature", "properties": { "id": 22225, "street_cells": 291.13715378623459, "yard_cells": 4391.4821345142554, "utility": 2.9461286953043722, "num_areas": 1.0 }, "geometry": { "type": "MultiPolygon", "coordinates": [ [ [ [ 1267449.034566706512123, 5539181.343784033320844 ], [ 1267549.034566706512123, 5539181.343784033320844 ], [ 1267549.034566706512123, 5539081.343784033320844 ], [ 1267449.034566706512123, 5539081.343784033320844 ], [ 1267449.034566706512123, 5539181.343784033320844 ] ] ] ] } },
{ "type": "Feature", "properties": { "id": 22226, "street_cells": 278.40787494089449, "yard_cells": 4820.1514186765999, "utility": 4.6085583811290967, "num_areas": 0.0 }, "geometry": { "type": "MultiPolygon", "coordinates": [ [ [ [ 1267449.034566706512123, 5539081.343784033320844 ], [ 1267549.034566706512123, 5539081.343784033320844 ], [ 1267549.034566706512123, 5538981.343784033320844 ], [ 1267449.034566706512123, 5538981.343784033320844 ], [ 1267449.034566706512123, 5539081.343784033320844 ] ] ] ] } },
{ "type": "Feature", "properties": { "id": 24895, "street_cells": 273.32828853502872, "yard_cells": 4638.1912089753896, "utility": 3.110322945643432, "num_areas": 1.0 }, "geometry": { "type": "MultiPolygon", "coordinates": [ [ [ [ 1269149.034566706512123, 5542481.343784033320844 ], [ 1269249.034566706512123, 5542481.343784033320844 ], [ 1269249.034566706512123, 5542381.343784033320844 ], [ 1269149.034566706512123, 5542381.343784033320844 ], [ 1269149.034566706512123, 5542481.343784033320844 ] ] ] ] } },
{ "type": "Feature", "properties": { "id": 25055, "street_cells": 405.65131325200201, "yard_cells": 5699.9746062643826, "utility": 3.862205521219964, "num_areas": 0.0 }, "geometry": { "type": "MultiPolygon", "coordinates": [ [ [ [ 1269249.034566706512123, 5542381.343784033320844 ], [ 1269349.034566706512123, 5542381.343784033320844 ], [ 1269349.034566706512123, 5542281.343784033320844 ], [ 1269249.034566706512123, 5542281.343784033320844 ], [ 1269249.034566706512123, 5542381.343784033320844 ] ] ] ] } },
{ "type": "Feature", "properties": { "id": 25703, "street_cells": 135.3512080207467, "yard_cells": 5217.9668658589944, "utility": 5.2328007155096312, "num_areas": 0.0 }, "geometry": { "type": "MultiPolygon", "coordinates": [ [ [ [ 1269722.840282435528934, 5541154.313003056682646 ], [ 1269745.01568117341958, 5541146.159186707809567 ], [ 1269749.034566706512123, 5541144.455984814092517 ], [ 1269749.034566706512123, 5541081.343784033320844 ], [ 1269649.034566706512123, 5541081.343784033320844 ], [ 1269649.034566706512123, 5541181.343784033320844 ], [ 1269657.656470290385187, 5541181.343784033320844 ], [ 1269722.840282435528934, 5541154.313003056682646 ] ] ] ] } },
{ "type": "Feature", "properties": { "id": 26658, "street_cells": 0.0, "yard_cells": 3292.491110514849, "utility": 7.4635927893664444, "num_areas": 0.0 }, "geometry": { "type": "MultiPolygon", "coordinates": [ [ [ [ 1270263.900941400555894, 5541020.949460439383984 ], [ 1270300.075408049859107, 5541003.448872189037502 ], [ 1270300.086371241603047, 5541003.469566242769361 ], [ 1270302.466687764041126, 5541002.31777417846024 ], [ 1270317.400453427340835, 5541030.440608610399067 ], [ 1270349.034566706512123, 5541015.683520069345832 ], [ 1270349.034566706512123, 5540986.462672933936119 ], [ 1270346.481167370453477, 5540981.343784033320844 ], [ 1270249.034566706512123, 5540981.343784033320844 ], [ 1270249.034566706512123, 5540991.702499872073531 ], [ 1270263.900941400555894, 5541020.949460439383984 ] ] ] ] } },
{ "type": "Feature", "properties": { "id": 26659, "street_cells": 194.83976573720579, "yard_cells": 5121.5098157626053, "utility": 5.2547296895436446, "num_areas": 0.0 }, "geometry": { "type": "MultiPolygon", "coordinates": [ [ [ [ 1270302.317869324004278, 5540892.808076760731637 ], [ 1270308.040328935720026, 5540890.271688754670322 ], [ 1270328.023470380343497, 5540881.343784033320844 ], [ 1270249.034566706512123, 5540881.343784033320844 ], [ 1270249.034566706512123, 5540981.343784033320844 ], [ 1270346.481167370453477, 5540981.343784033320844 ], [ 1270302.317869324004278, 5540892.808076760731637 ] ] ] ] } },
{ "type": "Feature", "properties": { "id": 26660, "street_cells": 37.529903423693042, "yard_cells": 3462.7183418422942, "utility": 3.4337263634409312, "num_areas": 0.0 }, "geometry": { "type": "MultiPolygon", "coordinates": [ [ [ [ 1270349.034566706512123, 5540871.956618025898933 ], [ 1270349.034566706512123, 5540781.343784033320844 ], [ 1270249.034566706512123, 5540781.343784033320844 ], [ 1270249.034566706512123, 5540881.343784033320844 ], [ 1270328.023470380343497, 5540881.343784033320844 ], [ 1270349.034566706512123, 5540871.956618025898933 ] ] ] ] } },
{ "type": "Feature", "properties": { "id": 26661, "street_cells": 0.0, "yard_cells": 2955.0510063618422, "utility": 6.6986657345427103, "num_areas": 0.0 }, "geometry": { "type": "MultiPolygon", "coordinates": [ [ [ [ 1270249.034566706512123, 5540711.852784902788699 ], [ 1270249.034566706512123, 5540781.343784033320844 ], [ 1270349.034566706512123, 5540781.343784033320844 ], [ 1270349.034566706512123, 5540681.343784033320844 ], [ 1270314.085003803484142, 5540681.343784033320844 ], [ 1270249.034566706512123, 5540711.852784902788699 ] ] ] ] } },
{ "type": "Feature", "properties": { "id": 26819, "street_cells": 119.9642244094284, "yard_cells": 5315.4781482988037, "utility": 5.3497821278171616, "num_areas": 0.0 }, "geometry": { "type": "MultiPolygon", "coordinates": [ [ [ [ 1270436.532205266179517, 5540832.865137711167336 ], [ 1270436.580200990429148, 5540832.844700532965362 ], [ 1270438.931611831532791, 5540831.793484089896083 ], [ 1270449.034566706512123, 5540827.487463670782745 ], [ 1270449.034566706512123, 5540781.343784033320844 ], [ 1270349.034566706512123, 5540781.343784033320844 ], [ 1270349.034566706512123, 5540871.956618025898933 ], [ 1270436.532205266179517, 5540832.865137711167336 ] ] ] ] } },
{ "type": "Feature", "properties": { "id": 26820, "street_cells": 0.0, "yard_cells": 6424.2059857100248, "utility": 14.562729514811799, "num_areas": 0.0 }, "geometry": { "type": "MultiPolygon", "coordinates": [ [ [ [ 1270349.034566706512123, 5540781.343784033320844 ], [ 1270449.034566706512123, 5540781.343784033320844 ], [ 1270449.034566706512123, 5540681.343784033320844 ], [ 1270349.034566706512123, 5540681.343784033320844 ], [ 1270349.034566706512123, 5540781.343784033320844 ] ] ] ] } }
]
}
