{
"type": "FeatureCollection",
"name": "higher_density",
"crs": { "type": "name", "properties": { "name": "urn:ogc:def:crs:EPSG::3857" } },
"features": [
{ "type": "Feature", "properties": { "id": 5487, "street_cells": 0.0, "yard_cells": 4891.4127388072666, "utility": 2.9729535315173941, "num_areas": 0.0 }, "geometry": { "type": "MultiPolygon", "coordinates": [ [ [ [ 1256949.034566706512123, 5543481.343784033320844 ], [ 1257049.034566706512123, 5543481.343784033320844 ], [ 1257049.034566706512123, 5543381.343784033320844 ], [ 1256949.034566706512123, 5543381.343784033320844 ], [ 1256949.034566706512123, 5543481.343784033320844 ] ] ] ] } },
{ "type": "Feature", "properties": { "id": 5960, "street_cells": 469.22495975792413, "yard_cells": 4691.6238505505034, "utility": 3.3232654206267811, "num_areas": 0.0 }, "geometry": { "type": "MultiPolygon", "coordinates": [ [ [ [ 1257249.034566706512123, 5543881.343784033320844 ], [ 1257349.034566706512123, 5543881.343784033320844 ], [ 1257349.034566706512123, 5543781.343784033320844 ], [ 1257249.034566706512123, 5543781.343784033320844 ], [ 1257249.034566706512123, 5543881.343784033320844 ] ] ] ] } },
{ "type": "Feature", "properties": { "id": 6119, "street_cells": 549.04625656604765, "yard_cells": 2515.7750391184818, "utility": 2.5002279790793782, "num_areas": 0.0 }, "geometry": { "type": "MultiPolygon", "coordinates": [ [ [ [ 1257349.034566706512123, 5543881.343784033320844 ], [ 1257449.034566706512123, 5543881.343784033320844 ], [ 1257449.034566706512123, 5543781.343784033320844 ], [ 1257349.034566706512123, 5543781.343784033320844 ], [ 1257349.034566706512123, 5543881.343784033320844 ] ] ] ] } },
{ "type": "Feature", "properties": { "id": 8215, "street_cells": 163.3471173211932, "yard_cells": 4443.3092762976876, "utility": 2.5170786102565681, "num_areas": 0.0 }, "geometry": { "type": "MultiPolygon", "coordinates": [ [ [ [ 1258655.440917155239731, 5540971.721566090360284 ], [ 1258665.885956414975226, 5540977.330933114513755 ], [ 1258674.719331277068704, 5540981.343784033320844 ], [ 1258749.034566706512123, 5540981.343784033320844 ], [ 1258749.034566706512123, 5540881.343784033320844 ], [ 1258649.034566706512123, 5540881.343784033320844 ], [ 1258649.034566706512123, 5540968.161971695721149 ], [ 1258655.440917155239731, 5540971.721566090360284 ] ] ] ] } },
{ "type": "Feature", "properties": { "id": 8826, "street_cells": 188.47162948250769, "yard_cells": 4486.1574629948773, "utility": 2.7297355705493791, "num_areas": 0.0 }, "geometry": { "type": "MultiPolygon", "coordinates": [ [ [ [ 1259049.034566706512123, 5543481.343784033320844 ], [ 1259149.034566706512123, 5543481.343784033320844 ], [ 1259149.034566706512123, 5543381.343784033320844 ], [ 1259049.034566706512123, 5543381.343784033320844 ], [ 1259049.034566706512123, 5543481.343784033320844 ] ] ] ] } },
{ "type": "Feature", "properties": { "id": 8988, "street_cells": 310.83016735278068, "yard_cells": 3592.2731030020791, "utility": 3.550758293116155, "num_areas": 0.0 }, "geometry": { "type": "MultiPolygon", "coordinates": [ [ [ [ 1259149.034566706512123, 5543181.343784033320844 ], [ 1259249.034566706512123, 5543181.343784033320844 ], [ 1259249.034566706512123, 5543081.343784033320844 ], [ 1259149.034566706512123, 5543081.343784033320844 ], [ 1259149.034566706512123, 5543181.343784033320844 ] ] ] ] } },
{ "type": "Feature", "properties": { "id": 9789, "street_cells": 391.16730992421509, "yard_cells": 4313.6058061392296, "utility": 2.703208718686795, "num_areas": 2.0 }, "geometry": { "type": "MultiPolygon", "coordinates": [ [ [ [ 1259649.034566706512123, 5542581.343784033320844 ], [ 1259749.034566706512123, 5542581.343784033320844 ], [ 1259749.034566706512123, 5542481.343784033320844 ], [ 1259649.034566706512123, 5542481.343784033320844 ], [ 1259649.034566706512123, 5542581.343784033320844 ] ] ] ] } },
{ "type": "Feature", "properties": { "id": 10266, "street_cells": 448.9022647455335, "yard_cells": 2595.0801396383008, "utility": 3.2115294289385679, "num_areas": 0.0 }, "geometry": { "type": "MultiPolygon", "coordinates": [ [ [ [ 1259949.034566706512123, 5542581.343784033320844 ], [ 1260049.034566706512123, 5542581.343784033320844 ], [ 1260049.034566706512123, 5542481.343784033320844 ], [ 1259949.034566706512123, 5542481.343784033320844 ], [ 1259949.034566706512123, 5542581.343784033320844 ] ] ] ] } },
{ "type": "Feature", "properties": { "id": 10276, "street_cells": 208.80996038094159, "yard_cells": 4386.9847510553427, "utility": 4.234292686354852, "num_areas": 0.0 }, "geometry": { "type": "MultiPolygon", "coordinates": [ [ [ [ 1259949.034566706512123, 5541581.343784033320844 ], [ 1260049.034566706512123, 5541581.343784033320844 ], [ 1260049.034566706512123, 5541481.343784033320844 ], [ 1259949.034566706512123, 5541481.343784033320844 ], [ 1259949.034566706512123, 5541581.343784033320844 ] ] ] ] } },
{ "type": "Feature", "properties": { "id": 11220, "street_cells": 299.74240318126982, "yard_cells": 3218.3809622842818, "utility": 2.6138779266233372, "num_areas": 1.0 }, "geometry": { "type": "MultiPolygon", "coordinates": [ [ [ [ 1260549.034566706512123, 5542581.343784033320844 ], [ 1260649.034566706512123, 5542581.343784033320844 ], [ 1260649.034566706512123, 5542481.343784033320844 ], [ 1260549.034566706512123, 5542481.343784033320844 ], [ 1260549.034566706512123, 5542581.343784033320844 ] ] ] ] } },
{ "type": "Feature", "properties": { "id": 12174, "street_cells": 204.48603859841819, "yard_cells": 2492.5213369297321, "utility": 2.818363848070728, "num_areas": 0.0 }, "geometry": { "type": "MultiPolygon", "coordinates": [ [ [ [ 1261149.034566706512123, 5542581.343784033320844 ], [ 1261249.034566706512123, 5542581.343784033320844 ], [ 1261249.034566706512123, 5542481.343784033320844 ], [ 1261149.034566706512123, 5542481.343784033320844 ], [ 1261149.034566706512123, 5542581.343784033320844 ] ] ] ] } },
{ "type": "Feature", "properties": { "id": 12329, "street_cells": 3.8338204316794871, "yard_cells": 4379.2317712325603, "utility": 2.4802870217314941, "num_areas": 3.0 }, "geometry": { "type": "MultiPolygon", "coordinates": [ [ [ [ 1261249.034566706512123, 5542981.343784033320844 ], [ 1261349.034566706512123, 5542981.343784033320844 ], [ 1261349.034566706512123, 5542881.343784033320844 ], [ 1261249.034566706512123, 5542881.343784033320844 ], [ 1261249.034566706512123, 5542981.343784033320844 ] ] ] ] } },
{ "type": "Feature", "properties": { "id": 12488, "street_cells": 225.50759083591399, "yard_cells": 2662.53792477774, "utility": 3.1452320874953701, "num_areas": 1.0 }, "geometry": { "type": "MultiPolygon", "coordinates": [ [ [ [ 1261349.034566706512123, 5542981.343784033320844 ], [ 1261449.034566706512123, 5542981.343784033320844 ], [ 1261449.034566706512123, 5542881.343784033320844 ], [ 1261349.034566706512123, 5542881.343784033320844 ], [ 1261349.034566706512123, 5542981.343784033320844 ] ] ] ] } },
{ "type": "Feature", "properties": { "id": 12647, "street_cells": 1324.149462202937, "yard_cells": 699.58781926085999, "utility": 4.0470250946342414, "num_areas": 0.0 }, "geometry": { "type": "MultiPolygon", "coordinates": [ [ [ [ 1261449.034566706512123, 5542981.343784033320844 ], [ 1261549.034566706512123, 5542981.343784033320844 ], [ 1261549.034566706512123, 5542881.343784033320844 ], [ 1261449.034566706512123, 5542881.343784033320844 ], [ 1261449.034566706512123, 5542981.343784033320844 ] ] ] ] } },
{ "type": "Feature", "properties": { "id": 12963, "street_cells": 649.3830659359694, "yard_cells": 1786.9692311049839, "utility": 2.588747860532997, "num_areas": 0.0 }, "geometry": { "type": "MultiPolygon", "coordinates": [ [ [ [ 1261649.034566706512123, 5543181.343784033320844 ], [ 1261749.034566706512123, 5543181.343784033320844 ], [ 1261749.034566706512123, 5543081.343784033320844 ], [ 1261649.034566706512123, 5543081.343784033320844 ], [ 1261649.034566706512123, 5543181.343784033320844 ] ] ] ] } },
{ "type": "Feature", "properties": { "id": 12965, "street_cells": 753.99866456910968, "yard_cells": 1446.8981035389011, "utility": 2.553280176516644, "num_areas": 1.0 }, "geometry": { "type": "MultiPolygon", "coordinates": [ [ [ [ 1261649.034566706512123, 5542981.343784033320844 ], [ 1261749.034566706512123, 5542981.343784033320844 ], [ 1261749.034566706512123, 5542881.343784033320844 ], [ 1261649.034566706512123, 5542881.343784033320844 ], [ 1261649.034566706512123, 5542981.343784033320844 ] ] ] ] } },
{ "type": "Feature", "properties": { "id": 13575, "street_cells": 802.9284239562229, "yard_cells": 3126.054509890731, "utility": 4.6907205900650162, "num_areas": 0.0 }, "geometry": { "type": "MultiPolygon", "coordinates": [ [ [ [ 1262049.034566706512123, 5545581.343784033320844 ], [ 1262149.034566706512123, 5545581.343784033320844 ], [ 1262149.034566706512123, 5545481.343784033320844 ], [ 1262049.034566706512123, 5545481.343784033320844 ], [ 1262049.034566706512123, 5545581.343784033320844 ] ] ] ] } },
{ "type": "Feature", "properties": { "id": 13596, "street_cells": 610.08476539552214, "yard_cells": 2669.9848902311051, "utility": 4.5552850011359984, "num_areas": 0.0 }, "geometry": { "type": "MultiPolygon", "coordinates": [ [ [ [ 1262049.034566706512123, 5543481.343784033320844 ], [ 1262149.034566706512123, 5543481.343784033320844 ], [ 1262149.034566706512123, 5543381.343784033320844 ], [ 1262049.034566706512123, 5543381.343784033320844 ], [ 1262049.034566706512123, 5543481.343784033320844 ] ] ] ] } },
{ "type": "Feature", "properties": { "id": 13734, "street_cells": 566.02868685871363, "yard_cells": 3536.6990577424881, "utility": 2.7728931072102152, "num_areas": 0.0 }, "geometry": { "type": "MultiPolygon", "coordinates": [ [ [ [ 1262149.034566706512123, 5545581.343784033320844 ], [ 1262249.034566706512123, 5545581.343784033320844 ], [ 1262249.034566706512123, 5545481.343784033320844 ], [ 1262149.034566706512123, 5545481.343784033320844 ], [ 1262149.034566706512123, 5545581.343784033320844 ] ] ] ] } },
{ "type": "Feature", "properties": { "id": 13755, "street_cells": 437.55316309668132, "yard_cells": 3485.5334716991651, "utility": 3.7551325989507731, "num_areas": 0.0 }, "geometry": { "type": "MultiPolygon", "coordinates": [ [ [ [ 1262149.034566706512123, 5543481.343784033320844 ], [ 1262249.034566706512123, 5543481.343784033320844 ], [ 1262249.034566706512123, 5543381.343784033320844 ], [ 1262149.034566706512123, 5543381.343784033320844 ], [ 1262149.034566706512123, 5543481.343784033320844 ] ] ] ] } },
{ "type": "Feature", "properties": { "id": 13912, "street_cells": 861.15387278497224, "yard_cells": 1486.5321090072389, "utility": 4.0443804523822449, "num_areas": 0.0 }, "geometry": { "type": "MultiPolygon", "coordinates": [ [ [ [ 1262249.034566706512123, 5543681.343784033320844 ], [ 1262349.034566706512123, 5543681.343784033320844 ], [ 1262349.034566706512123, 5543581.343784033320844 ], [ 1262249.034566706512123, 5543581.343784033320844 ], [ 1262249.034566706512123, 5543681.343784033320844 ] ] ] ] } },
{ "type": "Feature", "properties": { "id": 14054, "street_cells": 0.0, "yard_cells": 6351.1158476867713, "utility": 3.6664271295973032, "num_areas": 0.0 }, "geometry": { "type": "MultiPolygon", "coordinates": [ [ [ [ 1262349.034566706512123, 5545381.343784033320844 ], [ 1262449.034566706512123, 5545381.343784033320844 ], [ 1262449.034566706512123, 5545281.343784033320844 ], [ 1262349.034566706512123, 5545281.343784033320844 ], [ 1262349.034566706512123, 5545381.343784033320844 ] ] ] ] } },
{ "type": "Feature", "properties": { "id": 14071, "street_cells": 632.14525218009953, "yard_cells": 1395.655275924941, "utility": 3.714170154881598, "num_areas": 0.0 }, "geometry": { "type": "MultiPolygon", "coordinates": [ [ [ [ 1262349.034566706512123, 5543681.343784033320844 ], [ 1262449.034566706512123, 5543681.343784033320844 ], [ 1262449.034566706512123, 5543581.343784033320844 ], [ 1262349.034566706512123, 5543581.343784033320844 ], [ 1262349.034566706512123, 5543681.343784033320844 ] ] ] ] } },
{ "type": "Feature", "properties": { "id": 14085, "street_cells": 1440.7010955790061, "yard_cells": 0.0, "utility": 2.9402201804779331, "num_areas": 0.0 }, "geometry": { "type": "MultiPolygon", "coordinates": [ [ [ [ 1262349.034566706512123, 5542281.343784033320844 ], [ 1262449.034566706512123, 5542281.343784033320844 ], [ 1262449.034566706512123, 5542181.343784033320844 ], [ 1262349.034566706512123, 5542181.343784033320844 ], [ 1262349.034566706512123, 5542281.343784033320844 ] ] ] ] } },
{ "type": "Feature", "properties": { "id": 14213, "street_cells": 0.0, "yard_cells": 4789.9968914773781, "utility": 2.8405325698089312, "num_areas": 1.0 }, "geometry": { "type": "MultiPolygon", "coordinates": [ [ [ [ 1262449.034566706512123, 5545381.343784033320844 ], [ 1262549.034566706512123, 5545381.343784033320844 ], [ 1262549.034566706512123, 5545281.343784033320844 ], [ 1262449.034566706512123, 5545281.343784033320844 ], [ 1262449.034566706512123, 5545381.343784033320844 ] ] ] ] } },
{ "type": "Feature", "properties": { "id": 14223, "street_cells": 456.58063466511669, "yard_cells": 2275.800573766232, "utility": 4.5876948545767373, "num_areas": 0.0 }, "geometry": { "type": "MultiPolygon", "coordinates": [ [ [ [ 1262449.034566706512123, 5544381.343784033320844 ], [ 1262549.034566706512123, 5544381.343784033320844 ], [ 1262549.034566706512123, 5544281.343784033320844 ], [ 1262449.034566706512123, 5544281.343784033320844 ], [ 1262449.034566706512123, 5544381.343784033320844 ] ] ] ] } },
{ "type": "Feature", "properties": { "id": 14541, "street_cells": 667.36521638482816, "yard_cells": 3117.601160502194, "utility": 3.197525270893852, "num_areas": 1.0 }, "geometry": { "type": "MultiPolygon", "coordinates": [ [ [ [ 1262649.034566706512123, 5544381.343784033320844 ], [ 1262749.034566706512123, 5544381.343784033320844 ], [ 1262749.034566706512123, 5544281.343784033320844 ], [ 1262649.034566706512123, 5544281.343784033320844 ], [ 1262649.034566706512123, 5544381.343784033320844 ] ] ] ] } },
{ "type": "Feature", "properties": { "id": 14704, "street_cells": 1091.255850312114, "yard_cells": 386.35477813115722, "utility": 3.011865104155139, "num_areas": 0.0 }, "geometry": { "type": "MultiPolygon", "coordinates": [ [ [ [ 1262749.034566706512123, 5543981.343784033320844 ], [ 1262849.034566706512123, 5543981.343784033320844 ], [ 1262849.034566706512123, 5543881.343784033320844 ], [ 1262749.034566706512123, 5543881.343784033320844 ], [ 1262749.034566706512123, 5543981.343784033320844 ] ] ] ] } },
{ "type": "Feature", "properties": { "id": 15018, "street_cells": 379.96083249002697, "yard_cells": 2627.0376493324479, "utility": 3.986173306303185, "num_areas": 0.0 }, "geometry": { "type": "MultiPolygon", "coordinates": [ [ [ [ 1262949.034566706512123, 5544381.343784033320844 ], [ 1263049.034566706512123, 5544381.343784033320844 ], [ 1263049.034566706512123, 5544281.343784033320844 ], [ 1262949.034566706512123, 5544281.343784033320844 ], [ 1262949.034566706512123, 5544381.343784033320844 ] ] ] ] } },
{ "type": "Feature", "properties": { "id": 15335, "street_cells": 468.34462500028309, "yard_cells": 2211.2673869944242, "utility": 4.7222749684274392, "num_areas": 0.0 }, "geometry": { "type": "MultiPolygon", "coordinates": [ [ [ [ 1263149.034566706512123, 5544481.343784033320844 ], [ 1263249.034566706512123, 5544481.343784033320844 ], [ 1263249.034566706512123, 5544381.343784033320844 ], [ 1263149.034566706512123, 5544381.343784033320844 ], [ 1263149.034566706512123, 5544481.343784033320844 ] ] ] ] } },
{ "type": "Feature", "properties": { "id": 15481, "street_cells": 298.77835048213598, "yard_cells": 4645.3295534255703, "utility": 3.5528351637773792, "num_areas": 1.0 }, "geometry": { "type": "MultiPolygon", "coordinates": [ [ [ [ 1263249.034566706512123, 5545781.343784033320844 ], [ 1263349.034566706512123, 5545781.343784033320844 ], [ 1263349.034566706512123, 5545681.343784033320844 ], [ 1263249.034566706512123, 5545681.343784033320844 ], [ 1263249.034566706512123, 5545781.343784033320844 ] ] ] ] } },
{ "type": "Feature", "properties": { "id": 15483, "street_cells": 0.0, "yard_cells": 5924.8242503711954, "utility": 8.314224927698973, "num_areas": 0.0 }, "geometry": { "type": "MultiPolygon", "coordinates": [ [ [ [ 1263249.034566706512123, 5545581.343784033320844 ], [ 1263349.034566706512123, 5545581.343784033320844 ], [ 1263349.034566706512123, 5545481.343784033320844 ], [ 1263249.034566706512123, 5545481.343784033320844 ], [ 1263249.034566706512123, 5545581.343784033320844 ] ] ] ] } },
{ "type": "Feature", "properties": { "id": 15978, "street_cells": 0.0, "yard_cells": 5603.4457935541868, "utility": 3.4213620793321891, "num_areas": 0.0 }, "geometry": { "type": "MultiPolygon", "coordinates": [ [ [ [ 1263549.034566706512123, 5543781.343784033320844 ], [ 1263649.034566706512123, 5543781.343784033320844 ], [ 1263649.034566706512123, 5543681.343784033320844 ], [ 1263549.034566706512123, 5543681.343784033320844 ], [ 1263549.034566706512123, 5543781.343784033320844 ] ] ] ] } },
{ "type": "Feature", "properties": { "id": 16114, "street_cells": 376.51293735578662, "yard_cells": 4308.2043780260719, "utility": 4.065034273022162, "num_areas": 0.0 }, "geometry": { "type": "MultiPolygon", "coordinates": [ [ [ [ 1263649.034566706512123, 5546081.343784033320844 ], [ 1263749.034566706512123, 5546081.343784033320844 ], [ 1263749.034566706512123, 5545981.343784033320844 ], [ 1263649.034566706512123, 5545981.343784033320844 ], [ 1263649.034566706512123, 5546081.343784033320844 ] ] ] ] } },
{ "type": "Feature", "properties": { "id": 16137, "street_cells": 168.62465070784091, "yard_cells": 4610.8284833878861, "utility": 3.7426839769818709, "num_areas": 0.0 }, "geometry": { "type": "MultiPolygon", "coordinates": [ [ [ [ 1263649.034566706512123, 5543781.343784033320844 ], [ 1263749.034566706512123, 5543781.343784033320844 ], [ 1263749.034566706512123, 5543681.343784033320844 ], [ 1263649.034566706512123, 5543681.343784033320844 ], [ 1263649.034566706512123, 5543781.343784033320844 ] ] ] ] } },
{ "type": "Feature", "properties": { "id": 16274, "street_cells": 385.83039495199921, "yard_cells": 4784.0205503366888, "utility": 6.1386887164067829, "num_areas": 0.0 }, "geometry": { "type": "MultiPolygon", "coordinates": [ [ [ [ 1263749.034566706512123, 5545981.343784033320844 ], [ 1263849.034566706512123, 5545981.343784033320844 ], [ 1263849.034566706512123, 5545881.343784033320844 ], [ 1263749.034566706512123, 5545881.343784033320844 ], [ 1263749.034566706512123, 5545981.343784033320844 ] ] ] ] } },
{ "type": "Feature", "properties": { "id": 16281, "street_cells": 381.49089616537088, "yard_cells": 3301.7746303722229, "utility": 4.0560712835761281, "num_areas": 0.0 }, "geometry": { "type": "MultiPolygon", "coordinates": [ [ [ [ 1263749.034566706512123, 5545281.343784033320844 ], [ 1263849.034566706512123, 5545281.343784033320844 ], [ 1263849.034566706512123, 5545181.343784033320844 ], [ 1263749.034566706512123, 5545181.343784033320844 ], [ 1263749.034566706512123, 5545281.343784033320844 ] ] ] ] } },
{ "type": "Feature", "properties": { "id": 16297, "street_cells": 452.18508128970859, "yard_cells": 3827.014547279105, "utility": 2.4799393567912018, "num_areas": 0.0 }, "geometry": { "type": "MultiPolygon", "coordinates": [ [ [ [ 1263749.034566706512123, 5543681.343784033320844 ], [ 1263849.034566706512123, 5543681.343784033320844 ], [ 1263849.034566706512123, 5543581.343784033320844 ], [ 1263749.034566706512123, 5543581.343784033320844 ], [ 1263749.034566706512123, 5543681.343784033320844 ] ] ] ] } },
{ "type": "Feature", "properties": { "id": 16300, "street_cells": 0.0, "yard_cells": 5292.0143771898001, "utility": 3.689093058658, "num_areas": 0.0 }, "geometry": { "type": "MultiPolygon", "coordinates": [ [ [ [ 1263749.034566706512123, 5543381.343784033320844 ], [ 1263849.034566706512123, 5543381.343784033320844 ], [ 1263849.034566706512123, 5543281.343784033320844 ], [ 1263749.034566706512123, 5543281.343784033320844 ], [ 1263749.034566706512123, 5543381.343784033320844 ] ] ] ] } },
{ "type": "Feature", "properties": { "id": 16611, "street_cells": 775.521364569664, "yard_cells": 2133.4523036247119, "utility": 2.490944140962823, "num_areas": 0.0 }, "geometry": { "type": "MultiPolygon", "coordinates": [ [ [ [ 1263949.034566706512123, 5544081.343784033320844 ], [ 1264049.034566706512123, 5544081.343784033320844 ], [ 1264049.034566706512123, 5543981.343784033320844 ], [ 1263949.034566706512123, 5543981.343784033320844 ], [ 1263949.034566706512123, 5544081.343784033320844 ] ] ] ] } },
{ "type": "Feature", "properties": { "id": 16771, "street_cells": 463.03511076457801, "yard_cells": 3018.1385721343231, "utility": 3.5270682569415812, "num_areas": 1.0 }, "geometry": { "type": "MultiPolygon", "coordinates": [ [ [ [ 1264049.034566706512123, 5543981.343784033320844 ], [ 1264149.034566706512123, 5543981.343784033320844 ], [ 1264149.034566706512123, 5543881.343784033320844 ], [ 1264049.034566706512123, 5543881.343784033320844 ], [ 1264049.034566706512123, 5543981.343784033320844 ] ] ] ] } },
{ "type": "Feature", "properties": { "id": 18045, "street_cells": 102.2856218669564, "yard_cells": 4921.4808836719021, "utility": 3.562410142767662, "num_areas": 0.0 }, "geometry": { "type": "MultiPolygon", "coordinates": [ [ [ [ 1264849.034566706512123, 5543781.343784033320844 ], [ 1264949.034566706512123, 5543781.343784033320844 ], [ 1264949.034566706512123, 5543681.343784033320844 ], [ 1264849.034566706512123, 5543681.343784033320844 ], [ 1264849.034566706512123, 5543781.343784033320844 ] ] ] ] } },
{ "type": "Feature", "properties": { "id": 18204, "street_cells": 1162.1102952271699, "yard_cells": 1149.984803450343, "utility": 3.0367344471916899, "num_areas": 0.0 }, "geometry": { "type": "MultiPolygon", "coordinates": [ [ [ [ 1264949.034566706512123, 5543781.343784033320844 ], [ 1265049.034566706512123, 5543781.343784033320844 ], [ 1265049.034566706512123, 5543681.343784033320844 ], [ 1264949.034566706512123, 5543681.343784033320844 ], [ 1264949.034566706512123, 5543781.343784033320844 ] ] ] ] } },
{ "type": "Feature", "properties": { "id": 18363, "street_cells": 769.51196286976347, "yard_cells": 2484.1472523137932, "utility": 2.8562063426837589, "num_areas": 1.0 }, "geometry": { "type": "MultiPolygon", "coordinates": [ [ [ [ 1265049.034566706512123, 5543781.343784033320844 ], [ 1265149.034566706512123, 5543781.343784033320844 ], [ 1265149.034566706512123, 5543681.343784033320844 ], [ 1265049.034566706512123, 5543681.343784033320844 ], [ 1265049.034566706512123, 5543781.343784033320844 ] ] ] ] } },
{ "type": "Feature", "properties": { "id": 18850, "street_cells": 0.0, "yard_cells": 4580.8953610977624, "utility": 3.8279280392770278, "num_areas": 0.0 }, "geometry": { "type": "MultiPolygon", "coordinates": [ [ [ [ 1265349.034566706512123, 5542781.343784033320844 ], [ 1265449.034566706512123, 5542781.343784033320844 ], [ 1265449.034566706512123, 5542681.343784033320844 ], [ 1265349.034566706512123, 5542681.343784033320844 ], [ 1265349.034566706512123, 5542781.343784033320844 ] ] ] ] } },
{ "type": "Feature", "properties": { "id": 18878, "street_cells": 478.64365828293381, "yard_cells": 4292.7467013206333, "utility": 2.7025508818888841, "num_areas": 0.0 }, "geometry": { "type": "MultiPolygon", "coordinates": [ [ [ [ 1265349.034566706512123, 5539981.343784033320844 ], [ 1265449.034566706512123, 5539981.343784033320844 ], [ 1265449.034566706512123, 5539881.343784033320844 ], [ 1265349.034566706512123, 5539881.343784033320844 ], [ 1265349.034566706512123, 5539981.343784033320844 ] ] ] ] } },
{ "type": "Feature", "properties": { "id": 18881, "street_cells": 346.2276368647814, "yard_cells": 3983.2930382043269, "utility": 2.9456035706869979, "num_areas": 0.0 }, "geometry": { "type": "MultiPolygon", "coordinates": [ [ [ [ 1265349.034566706512123, 5539681.343784033320844 ], [ 1265449.034566706512123, 5539681.343784033320844 ], [ 1265449.034566706512123, 5539581.343784033320844 ], [ 1265349.034566706512123, 5539581.343784033320844 ], [ 1265349.034566706512123, 5539681.343784033320844 ] ] ] ] } },
{ "type": "Feature", "properties": { "id": 18882, "street_cells": 587.45694933980701, "yard_cells": 3155.827812027419, "utility": 4.5752067420216527, "num_areas": 0.0 }, "geometry": { "type": "MultiPolygon", "coordinates": [ [ [ [ 1265349.034566706512123, 5539581.343784033320844 ], [ 1265449.034566706512123, 5539581.343784033320844 ], [ 1265449.034566706512123, 5539481.343784033320844 ], [ 1265349.034566706512123, 5539481.343784033320844 ], [ 1265349.034566706512123, 5539581.343784033320844 ] ] ] ] } },
{ "type": "Feature", "properties": { "id": 19026, "street_cells": 89.247118216753009, "yard_cells": 4252.6668162099086, "utility": 4.2363169774640381, "num_areas": 1.0 }, "geometry": { "type": "MultiPolygon", "coordinates": [ [ [ [ 1265449.034566706512123, 5541081.343784033320844 ], [ 1265549.034566706512123, 5541081.343784033320844 ], [ 1265549.034566706512123, 5540981.343784033320844 ], [ 1265449.034566706512123, 5540981.343784033320844 ], [ 1265449.034566706512123, 5541081.343784033320844 ] ] ] ] } },
{ "type": "Feature", "properties": { "id": 19036, "street_cells": 373.47678840458389, "yard_cells": 4087.450643396277, "utility": 3.7398812929397911, "num_areas": 0.0 }, "geometry": { "type": "MultiPolygon", "coordinates": [ [ [ [ 1265449.034566706512123, 5540081.343784033320844 ], [ 1265549.034566706512123, 5540081.343784033320844 ], [ 1265549.034566706512123, 5539981.343784033320844 ], [ 1265449.034566706512123, 5539981.343784033320844 ], [ 1265449.034566706512123, 5540081.343784033320844 ] ] ] ] } },
{ "type": "Feature", "properties": { "id": 19037, "street_cells": 405.75128435343498, "yard_cells": 4360.9408056268003, "utility": 4.781852513121569, "num_areas": 0.0 }, "geometry": { "type": "MultiPolygon", "coordinates": [ [ [ [ 1265449.034566706512123, 5539981.343784033320844 ], [ 1265549.034566706512123, 5539981.343784033320844 ], [ 1265549.034566706512123, 5539881.343784033320844 ], [ 1265449.034566706512123, 5539881.343784033320844 ], [ 1265449.034566706512123, 5539981.343784033320844 ] ] ] ] } },
{ "type": "Feature", "properties": { "id": 19040, "street_cells": 573.87740846425299, "yard_cells": 3224.015357287567, "utility": 3.4804764980152272, "num_areas": 0.0 }, "geometry": { "type": "MultiPolygon", "coordinates": [ [ [ [ 1265449.034566706512123, 5539681.343784033320844 ], [ 1265549.034566706512123, 5539681.343784033320844 ], [ 1265549.034566706512123, 5539581.343784033320844 ], [ 1265449.034566706512123, 5539581.343784033320844 ], [ 1265449.034566706512123, 5539681.343784033320844 ] ] ] ] } },
{ "type": "Feature", "properties": { "id": 19042, "street_cells": 513.53310373425484, "yard_cells": 3489.336011483334, "utility": 3.163545263136208, "num_areas": 1.0 }, "geometry": { "type": "MultiPolygon", "coordinates": [ [ [ [ 1265449.034566706512123, 5539481.343784033320844 ], [ 1265549.034566706512123, 5539481.343784033320844 ], [ 1265549.034566706512123, 5539381.343784033320844 ], [ 1265449.034566706512123, 5539381.343784033320844 ], [ 1265449.034566706512123, 5539481.343784033320844 ] ] ] ] } },
{ "type": "Feature", "properties": { "id": 19193, "street_cells": 435.96157276406888, "yard_cells": 3627.7988280953632, "utility": 2.5892107639539921, "num_areas": 1.0 }, "geometry": { "type": "MultiPolygon", "coordinates": [ [ [ [ 1265549.034566706512123, 5540281.343784033320844 ], [ 1265649.034566706512123, 5540281.343784033320844 ], [ 1265649.034566706512123, 5540181.343784033320844 ], [ 1265549.034566706512123, 5540181.343784033320844 ], [ 1265549.034566706512123, 5540281.343784033320844 ] ] ] ] } },
{ "type": "Feature", "properties": { "id": 19194, "street_cells": 433.27904579490428, "yard_cells": 3403.5358028684241, "utility": 2.653826917537951, "num_areas": 0.0 }, "geometry": { "type": "MultiPolygon", "coordinates": [ [ [ [ 1265549.034566706512123, 5540181.343784033320844 ], [ 1265649.034566706512123, 5540181.343784033320844 ], [ 1265649.034566706512123, 5540081.343784033320844 ], [ 1265549.034566706512123, 5540081.343784033320844 ], [ 1265549.034566706512123, 5540181.343784033320844 ] ] ] ] } },
{ "type": "Feature", "properties": { "id": 19195, "street_cells": 521.43410122096543, "yard_cells": 3775.21623814851, "utility": 4.2560755587454837, "num_areas": 0.0 }, "geometry": { "type": "MultiPolygon", "coordinates": [ [ [ [ 1265549.034566706512123, 5540081.343784033320844 ], [ 1265649.034566706512123, 5540081.343784033320844 ], [ 1265649.034566706512123, 5539981.343784033320844 ], [ 1265549.034566706512123, 5539981.343784033320844 ], [ 1265549.034566706512123, 5540081.343784033320844 ] ] ] ] } },
{ "type": "Feature", "properties": { "id": 19197, "street_cells": 852.36511762738235, "yard_cells": 2406.3290822875392, "utility": 2.550441981515799, "num_areas": 0.0 }, "geometry": { "type": "MultiPolygon", "coordinates": [ [ [ [ 1265549.034566706512123, 5539881.343784033320844 ], [ 1265649.034566706512123, 5539881.343784033320844 ], [ 1265649.034566706512123, 5539781.343784033320844 ], [ 1265549.034566706512123, 5539781.343784033320844 ], [ 1265549.034566706512123, 5539881.343784033320844 ] ] ] ] } },
{ "type": "Feature", "properties": { "id": 19237, "street_cells": 263.88205305226148, "yard_cells": 4050.1902507841592, "utility": 5.3661176456043149, "num_areas": 0.0 }, "geometry": { "type": "MultiPolygon", "coordinates": [ [ [ [ 1265549.034566706512123, 5535881.343784033320844 ], [ 1265649.034566706512123, 5535881.343784033320844 ], [ 1265649.034566706512123, 5535781.343784033320844 ], [ 1265549.034566706512123, 5535781.343784033320844 ], [ 1265549.034566706512123, 5535881.343784033320844 ] ] ] ] } },
{ "type": "Feature", "properties": { "id": 19345, "street_cells": 83.43431467264891, "yard_cells": 4805.7986906468868, "utility": 7.0723619796132766, "num_areas": 0.0 }, "geometry": { "type": "MultiPolygon", "coordinates": [ [ [ [ 1265649.034566706512123, 5540981.343784033320844 ], [ 1265749.034566706512123, 5540981.343784033320844 ], [ 1265749.034566706512123, 5540881.343784033320844 ], [ 1265649.034566706512123, 5540881.343784033320844 ], [ 1265649.034566706512123, 5540981.343784033320844 ] ] ] ] } },
{ "type": "Feature", "properties": { "id": 19355, "street_cells": 471.296200619638, "yard_cells": 1959.577676112764, "utility": 2.852103033297968, "num_areas": 0.0 }, "geometry": { "type": "MultiPolygon", "coordinates": [ [ [ [ 1265649.034566706512123, 5539981.343784033320844 ], [ 1265749.034566706512123, 5539981.343784033320844 ], [ 1265749.034566706512123, 5539881.343784033320844 ], [ 1265649.034566706512123, 5539881.343784033320844 ], [ 1265649.034566706512123, 5539981.343784033320844 ] ] ] ] } },
{ "type": "Feature", "properties": { "id": 19498, "street_cells": 2.689874032139778, "yard_cells": 6047.263721998781, "utility": 2.6844966255405658, "num_areas": 0.0 }, "geometry": { "type": "MultiPolygon", "coordinates": [ [ [ [ 1265749.034566706512123, 5541581.343784033320844 ], [ 1265849.034566706512123, 5541581.343784033320844 ], [ 1265849.034566706512123, 5541481.343784033320844 ], [ 1265749.034566706512123, 5541481.343784033320844 ], [ 1265749.034566706512123, 5541581.343784033320844 ] ] ] ] } },
{ "type": "Feature", "properties": { "id": 19504, "street_cells": 0.0, "yard_cells": 6084.0324303353718, "utility": 4.267131207343871, "num_areas": 0.0 }, "geometry": { "type": "MultiPolygon", "coordinates": [ [ [ [ 1265749.034566706512123, 5540981.343784033320844 ], [ 1265849.034566706512123, 5540981.343784033320844 ], [ 1265849.034566706512123, 5540881.343784033320844 ], [ 1265749.034566706512123, 5540881.343784033320844 ], [ 1265749.034566706512123, 5540981.343784033320844 ] ] ] ] } },
{ "type": "Feature", "properties": { "id": 19527, "street_cells": 405.8653359785676, "yard_cells": 3156.714815961197, "utility": 4.2189951795938914, "num_areas": 0.0 }, "geometry": { "type": "MultiPolygon", "coordinates": [ [ [ [ 1265793.211446529254317, 5538591.527256065048277 ], [ 1265789.306784606073052, 5538602.667984748259187 ], [ 1265789.331363091710955, 5538603.518316358327866 ], [ 1265773.587894692784175, 5538645.218657799065113 ], [ 1265764.71659587114118, 5538660.783112415112555 ], [ 1265752.434265846852213, 5538681.343784033320844 ], [ 1265849.034566706512123, 5538681.343784033320844 ], [ 1265849.034566706512123, 5538581.343784033320844 ], [ 1265796.781568184262142, 5538581.343784033320844 ], [ 1265793.211446529254317, 5538591.527256065048277 ] ] ] ] } },
{ "type": "Feature", "properties": { "id": 19665, "street_cells": 528.43761329501865, "yard_cells": 2968.4812332959218, "utility": 3.8219766406795488, "num_areas": 0.0 }, "geometry": { "type": "MultiPolygon", "coordinates": [ [ [ [ 1265849.034566706512123, 5540781.343784033320844 ], [ 1265949.034566706512123, 5540781.343784033320844 ], [ 1265949.034566706512123, 5540681.343784033320844 ], [ 1265849.034566706512123, 5540681.343784033320844 ], [ 1265849.034566706512123, 5540781.343784033320844 ] ] ] ] } },
{ "type": "Feature", "properties": { "id": 19675, "street_cells": 237.33096101582049, "yard_cells": 4757.0810152050108, "utility": 4.8880070313927826, "num_areas": 0.0 }, "geometry": { "type": "MultiPolygon", "coordinates": [ [ [ [ 1265849.034566706512123, 5539781.343784033320844 ], [ 1265949.034566706512123, 5539781.343784033320844 ], [ 1265949.034566706512123, 5539681.343784033320844 ], [ 1265849.034566706512123, 5539681.343784033320844 ], [ 1265849.034566706512123, 5539781.343784033320844 ] ] ] ] } },
{ "type": "Feature", "properties": { "id": 19696, "street_cells": 266.12332199811942, "yard_cells": 4760.3937375913374, "utility": 5.1694482000245774, "num_areas": 0.0 }, "geometry": { "type": "MultiPolygon", "coordinates": [ [ [ [ 1265849.034566706512123, 5537681.343784033320844 ], [ 1265949.034566706512123, 5537681.343784033320844 ], [ 1265949.034566706512123, 5537581.343784033320844 ], [ 1265849.034566706512123, 5537581.343784033320844 ], [ 1265849.034566706512123, 5537681.343784033320844 ] ] ] ] } },
{ "type": "Feature", "properties": { "id": 19714, "street_cells": 0.0, "yard_cells": 3097.2877906057979, "utility": 6.1818913564143116, "num_areas": 0.0 }, "geometry": { "type": "MultiPolygon", "coordinates": [ [ [ [ 1265849.034566706512123, 5535881.343784033320844 ], [ 1265949.034566706512123, 5535881.343784033320844 ], [ 1265949.034566706512123, 5535781.343784033320844 ], [ 1265849.034566706512123, 5535781.343784033320844 ], [ 1265849.034566706512123, 5535881.343784033320844 ] ] ] ] } },
{ "type": "Feature", "properties": { "id": 19790, "street_cells": 538.29415539614854, "yard_cells": 3997.9630690040071, "utility": 5.1998524915760163, "num_areas": 0.0 }, "geometry": { "type": "MultiPolygon", "coordinates": [ [ [ [ 1265949.034566706512123, 5544181.343784033320844 ], [ 1266049.034566706512123, 5544181.343784033320844 ], [ 1266049.034566706512123, 5544081.343784033320844 ], [ 1265949.034566706512123, 5544081.343784033320844 ], [ 1265949.034566706512123, 5544181.343784033320844 ] ] ] ] } },
{ "type": "Feature", "properties": { "id": 19834, "street_cells": 536.11474357784027, "yard_cells": 3534.737512099091, "utility": 2.4390431194201629, "num_areas": 0.0 }, "geometry": { "type": "MultiPolygon", "coordinates": [ [ [ [ 1265949.034566706512123, 5539781.343784033320844 ], [ 1266049.034566706512123, 5539781.343784033320844 ], [ 1266049.034566706512123, 5539681.343784033320844 ], [ 1265949.034566706512123, 5539681.343784033320844 ], [ 1265949.034566706512123, 5539781.343784033320844 ] ] ] ] } },
{ "type": "Feature", "properties": { "id": 19846, "street_cells": 353.34486205093572, "yard_cells": 5548.9911384615116, "utility": 5.546657433159683, "num_areas": 0.0 }, "geometry": { "type": "MultiPolygon", "coordinates": [ [ [ [ 1265949.034566706512123, 5538581.343784033320844 ], [ 1266049.034566706512123, 5538581.343784033320844 ], [ 1266049.034566706512123, 5538481.343784033320844 ], [ 1265949.034566706512123, 5538481.343784033320844 ], [ 1265949.034566706512123, 5538581.343784033320844 ] ] ] ] } },
{ "type": "Feature", "properties": { "id": 19847, "street_cells": 458.27338569164277, "yard_cells": 4218.036319706589, "utility": 2.5888326378399209, "num_areas": 0.0 }, "geometry": { "type": "MultiPolygon", "coordinates": [ [ [ [ 1265949.034566706512123, 5538481.343784033320844 ], [ 1266049.034566706512123, 5538481.343784033320844 ], [ 1266049.034566706512123, 5538381.343784033320844 ], [ 1265949.034566706512123, 5538381.343784033320844 ], [ 1265949.034566706512123, 5538481.343784033320844 ] ] ] ] } },
{ "type": "Feature", "properties": { "id": 20007, "street_cells": 402.30077166110277, "yard_cells": 4788.8549289484508, "utility": 6.1697409406335737, "num_areas": 0.0 }, "geometry": { "type": "MultiPolygon", "coordinates": [ [ [ [ 1266049.034566706512123, 5538381.343784033320844 ], [ 1266149.034566706512123, 5538381.343784033320844 ], [ 1266149.034566706512123, 5538281.343784033320844 ], [ 1266049.034566706512123, 5538281.343784033320844 ], [ 1266049.034566706512123, 5538381.343784033320844 ] ] ] ] } },
{ "type": "Feature", "properties": { "id": 20011, "street_cells": 186.73449331186711, "yard_cells": 5469.198301845463, "utility": 4.0171276658311212, "num_areas": 0.0 }, "geometry": { "type": "MultiPolygon", "coordinates": [ [ [ [ 1266049.034566706512123, 5537981.343784033320844 ], [ 1266149.034566706512123, 5537981.343784033320844 ], [ 1266149.034566706512123, 5537881.343784033320844 ], [ 1266049.034566706512123, 5537881.343784033320844 ], [ 1266049.034566706512123, 5537981.343784033320844 ] ] ] ] } },
{ "type": "Feature", "properties": { "id": 20156, "street_cells": 427.43424261324111, "yard_cells": 4347.3148755629663, "utility": 3.990957110139334, "num_areas": 0.0 }, "geometry": { "type": "MultiPolygon", "coordinates": [ [ [ [ 1266149.034566706512123, 5539381.343784033320844 ], [ 1266249.034566706512123, 5539381.343784033320844 ], [ 1266249.034566706512123, 5539281.343784033320844 ], [ 1266149.034566706512123, 5539281.343784033320844 ], [ 1266149.034566706512123, 5539381.343784033320844 ] ] ] ] } },
{ "type": "Feature", "properties": { "id": 20157, "street_cells": 398.08790247887367, "yard_cells": 4665.5144264637493, "utility": 3.6401238249785028, "num_areas": 0.0 }, "geometry": { "type": "MultiPolygon", "coordinates": [ [ [ [ 1266149.034566706512123, 5539281.343784033320844 ], [ 1266249.034566706512123, 5539281.343784033320844 ], [ 1266249.034566706512123, 5539181.343784033320844 ], [ 1266149.034566706512123, 5539181.343784033320844 ], [ 1266149.034566706512123, 5539281.343784033320844 ] ] ] ] } },
{ "type": "Feature", "properties": { "id": 20158, "street_cells": 93.022410947084438, "yard_cells": 4457.5815007044002, "utility": 4.4172716996369106, "num_areas": 0.0 }, "geometry": { "type": "MultiPolygon", "coordinates": [ [ [ [ 1266149.034566706512123, 5539181.343784033320844 ], [ 1266249.034566706512123, 5539181.343784033320844 ], [ 1266249.034566706512123, 5539081.343784033320844 ], [ 1266149.034566706512123, 5539081.343784033320844 ], [ 1266149.034566706512123, 5539181.343784033320844 ] ] ] ] } },
{ "type": "Feature", "properties": { "id": 20307, "street_cells": 537.18822092115886, "yard_cells": 4275.1250982494093, "utility": 5.2305495222780332, "num_areas": 0.0 }, "geometry": { "type": "MultiPolygon", "coordinates": [ [ [ [ 1266249.034566706512123, 5540181.343784033320844 ], [ 1266349.034566706512123, 5540181.343784033320844 ], [ 1266349.034566706512123, 5540081.343784033320844 ], [ 1266249.034566706512123, 5540081.343784033320844 ], [ 1266249.034566706512123, 5540181.343784033320844 ] ] ] ] } },
{ "type": "Feature", "properties": { "id": 20317, "street_cells": 361.20590388271961, "yard_cells": 3810.0520790691521, "utility": 2.6710233331134732, "num_areas": 0.0 }, "geometry": { "type": "MultiPolygon", "coordinates": [ [ [ [ 1266249.034566706512123, 5539181.343784033320844 ], [ 1266349.034566706512123, 5539181.343784033320844 ], [ 1266349.034566706512123, 5539081.343784033320844 ], [ 1266249.034566706512123, 5539081.343784033320844 ], [ 1266249.034566706512123, 5539181.343784033320844 ] ] ] ] } },
{ "type": "Feature", "properties": { "id": 20787, "street_cells": 619.19268396496773, "yard_cells": 3359.1137279179711, "utility": 2.8041578245801122, "num_areas": 1.0 }, "geometry": { "type": "MultiPolygon", "coordinates": [ [ [ [ 1266549.034566706512123, 5539881.343784033320844 ], [ 1266649.034566706512123, 5539881.343784033320844 ], [ 1266649.034566706512123, 5539781.343784033320844 ], [ 1266549.034566706512123, 5539781.343784033320844 ], [ 1266549.034566706512123, 5539881.343784033320844 ] ] ] ] } },
{ "type": "Feature", "properties": { "id": 20788, "street_cells": 435.86928023695953, "yard_cells": 4012.0675859769349, "utility": 2.7235641242221411, "num_areas": 0.0 }, "geometry": { "type": "MultiPolygon", "coordinates": [ [ [ [ 1266549.034566706512123, 5539781.343784033320844 ], [ 1266649.034566706512123, 5539781.343784033320844 ], [ 1266649.034566706512123, 5539681.343784033320844 ], [ 1266549.034566706512123, 5539681.343784033320844 ], [ 1266549.034566706512123, 5539781.343784033320844 ] ] ] ] } },
{ "type": "Feature", "properties": { "id": 20791, "street_cells": 48.511434352956712, "yard_cells": 4699.7539819851518, "utility": 3.9648619339918691, "num_areas": 0.0 }, "geometry": { "type": "MultiPolygon", "coordinates": [ [ [ [ 1266549.034566706512123, 5539481.343784033320844 ], [ 1266649.034566706512123, 5539481.343784033320844 ], [ 1266649.034566706512123, 5539381.343784033320844 ], [ 1266549.034566706512123, 5539381.343784033320844 ], [ 1266549.034566706512123, 5539481.343784033320844 ] ] ] ] } },
{ "type": "Feature", "properties": { "id": 20946, "street_cells": 379.98354786485442, "yard_cells": 4010.4835267800372, "utility": 2.5409530617610478, "num_areas": 0.0 }, "geometry": { "type": "MultiPolygon", "coordinates": [ [ [ [ 1266649.034566706512123, 5539881.343784033320844 ], [ 1266749.034566706512123, 5539881.343784033320844 ], [ 1266749.034566706512123, 5539781.343784033320844 ], [ 1266649.034566706512123, 5539781.343784033320844 ], [ 1266649.034566706512123, 5539881.343784033320844 ] ] ] ] } },
{ "type": "Feature", "properties": { "id": 21105, "street_cells": 410.31305187175752, "yard_cells": 4927.360329084564, "utility": 7.0880311958615856, "num_areas": 0.0 }, "geometry": { "type": "MultiPolygon", "coordinates": [ [ [ [ 1266749.034566706512123, 5539881.343784033320844 ], [ 1266849.034566706512123, 5539881.343784033320844 ], [ 1266849.034566706512123, 5539781.343784033320844 ], [ 1266749.034566706512123, 5539781.343784033320844 ], [ 1266749.034566706512123, 5539881.343784033320844 ] ] ] ] } },
{ "type": "Feature", "properties": { "id": 21581, "street_cells": 387.23632563613359, "yard_cells": 4578.2422373865274, "utility": 3.2884279544942339, "num_areas": 0.0 }, "geometry": { "type": "MultiPolygon", "coordinates": [ [ [ [ 1267049.034566706512123, 5539981.343784033320844 ], [ 1267149.034566706512123, 5539981.343784033320844 ], [ 1267149.034566706512123, 5539881.343784033320844 ], [ 1267049.034566706512123, 5539881.343784033320844 ], [ 1267049.034566706512123, 5539981.343784033320844 ] ] ] ] } },
{ "type": "Feature", "properties": { "id": 21582, "street_cells": 401.67031501755122, "yard_cells": 4433.2278954680078, "utility": 3.1105521930513991, "num_areas": 0.0 }, "geometry": { "type": "MultiPolygon", "coordinates": [ [ [ [ 1267049.034566706512123, 5539881.343784033320844 ], [ 1267149.034566706512123, 5539881.343784033320844 ], [ 1267149.034566706512123, 5539781.343784033320844 ], [ 1267049.034566706512123, 5539781.343784033320844 ], [ 1267049.034566706512123, 5539881.343784033320844 ] ] ] ] } },
{ "type": "Feature", "properties": { "id": 21587, "street_cells": 435.0011513158679, "yard_cells": 3799.5283828387041, "utility": 2.514776194473082, "num_areas": 0.0 }, "geometry": { "type": "MultiPolygon", "coordinates": [ [ [ [ 1267049.034566706512123, 5539381.343784033320844 ], [ 1267149.034566706512123, 5539381.343784033320844 ], [ 1267149.034566706512123, 5539281.343784033320844 ], [ 1267049.034566706512123, 5539281.343784033320844 ], [ 1267049.034566706512123, 5539381.343784033320844 ] ] ] ] } },
{ "type": "Feature", "properties": { "id": 21588, "street_cells": 382.48125309571628, "yard_cells": 4492.831018535886, "utility": 2.7065895287732911, "num_areas": 0.0 }, "geometry": { "type": "MultiPolygon", "coordinates": [ [ [ [ 1267049.034566706512123, 5539281.343784033320844 ], [ 1267149.034566706512123, 5539281.343784033320844 ], [ 1267149.034566706512123, 5539181.343784033320844 ], [ 1267049.034566706512123, 5539181.343784033320844 ], [ 1267049.034566706512123, 5539281.343784033320844 ] ] ] ] } },
{ "type": "Feature", "properties": { "id": 21740, "street_cells": 608.85388379096992, "yard_cells": 3093.9890941488561, "utility": 3.560172195139776, "num_areas": 0.0 }, "geometry": { "type": "MultiPolygon", "coordinates": [ [ [ [ 1267149.034566706512123, 5539981.343784033320844 ], [ 1267249.034566706512123, 5539981.343784033320844 ], [ 1267249.034566706512123, 5539881.343784033320844 ], [ 1267149.034566706512123, 5539881.343784033320844 ], [ 1267149.034566706512123, 5539981.343784033320844 ] ] ] ] } },
{ "type": "Feature", "properties": { "id": 21741, "street_cells": 372.95016006529329, "yard_cells": 4514.1450785961933, "utility": 5.3658606989195281, "num_areas": 0.0 }, "geometry": { "type": "MultiPolygon", "coordinates": [ [ [ [ 1267149.034566706512123, 5539881.343784033320844 ], [ 1267249.034566706512123, 5539881.343784033320844 ], [ 1267249.034566706512123, 5539781.343784033320844 ], [ 1267149.034566706512123, 5539781.343784033320844 ], [ 1267149.034566706512123, 5539881.343784033320844 ] ] ] ] } },
{ "type": "Feature", "properties": { "id": 21746, "street_cells": 348.48698984310028, "yard_cells": 3806.581533207494, "utility": 3.297150055222783, "num_areas": 2.0 }, "geometry": { "type": "MultiPolygon", "coordinates": [ [ [ [ 1267149.034566706512123, 5539381.343784033320844 ], [ 1267249.034566706512123, 5539381.343784033320844 ], [ 1267249.034566706512123, 5539281.343784033320844 ], [ 1267149.034566706512123, 5539281.343784033320844 ], [ 1267149.034566706512123, 5539381.343784033320844 ] ] ] ] } },
{ "type": "Feature", "properties": { "id": 21748, "street_cells": 353.9739038899541, "yard_cells": 4297.2898027570918, "utility": 2.7162107085126621, "num_areas": 0.0 }, "geometry": { "type": "MultiPolygon", "coordinates": [ [ [ [ 1267149.034566706512123, 5539181.343784033320844 ], [ 1267249.034566706512123, 5539181.343784033320844 ], [ 1267249.034566706512123, 5539081.343784033320844 ], [ 1267149.034566706512123, 5539081.343784033320844 ], [ 1267149.034566706512123, 5539181.343784033320844 ] ] ] ] } },
{ "type": "Feature", "properties": { "id": 21901, "street_cells": 451.28774762153631, "yard_cells": 4348.6233609674673, "utility": 4.0016173347951609, "num_areas": 0.0 }, "geometry": { "type": "MultiPolygon", "coordinates": [ [ [ [ 1267249.034566706512123, 5539781.343784033320844 ], [ 1267349.034566706512123, 5539781.343784033320844 ], [ 1267349.034566706512123, 5539681.343784033320844 ], [ 1267249.034566706512123, 5539681.343784033320844 ], [ 1267249.034566706512123, 5539781.343784033320844 ] ] ] ] } },
{ "type": "Feature", "properties": { "id": 21904, "street_cells": 453.98959315903488, "yard_cells": 4209.1956651906748, "utility": 4.4852972625579248, "num_areas": 0.0 }, "geometry": { "type": "MultiPolygon", "coordinates": [ [ [ [ 1267249.034566706512123, 5539481.343784033320844 ], [ 1267349.034566706512123, 5539481.343784033320844 ], [ 1267349.034566706512123, 5539381.343784033320844 ], [ 1267249.034566706512123, 5539381.343784033320844 ], [ 1267249.034566706512123, 5539481.343784033320844 ] ] ] ] } },
{ "type": "Feature", "properties": { "id": 21907, "street_cells": 421.37787138968707, "yard_cells": 4340.0818873234093, "utility": 5.6744014047714284, "num_areas": 0.0 }, "geometry": { "type": "MultiPolygon", "coordinates": [ [ [ [ 1267249.034566706512123, 5539181.343784033320844 ], [ 1267349.034566706512123, 5539181.343784033320844 ], [ 1267349.034566706512123, 5539081.343784033320844 ], [ 1267249.034566706512123, 5539081.343784033320844 ], [ 1267249.034566706512123, 5539181.343784033320844 ] ] ] ] } },
{ "type": "Feature", "properties": { "id": 22065, "street_cells": 408.67100771069528, "yard_cells": 3806.7190127668991, "utility": 2.8927690835186382, "num_areas": 1.0 }, "geometry": { "type": "MultiPolygon", "coordinates": [ [ [ [ 1267349.034566706512123, 5539281.343784033320844 ], [ 1267449.034566706512123, 5539281.343784033320844 ], [ 1267449.034566706512123, 5539181.343784033320844 ], [ 1267349.034566706512123, 5539181.343784033320844 ], [ 1267349.034566706512123, 5539281.343784033320844 ] ] ] ] } },
{ "type": "Feature", "properties": { "id": 22217, "street_cells": 557.70351866483691, "yard_cells": 3266.4727473526732, "utility": 2.702477063436028, "num_areas": 0.0 }, "geometry": { "type": "MultiPolygon", "coordinates": [ [ [ [ 1267449.034566706512123, 5539981.343784033320844 ], [ 1267549.034566706512123, 5539981.343784033320844 ], [ 1267549.034566706512123, 5539881.343784033320844 ], [ 1267449.034566706512123, 5539881.343784033320844 ], [ 1267449.034566706512123, 5539981.343784033320844 ] ] ] ] } },
{ "type": "Feature", "properties": { "id": 22218, "street_cells": 456.87551356330522, "yard_cells": 2959.4525489946832, "utility": 2.5660336510811881, "num_areas": 0.0 }, "geometry": { "type": "MultiPolygon", "coordinates": [ [ [ [ 1267449.034566706512123, 5539881.343784033320844 ], [ 1267549.034566706512123, 5539881.343784033320844 ], [ 1267549.034566706512123, 5539781.343784033320844 ], [ 1267449.034566706512123, 5539781.343784033320844 ], [ 1267449.034566706512123, 5539881.343784033320844 ] ] ] ] } },
{ "type": "Feature", "properties": { "id": 22225, "street_cells": 291.13715378623459, "yard_cells": 4391.4821345142554, "utility": 3.7655970801406919, "num_areas": 1.0 }, "geometry": { "type": "MultiPolygon", "coordinates": [ [ [ [ 1267449.034566706512123, 5539181.343784033320844 ], [ 1267549.034566706512123, 5539181.343784033320844 ], [ 1267549.034566706512123, 5539081.343784033320844 ], [ 1267449.034566706512123, 5539081.343784033320844 ], [ 1267449.034566706512123, 5539181.343784033320844 ] ] ] ] } },
{ "type": "Feature", "properties": { "id": 22226, "street_cells": 278.40787494089449, "yard_cells": 4820.1514186765999, "utility": 5.8904330999853878, "num_areas": 0.0 }, "geometry": { "type": "MultiPolygon", "coordinates": [ [ [ [ 1267449.034566706512123, 5539081.343784033320844 ], [ 1267549.034566706512123, 5539081.343784033320844 ], [ 1267549.034566706512123, 5538981.343784033320844 ], [ 1267449.034566706512123, 5538981.343784033320844 ], [ 1267449.034566706512123, 5539081.343784033320844 ] ] ] ] } },
{ "type": "Feature", "properties": { "id": 22545, "street_cells": 523.61830800920723, "yard_cells": 3356.6247745991, "utility": 2.9488520082329388, "num_areas": 0.0 }, "geometry": { "type": "MultiPolygon", "coordinates": [ [ [ [ 1267649.034566706512123, 5538981.343784033320844 ], [ 1267749.034566706512123, 5538981.343784033320844 ], [ 1267749.034566706512123, 5538881.343784033320844 ], [ 1267649.034566706512123, 5538881.343784033320844 ], [ 1267649.034566706512123, 5538981.343784033320844 ] ] ] ] } }
]
}
