{
"type": "FeatureCollection",
"name": "no_yard",
"crs": { "type": "name", "properties": { "name": "urn:ogc:def:crs:EPSG::3857" } },
"features": [
{ "type": "Feature", "properties": { "id": 7534, "street_cells": 607.41421778616495, "yard_cells": 0.0, "utility": 0.79332499557690872, "num_areas": 0.0 }, "geometry": { "type": "MultiPolygon", "coordinates": [ [ [ [ 1258284.189749743323773, 5545478.47690165694803 ], [ 1258285.164923828560859, 5545481.343784033320844 ], [ 1258349.034566706512123, 5545481.343784033320844 ], [ 1258349.034566706512123, 5545381.343784033320844 ], [ 1258249.034566706512123, 5545381.343784033320844 ], [ 1258249.034566706512123, 5545481.343784033320844 ], [ 1258275.970416103024036, 5545481.343784033320844 ], [ 1258284.189749743323773, 5545478.47690165694803 ] ] ] ] } },
{ "type": "Feature", "properties": { "id": 9287, "street_cells": 690.47942070662975, "yard_cells": 0.0, "utility": 0.83636914113767691, "num_areas": 0.0 }, "geometry": { "type": "MultiPolygon", "coordinates": [ [ [ [ 1259349.034566706512123, 5545081.343784033320844 ], [ 1259449.034566706512123, 5545081.343784033320844 ], [ 1259449.034566706512123, 5544981.343784033320844 ], [ 1259349.034566706512123, 5544981.343784033320844 ], [ 1259349.034566706512123, 5545081.343784033320844 ] ] ] ] } },
{ "type": "Feature", "properties": { "id": 11692, "street_cells": 1350.876745853946, "yard_cells": 0.0, "utility": 0.99299869163226184, "num_areas": 0.0 }, "geometry": { "type": "MultiPolygon", "coordinates": [ [ [ [ 1260849.034566706512123, 5543081.343784033320844 ], [ 1260949.034566706512123, 5543081.343784033320844 ], [ 1260949.034566706512123, 5542981.343784033320844 ], [ 1260849.034566706512123, 5542981.343784033320844 ], [ 1260849.034566706512123, 5543081.343784033320844 ] ] ] ] } },
{ "type": "Feature", "properties": { "id": 11858, "street_cells": 794.17141931056983, "yard_cells": 0.0, "utility": 0.78336857188051356, "num_areas": 2.0 }, "geometry": { "type": "MultiPolygon", "coordinates": [ [ [ [ 1260949.034566706512123, 5542381.343784033320844 ], [ 1261049.034566706512123, 5542381.343784033320844 ], [ 1261049.034566706512123, 5542281.343784033320844 ], [ 1260949.034566706512123, 5542281.343784033320844 ], [ 1260949.034566706512123, 5542381.343784033320844 ] ] ] ] } },
{ "type": "Feature", "properties": { "id": 12489, "street_cells": 1156.86429884471, "yard_cells": 0.0, "utility": 0.75994529020345269, "num_areas": 4.0 }, "geometry": { "type": "MultiPolygon", "coordinates": [ [ [ [ 1261349.034566706512123, 5542881.343784033320844 ], [ 1261449.034566706512123, 5542881.343784033320844 ], [ 1261449.034566706512123, 5542781.343784033320844 ], [ 1261349.034566706512123, 5542781.343784033320844 ], [ 1261349.034566706512123, 5542881.343784033320844 ] ] ] ] } },
{ "type": "Feature", "properties": { "id": 12644, "street_cells": 954.23656331151733, "yard_cells": 0.0, "utility": 0.7671094286778366, "num_areas": 1.0 }, "geometry": { "type": "MultiPolygon", "coordinates": [ [ [ [ 1261449.034566706512123, 5543281.343784033320844 ], [ 1261549.034566706512123, 5543281.343784033320844 ], [ 1261549.034566706512123, 5543181.343784033320844 ], [ 1261449.034566706512123, 5543181.343784033320844 ], [ 1261449.034566706512123, 5543281.343784033320844 ] ] ] ] } },
{ "type": "Feature", "properties": { "id": 12647, "street_cells": 1324.149462202937, "yard_cells": 0.0, "utility": 3.1861664014634021, "num_areas": 0.0 }, "geometry": { "type": "MultiPolygon", "coordinates": [ [ [ [ 1261449.034566706512123, 5542981.343784033320844 ], [ 1261549.034566706512123, 5542981.343784033320844 ], [ 1261549.034566706512123, 5542881.343784033320844 ], [ 1261449.034566706512123, 5542881.343784033320844 ], [ 1261449.034566706512123, 5542981.343784033320844 ] ] ] ] } },
{ "type": "Feature", "properties": { "id": 12803, "street_cells": 1137.637199741602, "yard_cells": 0.0, "utility": 1.1276993071212951, "num_areas": 0.0 }, "geometry": { "type": "MultiPolygon", "coordinates": [ [ [ [ 1261549.034566706512123, 5543281.343784033320844 ], [ 1261649.034566706512123, 5543281.343784033320844 ], [ 1261649.034566706512123, 5543181.343784033320844 ], [ 1261549.034566706512123, 5543181.343784033320844 ], [ 1261549.034566706512123, 5543281.343784033320844 ] ] ] ] } },
{ "type": "Feature", "properties": { "id": 12954, "street_cells": 784.80541429445157, "yard_cells": 0.0, "utility": 1.2066916287428711, "num_areas": 0.0 }, "geometry": { "type": "MultiPolygon", "coordinates": [ [ [ [ 1261649.034566706512123, 5544081.343784033320844 ], [ 1261749.034566706512123, 5544081.343784033320844 ], [ 1261749.034566706512123, 5543981.343784033320844 ], [ 1261649.034566706512123, 5543981.343784033320844 ], [ 1261649.034566706512123, 5544081.343784033320844 ] ] ] ] } },
{ "type": "Feature", "properties": { "id": 12963, "street_cells": 649.3830659359694, "yard_cells": 0.0, "utility": 0.91790651374518573, "num_areas": 0.0 }, "geometry": { "type": "MultiPolygon", "coordinates": [ [ [ [ 1261649.034566706512123, 5543181.343784033320844 ], [ 1261749.034566706512123, 5543181.343784033320844 ], [ 1261749.034566706512123, 5543081.343784033320844 ], [ 1261649.034566706512123, 5543081.343784033320844 ], [ 1261649.034566706512123, 5543181.343784033320844 ] ] ] ] } },
{ "type": "Feature", "properties": { "id": 12965, "street_cells": 753.99866456910968, "yard_cells": 0.0, "utility": 1.1396953108638219, "num_areas": 1.0 }, "geometry": { "type": "MultiPolygon", "coordinates": [ [ [ [ 1261649.034566706512123, 5542981.343784033320844 ], [ 1261749.034566706512123, 5542981.343784033320844 ], [ 1261749.034566706512123, 5542881.343784033320844 ], [ 1261649.034566706512123, 5542881.343784033320844 ], [ 1261649.034566706512123, 5542981.343784033320844 ] ] ] ] } },
{ "type": "Feature", "properties": { "id": 13113, "street_cells": 656.01153040751819, "yard_cells": 0.0, "utility": 1.0086622845399349, "num_areas": 0.0 }, "geometry": { "type": "MultiPolygon", "coordinates": [ [ [ [ 1261749.034566706512123, 5544081.343784033320844 ], [ 1261849.034566706512123, 5544081.343784033320844 ], [ 1261849.034566706512123, 5543981.343784033320844 ], [ 1261749.034566706512123, 5543981.343784033320844 ], [ 1261749.034566706512123, 5544081.343784033320844 ] ] ] ] } },
{ "type": "Feature", "properties": { "id": 13124, "street_cells": 1072.8670947082339, "yard_cells": 0.0, "utility": 1.6457589106713879, "num_areas": 1.0 }, "geometry": { "type": "MultiPolygon", "coordinates": [ [ [ [ 1261749.034566706512123, 5542981.343784033320844 ], [ 1261849.034566706512123, 5542981.343784033320844 ], [ 1261849.034566706512123, 5542881.343784033320844 ], [ 1261749.034566706512123, 5542881.343784033320844 ], [ 1261749.034566706512123, 5542981.343784033320844 ] ] ] ] } },
{ "type": "Feature", "properties": { "id": 13274, "street_cells": 534.28995807692411, "yard_cells": 0.0, "utility": 0.97763360624426121, "num_areas": 0.0 }, "geometry": { "type": "MultiPolygon", "coordinates": [ [ [ [ 1261849.034566706512123, 5543881.343784033320844 ], [ 1261949.034566706512123, 5543881.343784033320844 ], [ 1261949.034566706512123, 5543781.343784033320844 ], [ 1261849.034566706512123, 5543781.343784033320844 ], [ 1261849.034566706512123, 5543881.343784033320844 ] ] ] ] } },
{ "type": "Feature", "properties": { "id": 13283, "street_cells": 1080.806995748728, "yard_cells": 0.0, "utility": 1.155938598049107, "num_areas": 1.0 }, "geometry": { "type": "MultiPolygon", "coordinates": [ [ [ [ 1261849.034566706512123, 5542981.343784033320844 ], [ 1261949.034566706512123, 5542981.343784033320844 ], [ 1261949.034566706512123, 5542881.343784033320844 ], [ 1261849.034566706512123, 5542881.343784033320844 ], [ 1261849.034566706512123, 5542981.343784033320844 ] ] ] ] } },
{ "type": "Feature", "properties": { "id": 13291, "street_cells": 767.04604170620451, "yard_cells": 0.0, "utility": 0.83696034972988753, "num_areas": 1.0 }, "geometry": { "type": "MultiPolygon", "coordinates": [ [ [ [ 1261849.034566706512123, 5542181.343784033320844 ], [ 1261949.034566706512123, 5542181.343784033320844 ], [ 1261949.034566706512123, 5542081.343784033320844 ], [ 1261849.034566706512123, 5542081.343784033320844 ], [ 1261849.034566706512123, 5542181.343784033320844 ] ] ] ] } },
{ "type": "Feature", "properties": { "id": 13442, "street_cells": 802.36370866950608, "yard_cells": 0.0, "utility": 1.381007620682394, "num_areas": 0.0 }, "geometry": { "type": "MultiPolygon", "coordinates": [ [ [ [ 1261949.034566706512123, 5542981.343784033320844 ], [ 1262049.034566706512123, 5542981.343784033320844 ], [ 1262049.034566706512123, 5542881.343784033320844 ], [ 1261949.034566706512123, 5542881.343784033320844 ], [ 1261949.034566706512123, 5542981.343784033320844 ] ] ] ] } },
{ "type": "Feature", "properties": { "id": 13575, "street_cells": 802.92842395622279, "yard_cells": 0.0, "utility": 1.3854623580110921, "num_areas": 0.0 }, "geometry": { "type": "MultiPolygon", "coordinates": [ [ [ [ 1262049.034566706512123, 5545581.343784033320844 ], [ 1262149.034566706512123, 5545581.343784033320844 ], [ 1262149.034566706512123, 5545481.343784033320844 ], [ 1262049.034566706512123, 5545481.343784033320844 ], [ 1262049.034566706512123, 5545581.343784033320844 ] ] ] ] } },
{ "type": "Feature", "properties": { "id": 13576, "street_cells": 704.4707739710808, "yard_cells": 0.0, "utility": 0.98792388364643691, "num_areas": 0.0 }, "geometry": { "type": "MultiPolygon", "coordinates": [ [ [ [ 1262049.034566706512123, 5545481.343784033320844 ], [ 1262149.034566706512123, 5545481.343784033320844 ], [ 1262149.034566706512123, 5545381.343784033320844 ], [ 1262049.034566706512123, 5545381.343784033320844 ], [ 1262049.034566706512123, 5545481.343784033320844 ] ] ] ] } },
{ "type": "Feature", "properties": { "id": 13595, "street_cells": 945.7260619789364, "yard_cells": 0.0, "utility": 0.83888158509239097, "num_areas": 2.0 }, "geometry": { "type": "MultiPolygon", "coordinates": [ [ [ [ 1262049.034566706512123, 5543581.343784033320844 ], [ 1262149.034566706512123, 5543581.343784033320844 ], [ 1262149.034566706512123, 5543481.343784033320844 ], [ 1262049.034566706512123, 5543481.343784033320844 ], [ 1262049.034566706512123, 5543581.343784033320844 ] ] ] ] } },
{ "type": "Feature", "properties": { "id": 13596, "street_cells": 610.08476539552214, "yard_cells": 0.0, "utility": 1.1574010382895701, "num_areas": 0.0 }, "geometry": { "type": "MultiPolygon", "coordinates": [ [ [ [ 1262049.034566706512123, 5543481.343784033320844 ], [ 1262149.034566706512123, 5543481.343784033320844 ], [ 1262149.034566706512123, 5543381.343784033320844 ], [ 1262049.034566706512123, 5543381.343784033320844 ], [ 1262049.034566706512123, 5543481.343784033320844 ] ] ] ] } },
{ "type": "Feature", "properties": { "id": 13604, "street_cells": 917.50868050158033, "yard_cells": 0.0, "utility": 1.4074418853944499, "num_areas": 1.0 }, "geometry": { "type": "MultiPolygon", "coordinates": [ [ [ [ 1262049.034566706512123, 5542681.343784033320844 ], [ 1262149.034566706512123, 5542681.343784033320844 ], [ 1262149.034566706512123, 5542581.343784033320844 ], [ 1262049.034566706512123, 5542581.343784033320844 ], [ 1262049.034566706512123, 5542681.343784033320844 ] ] ] ] } },
{ "type": "Feature", "properties": { "id": 13605, "street_cells": 702.67788258790972, "yard_cells": 0.0, "utility": 1.077895288526161, "num_areas": 1.0 }, "geometry": { "type": "MultiPolygon", "coordinates": [ [ [ [ 1262049.034566706512123, 5542581.343784033320844 ], [ 1262149.034566706512123, 5542581.343784033320844 ], [ 1262149.034566706512123, 5542481.343784033320844 ], [ 1262049.034566706512123, 5542481.343784033320844 ], [ 1262049.034566706512123, 5542581.343784033320844 ] ] ] ] } },
{ "type": "Feature", "properties": { "id": 13736, "street_cells": 839.57529781460778, "yard_cells": 0.0, "utility": 1.0713645806040379, "num_areas": 0.0 }, "geometry": { "type": "MultiPolygon", "coordinates": [ [ [ [ 1262149.034566706512123, 5545381.343784033320844 ], [ 1262249.034566706512123, 5545381.343784033320844 ], [ 1262249.034566706512123, 5545281.343784033320844 ], [ 1262149.034566706512123, 5545281.343784033320844 ], [ 1262149.034566706512123, 5545381.343784033320844 ] ] ] ] } },
{ "type": "Feature", "properties": { "id": 13754, "street_cells": 590.56804662123329, "yard_cells": 0.0, "utility": 0.89503004748451609, "num_areas": 1.0 }, "geometry": { "type": "MultiPolygon", "coordinates": [ [ [ [ 1262149.034566706512123, 5543581.343784033320844 ], [ 1262249.034566706512123, 5543581.343784033320844 ], [ 1262249.034566706512123, 5543481.343784033320844 ], [ 1262149.034566706512123, 5543481.343784033320844 ], [ 1262149.034566706512123, 5543581.343784033320844 ] ] ] ] } },
{ "type": "Feature", "properties": { "id": 13758, "street_cells": 1218.2608681290531, "yard_cells": 0.0, "utility": 0.78444788495353757, "num_areas": 2.0 }, "geometry": { "type": "MultiPolygon", "coordinates": [ [ [ [ 1262149.034566706512123, 5543181.343784033320844 ], [ 1262249.034566706512123, 5543181.343784033320844 ], [ 1262249.034566706512123, 5543081.343784033320844 ], [ 1262149.034566706512123, 5543081.343784033320844 ], [ 1262149.034566706512123, 5543181.343784033320844 ] ] ] ] } },
{ "type": "Feature", "properties": { "id": 13759, "street_cells": 806.69500033259396, "yard_cells": 0.0, "utility": 0.77401210073125926, "num_areas": 2.0 }, "geometry": { "type": "MultiPolygon", "coordinates": [ [ [ [ 1262149.034566706512123, 5543081.343784033320844 ], [ 1262249.034566706512123, 5543081.343784033320844 ], [ 1262249.034566706512123, 5542981.343784033320844 ], [ 1262149.034566706512123, 5542981.343784033320844 ], [ 1262149.034566706512123, 5543081.343784033320844 ] ] ] ] } },
{ "type": "Feature", "properties": { "id": 13760, "street_cells": 722.70164932012551, "yard_cells": 0.0, "utility": 1.108611388113232, "num_areas": 1.0 }, "geometry": { "type": "MultiPolygon", "coordinates": [ [ [ [ 1262149.034566706512123, 5542981.343784033320844 ], [ 1262249.034566706512123, 5542981.343784033320844 ], [ 1262249.034566706512123, 5542881.343784033320844 ], [ 1262149.034566706512123, 5542881.343784033320844 ], [ 1262149.034566706512123, 5542981.343784033320844 ] ] ] ] } },
{ "type": "Feature", "properties": { "id": 13761, "street_cells": 618.36091450750837, "yard_cells": 0.0, "utility": 0.94855456941607119, "num_areas": 1.0 }, "geometry": { "type": "MultiPolygon", "coordinates": [ [ [ [ 1262149.034566706512123, 5542881.343784033320844 ], [ 1262249.034566706512123, 5542881.343784033320844 ], [ 1262249.034566706512123, 5542781.343784033320844 ], [ 1262149.034566706512123, 5542781.343784033320844 ], [ 1262149.034566706512123, 5542881.343784033320844 ] ] ] ] } },
{ "type": "Feature", "properties": { "id": 13908, "street_cells": 948.67290828898558, "yard_cells": 0.0, "utility": 0.73396348233604691, "num_areas": 0.0 }, "geometry": { "type": "MultiPolygon", "coordinates": [ [ [ [ 1262249.034566706512123, 5544081.343784033320844 ], [ 1262349.034566706512123, 5544081.343784033320844 ], [ 1262349.034566706512123, 5543981.343784033320844 ], [ 1262249.034566706512123, 5543981.343784033320844 ], [ 1262249.034566706512123, 5544081.343784033320844 ] ] ] ] } },
{ "type": "Feature", "properties": { "id": 13911, "street_cells": 695.48447367250924, "yard_cells": 0.0, "utility": 0.73246411572969372, "num_areas": 2.0 }, "geometry": { "type": "MultiPolygon", "coordinates": [ [ [ [ 1262249.034566706512123, 5543781.343784033320844 ], [ 1262349.034566706512123, 5543781.343784033320844 ], [ 1262349.034566706512123, 5543681.343784033320844 ], [ 1262249.034566706512123, 5543681.343784033320844 ], [ 1262249.034566706512123, 5543781.343784033320844 ] ] ] ] } },
{ "type": "Feature", "properties": { "id": 13912, "street_cells": 861.15387278497235, "yard_cells": 0.0, "utility": 2.016652799851931, "num_areas": 0.0 }, "geometry": { "type": "MultiPolygon", "coordinates": [ [ [ [ 1262249.034566706512123, 5543681.343784033320844 ], [ 1262349.034566706512123, 5543681.343784033320844 ], [ 1262349.034566706512123, 5543581.343784033320844 ], [ 1262249.034566706512123, 5543581.343784033320844 ], [ 1262249.034566706512123, 5543681.343784033320844 ] ] ] ] } },
{ "type": "Feature", "properties": { "id": 13917, "street_cells": 560.33129390627153, "yard_cells": 0.0, "utility": 0.85953817059237769, "num_areas": 1.0 }, "geometry": { "type": "MultiPolygon", "coordinates": [ [ [ [ 1262249.034566706512123, 5543181.343784033320844 ], [ 1262349.034566706512123, 5543181.343784033320844 ], [ 1262349.034566706512123, 5543081.343784033320844 ], [ 1262249.034566706512123, 5543081.343784033320844 ], [ 1262249.034566706512123, 5543181.343784033320844 ] ] ] ] } },
{ "type": "Feature", "properties": { "id": 13935, "street_cells": 708.69546676874165, "yard_cells": 0.0, "utility": 0.75525499870313673, "num_areas": 2.0 }, "geometry": { "type": "MultiPolygon", "coordinates": [ [ [ [ 1262249.034566706512123, 5541381.343784033320844 ], [ 1262349.034566706512123, 5541381.343784033320844 ], [ 1262349.034566706512123, 5541281.343784033320844 ], [ 1262249.034566706512123, 5541281.343784033320844 ], [ 1262249.034566706512123, 5541381.343784033320844 ] ] ] ] } },
{ "type": "Feature", "properties": { "id": 14067, "street_cells": 711.53883168175821, "yard_cells": 0.0, "utility": 0.95806184733792987, "num_areas": 0.0 }, "geometry": { "type": "MultiPolygon", "coordinates": [ [ [ [ 1262349.034566706512123, 5544081.343784033320844 ], [ 1262449.034566706512123, 5544081.343784033320844 ], [ 1262449.034566706512123, 5543981.343784033320844 ], [ 1262349.034566706512123, 5543981.343784033320844 ], [ 1262349.034566706512123, 5544081.343784033320844 ] ] ] ] } },
{ "type": "Feature", "properties": { "id": 14070, "street_cells": 834.48331750333318, "yard_cells": 0.0, "utility": 1.1771306992002499, "num_areas": 1.0 }, "geometry": { "type": "MultiPolygon", "coordinates": [ [ [ [ 1262349.034566706512123, 5543781.343784033320844 ], [ 1262449.034566706512123, 5543781.343784033320844 ], [ 1262449.034566706512123, 5543681.343784033320844 ], [ 1262349.034566706512123, 5543681.343784033320844 ], [ 1262349.034566706512123, 5543781.343784033320844 ] ] ] ] } },
{ "type": "Feature", "properties": { "id": 14071, "street_cells": 632.14525218009953, "yard_cells": 0.0, "utility": 1.521066934536248, "num_areas": 0.0 }, "geometry": { "type": "MultiPolygon", "coordinates": [ [ [ [ 1262349.034566706512123, 5543681.343784033320844 ], [ 1262449.034566706512123, 5543681.343784033320844 ], [ 1262449.034566706512123, 5543581.343784033320844 ], [ 1262349.034566706512123, 5543581.343784033320844 ], [ 1262349.034566706512123, 5543681.343784033320844 ] ] ] ] } },
{ "type": "Feature", "properties": { "id": 14085, "street_cells": 1440.7010955790061, "yard_cells": 0.0, "utility": 3.6128016388964439, "num_areas": 0.0 }, "geometry": { "type": "MultiPolygon", "coordinates": [ [ [ [ 1262349.034566706512123, 5542281.343784033320844 ], [ 1262449.034566706512123, 5542281.343784033320844 ], [ 1262449.034566706512123, 5542181.343784033320844 ], [ 1262349.034566706512123, 5542181.343784033320844 ], [ 1262349.034566706512123, 5542281.343784033320844 ] ] ] ] } },
{ "type": "Feature", "properties": { "id": 14223, "street_cells": 456.58063466511658, "yard_cells": 0.0, "utility": 1.0547808336418769, "num_areas": 0.0 }, "geometry": { "type": "MultiPolygon", "coordinates": [ [ [ [ 1262449.034566706512123, 5544381.343784033320844 ], [ 1262549.034566706512123, 5544381.343784033320844 ], [ 1262549.034566706512123, 5544281.343784033320844 ], [ 1262449.034566706512123, 5544281.343784033320844 ], [ 1262449.034566706512123, 5544381.343784033320844 ] ] ] ] } },
{ "type": "Feature", "properties": { "id": 14226, "street_cells": 658.4204769928009, "yard_cells": 0.0, "utility": 1.550473899079766, "num_areas": 0.0 }, "geometry": { "type": "MultiPolygon", "coordinates": [ [ [ [ 1262449.034566706512123, 5544081.343784033320844 ], [ 1262549.034566706512123, 5544081.343784033320844 ], [ 1262549.034566706512123, 5543981.343784033320844 ], [ 1262449.034566706512123, 5543981.343784033320844 ], [ 1262449.034566706512123, 5544081.343784033320844 ] ] ] ] } },
{ "type": "Feature", "properties": { "id": 14228, "street_cells": 970.43989588916304, "yard_cells": 0.0, "utility": 0.95124370647897094, "num_areas": 1.0 }, "geometry": { "type": "MultiPolygon", "coordinates": [ [ [ [ 1262449.034566706512123, 5543881.343784033320844 ], [ 1262549.034566706512123, 5543881.343784033320844 ], [ 1262549.034566706512123, 5543781.343784033320844 ], [ 1262449.034566706512123, 5543781.343784033320844 ], [ 1262449.034566706512123, 5543881.343784033320844 ] ] ] ] } },
{ "type": "Feature", "properties": { "id": 14243, "street_cells": 583.62404911518104, "yard_cells": 0.0, "utility": 1.4635360017515009, "num_areas": 0.0 }, "geometry": { "type": "MultiPolygon", "coordinates": [ [ [ [ 1262449.034566706512123, 5542381.343784033320844 ], [ 1262549.034566706512123, 5542381.343784033320844 ], [ 1262549.034566706512123, 5542281.343784033320844 ], [ 1262449.034566706512123, 5542281.343784033320844 ], [ 1262449.034566706512123, 5542381.343784033320844 ] ] ] ] } },
{ "type": "Feature", "properties": { "id": 14273, "street_cells": 685.63572815582165, "yard_cells": 0.0, "utility": 0.79988198896137153, "num_areas": 0.0 }, "geometry": { "type": "MultiPolygon", "coordinates": [ [ [ [ 1262449.034566706512123, 5539381.343784033320844 ], [ 1262549.034566706512123, 5539381.343784033320844 ], [ 1262549.034566706512123, 5539281.343784033320844 ], [ 1262449.034566706512123, 5539281.343784033320844 ], [ 1262449.034566706512123, 5539381.343784033320844 ] ] ] ] } },
{ "type": "Feature", "properties": { "id": 14402, "street_cells": 444.19891137741507, "yard_cells": 0.0, "utility": 1.113903890227407, "num_areas": 0.0 }, "geometry": { "type": "MultiPolygon", "coordinates": [ [ [ [ 1262549.034566706512123, 5542381.343784033320844 ], [ 1262649.034566706512123, 5542381.343784033320844 ], [ 1262649.034566706512123, 5542281.343784033320844 ], [ 1262549.034566706512123, 5542281.343784033320844 ], [ 1262549.034566706512123, 5542381.343784033320844 ] ] ] ] } },
{ "type": "Feature", "properties": { "id": 14541, "street_cells": 667.36521638482816, "yard_cells": 0.0, "utility": 0.75302842570142248, "num_areas": 1.0 }, "geometry": { "type": "MultiPolygon", "coordinates": [ [ [ [ 1262649.034566706512123, 5544381.343784033320844 ], [ 1262749.034566706512123, 5544381.343784033320844 ], [ 1262749.034566706512123, 5544281.343784033320844 ], [ 1262649.034566706512123, 5544281.343784033320844 ], [ 1262649.034566706512123, 5544381.343784033320844 ] ] ] ] } },
{ "type": "Feature", "properties": { "id": 14544, "street_cells": 1104.620080801845, "yard_cells": 0.0, "utility": 1.3213953281791371, "num_areas": 0.0 }, "geometry": { "type": "MultiPolygon", "coordinates": [ [ [ [ 1262649.034566706512123, 5544081.343784033320844 ], [ 1262749.034566706512123, 5544081.343784033320844 ], [ 1262749.034566706512123, 5543981.343784033320844 ], [ 1262649.034566706512123, 5543981.343784033320844 ], [ 1262649.034566706512123, 5544081.343784033320844 ] ] ] ] } },
{ "type": "Feature", "properties": { "id": 14559, "street_cells": 476.64066179692747, "yard_cells": 0.0, "utility": 1.195257065736155, "num_areas": 0.0 }, "geometry": { "type": "MultiPolygon", "coordinates": [ [ [ [ 1262649.034566706512123, 5542581.343784033320844 ], [ 1262749.034566706512123, 5542581.343784033320844 ], [ 1262749.034566706512123, 5542481.343784033320844 ], [ 1262649.034566706512123, 5542481.343784033320844 ], [ 1262649.034566706512123, 5542581.343784033320844 ] ] ] ] } },
{ "type": "Feature", "properties": { "id": 14560, "street_cells": 614.59268736504021, "yard_cells": 0.0, "utility": 0.72033068836146708, "num_areas": 2.0 }, "geometry": { "type": "MultiPolygon", "coordinates": [ [ [ [ 1262649.034566706512123, 5542481.343784033320844 ], [ 1262749.034566706512123, 5542481.343784033320844 ], [ 1262749.034566706512123, 5542381.343784033320844 ], [ 1262649.034566706512123, 5542381.343784033320844 ], [ 1262649.034566706512123, 5542481.343784033320844 ] ] ] ] } },
{ "type": "Feature", "properties": { "id": 14566, "street_cells": 880.24979979274804, "yard_cells": 0.0, "utility": 0.91702917698117936, "num_areas": 2.0 }, "geometry": { "type": "MultiPolygon", "coordinates": [ [ [ [ 1262649.034566706512123, 5541881.343784033320844 ], [ 1262749.034566706512123, 5541881.343784033320844 ], [ 1262749.034566706512123, 5541781.343784033320844 ], [ 1262649.034566706512123, 5541781.343784033320844 ], [ 1262649.034566706512123, 5541881.343784033320844 ] ] ] ] } },
{ "type": "Feature", "properties": { "id": 14701, "street_cells": 351.91611341834067, "yard_cells": 0.0, "utility": 0.82870561835016865, "num_areas": 0.0 }, "geometry": { "type": "MultiPolygon", "coordinates": [ [ [ [ 1262749.034566706512123, 5544281.343784033320844 ], [ 1262849.034566706512123, 5544281.343784033320844 ], [ 1262849.034566706512123, 5544181.343784033320844 ], [ 1262749.034566706512123, 5544181.343784033320844 ], [ 1262749.034566706512123, 5544281.343784033320844 ] ] ] ] } },
{ "type": "Feature", "properties": { "id": 14703, "street_cells": 616.92597522437575, "yard_cells": 0.0, "utility": 1.4527610481048021, "num_areas": 0.0 }, "geometry": { "type": "MultiPolygon", "coordinates": [ [ [ [ 1262749.034566706512123, 5544081.343784033320844 ], [ 1262849.034566706512123, 5544081.343784033320844 ], [ 1262849.034566706512123, 5543981.343784033320844 ], [ 1262749.034566706512123, 5543981.343784033320844 ], [ 1262749.034566706512123, 5544081.343784033320844 ] ] ] ] } },
{ "type": "Feature", "properties": { "id": 14704, "street_cells": 1091.255850312114, "yard_cells": 0.0, "utility": 2.5695445532250609, "num_areas": 0.0 }, "geometry": { "type": "MultiPolygon", "coordinates": [ [ [ [ 1262749.034566706512123, 5543981.343784033320844 ], [ 1262849.034566706512123, 5543981.343784033320844 ], [ 1262849.034566706512123, 5543881.343784033320844 ], [ 1262749.034566706512123, 5543881.343784033320844 ], [ 1262749.034566706512123, 5543981.343784033320844 ] ] ] ] } },
{ "type": "Feature", "properties": { "id": 14705, "street_cells": 780.86261853659528, "yard_cells": 0.0, "utility": 0.95841235203194086, "num_areas": 0.0 }, "geometry": { "type": "MultiPolygon", "coordinates": [ [ [ [ 1262749.034566706512123, 5543881.343784033320844 ], [ 1262849.034566706512123, 5543881.343784033320844 ], [ 1262849.034566706512123, 5543781.343784033320844 ], [ 1262749.034566706512123, 5543781.343784033320844 ], [ 1262749.034566706512123, 5543881.343784033320844 ] ] ] ] } },
{ "type": "Feature", "properties": { "id": 14723, "street_cells": 395.37610314730563, "yard_cells": 0.0, "utility": 0.95372121774268559, "num_areas": 0.0 }, "geometry": { "type": "MultiPolygon", "coordinates": [ [ [ [ 1262749.034566706512123, 5542081.343784033320844 ], [ 1262849.034566706512123, 5542081.343784033320844 ], [ 1262849.034566706512123, 5541981.343784033320844 ], [ 1262749.034566706512123, 5541981.343784033320844 ], [ 1262749.034566706512123, 5542081.343784033320844 ] ] ] ] } },
{ "type": "Feature", "properties": { "id": 14860, "street_cells": 448.80019209869198, "yard_cells": 0.0, "utility": 1.0568519784335559, "num_areas": 0.0 }, "geometry": { "type": "MultiPolygon", "coordinates": [ [ [ [ 1262849.034566706512123, 5544281.343784033320844 ], [ 1262949.034566706512123, 5544281.343784033320844 ], [ 1262949.034566706512123, 5544181.343784033320844 ], [ 1262849.034566706512123, 5544181.343784033320844 ], [ 1262849.034566706512123, 5544281.343784033320844 ] ] ] ] } },
{ "type": "Feature", "properties": { "id": 14863, "street_cells": 1020.109005304426, "yard_cells": 0.0, "utility": 2.340203246068584, "num_areas": 0.0 }, "geometry": { "type": "MultiPolygon", "coordinates": [ [ [ [ 1262849.034566706512123, 5543981.343784033320844 ], [ 1262949.034566706512123, 5543981.343784033320844 ], [ 1262949.034566706512123, 5543881.343784033320844 ], [ 1262849.034566706512123, 5543881.343784033320844 ], [ 1262849.034566706512123, 5543981.343784033320844 ] ] ] ] } },
{ "type": "Feature", "properties": { "id": 14882, "street_cells": 336.61331588730678, "yard_cells": 0.0, "utility": 0.81197436815455992, "num_areas": 0.0 }, "geometry": { "type": "MultiPolygon", "coordinates": [ [ [ [ 1262849.034566706512123, 5542081.343784033320844 ], [ 1262949.034566706512123, 5542081.343784033320844 ], [ 1262949.034566706512123, 5541981.343784033320844 ], [ 1262849.034566706512123, 5541981.343784033320844 ], [ 1262849.034566706512123, 5542081.343784033320844 ] ] ] ] } },
{ "type": "Feature", "properties": { "id": 15020, "street_cells": 711.36234338879592, "yard_cells": 0.0, "utility": 1.3135405448929129, "num_areas": 0.0 }, "geometry": { "type": "MultiPolygon", "coordinates": [ [ [ [ 1262949.034566706512123, 5544181.343784033320844 ], [ 1263049.034566706512123, 5544181.343784033320844 ], [ 1263049.034566706512123, 5544081.343784033320844 ], [ 1262949.034566706512123, 5544081.343784033320844 ], [ 1262949.034566706512123, 5544181.343784033320844 ] ] ] ] } },
{ "type": "Feature", "properties": { "id": 15039, "street_cells": 814.27308114767084, "yard_cells": 0.0, "utility": 1.9641791912697131, "num_areas": 0.0 }, "geometry": { "type": "MultiPolygon", "coordinates": [ [ [ [ 1262949.034566706512123, 5542281.343784033320844 ], [ 1263049.034566706512123, 5542281.343784033320844 ], [ 1263049.034566706512123, 5542181.343784033320844 ], [ 1262949.034566706512123, 5542181.343784033320844 ], [ 1262949.034566706512123, 5542281.343784033320844 ] ] ] ] } },
{ "type": "Feature", "properties": { "id": 15042, "street_cells": 789.64038996081808, "yard_cells": 0.0, "utility": 1.3063796107021859, "num_areas": 0.0 }, "geometry": { "type": "MultiPolygon", "coordinates": [ [ [ [ 1262949.034566706512123, 5541981.343784033320844 ], [ 1263049.034566706512123, 5541981.343784033320844 ], [ 1263049.034566706512123, 5541881.343784033320844 ], [ 1262949.034566706512123, 5541881.343784033320844 ], [ 1262949.034566706512123, 5541981.343784033320844 ] ] ] ] } },
{ "type": "Feature", "properties": { "id": 15043, "street_cells": 804.53934464585041, "yard_cells": 0.0, "utility": 0.84034100889784391, "num_areas": 1.0 }, "geometry": { "type": "MultiPolygon", "coordinates": [ [ [ [ 1262949.034566706512123, 5541881.343784033320844 ], [ 1263049.034566706512123, 5541881.343784033320844 ], [ 1263049.034566706512123, 5541781.343784033320844 ], [ 1262949.034566706512123, 5541781.343784033320844 ], [ 1262949.034566706512123, 5541881.343784033320844 ] ] ] ] } },
{ "type": "Feature", "properties": { "id": 15176, "street_cells": 921.21590757220986, "yard_cells": 0.0, "utility": 1.38296568387, "num_areas": 1.0 }, "geometry": { "type": "MultiPolygon", "coordinates": [ [ [ [ 1263049.034566706512123, 5544481.343784033320844 ], [ 1263149.034566706512123, 5544481.343784033320844 ], [ 1263149.034566706512123, 5544381.343784033320844 ], [ 1263049.034566706512123, 5544381.343784033320844 ], [ 1263049.034566706512123, 5544481.343784033320844 ] ] ] ] } },
{ "type": "Feature", "properties": { "id": 15198, "street_cells": 984.14143954738984, "yard_cells": 0.0, "utility": 0.72500138712792406, "num_areas": 4.0 }, "geometry": { "type": "MultiPolygon", "coordinates": [ [ [ [ 1263049.034566706512123, 5542281.343784033320844 ], [ 1263149.034566706512123, 5542281.343784033320844 ], [ 1263149.034566706512123, 5542181.343784033320844 ], [ 1263049.034566706512123, 5542181.343784033320844 ], [ 1263049.034566706512123, 5542281.343784033320844 ] ] ] ] } },
{ "type": "Feature", "properties": { "id": 15335, "street_cells": 468.34462500028309, "yard_cells": 0.0, "utility": 1.102875961807579, "num_areas": 0.0 }, "geometry": { "type": "MultiPolygon", "coordinates": [ [ [ [ 1263149.034566706512123, 5544481.343784033320844 ], [ 1263249.034566706512123, 5544481.343784033320844 ], [ 1263249.034566706512123, 5544381.343784033320844 ], [ 1263149.034566706512123, 5544381.343784033320844 ], [ 1263149.034566706512123, 5544481.343784033320844 ] ] ] ] } },
{ "type": "Feature", "properties": { "id": 15452, "street_cells": 594.03201818466187, "yard_cells": 0.0, "utility": 0.92532970003304515, "num_areas": 0.0 }, "geometry": { "type": "MultiPolygon", "coordinates": [ [ [ [ 1263249.034566706512123, 5548681.343784033320844 ], [ 1263349.034566706512123, 5548681.343784033320844 ], [ 1263349.034566706512123, 5548581.343784033320844 ], [ 1263249.034566706512123, 5548581.343784033320844 ], [ 1263249.034566706512123, 5548681.343784033320844 ] ] ] ] } },
{ "type": "Feature", "properties": { "id": 15635, "street_cells": 416.68977737528621, "yard_cells": 0.0, "utility": 0.734795761879801, "num_areas": 0.0 }, "geometry": { "type": "MultiPolygon", "coordinates": [ [ [ [ 1263349.034566706512123, 5546281.343784033320844 ], [ 1263449.034566706512123, 5546281.343784033320844 ], [ 1263449.034566706512123, 5546181.343784033320844 ], [ 1263349.034566706512123, 5546181.343784033320844 ], [ 1263349.034566706512123, 5546281.343784033320844 ] ] ] ] } },
{ "type": "Feature", "properties": { "id": 15660, "street_cells": 1204.5575535714629, "yard_cells": 0.0, "utility": 1.5980370339596031, "num_areas": 0.0 }, "geometry": { "type": "MultiPolygon", "coordinates": [ [ [ [ 1263349.034566706512123, 5543781.343784033320844 ], [ 1263449.034566706512123, 5543781.343784033320844 ], [ 1263449.034566706512123, 5543681.343784033320844 ], [ 1263349.034566706512123, 5543681.343784033320844 ], [ 1263349.034566706512123, 5543781.343784033320844 ] ] ] ] } },
{ "type": "Feature", "properties": { "id": 15980, "street_cells": 811.80281703043738, "yard_cells": 0.0, "utility": 0.72437587044663287, "num_areas": 1.0 }, "geometry": { "type": "MultiPolygon", "coordinates": [ [ [ [ 1263549.034566706512123, 5543581.343784033320844 ], [ 1263649.034566706512123, 5543581.343784033320844 ], [ 1263649.034566706512123, 5543481.343784033320844 ], [ 1263549.034566706512123, 5543481.343784033320844 ], [ 1263549.034566706512123, 5543581.343784033320844 ] ] ] ] } },
{ "type": "Feature", "properties": { "id": 15989, "street_cells": 363.42946051303301, "yard_cells": 0.0, "utility": 0.75644355270100883, "num_areas": 0.0 }, "geometry": { "type": "MultiPolygon", "coordinates": [ [ [ [ 1263549.034566706512123, 5542681.343784033320844 ], [ 1263649.034566706512123, 5542681.343784033320844 ], [ 1263649.034566706512123, 5542581.343784033320844 ], [ 1263549.034566706512123, 5542581.343784033320844 ], [ 1263549.034566706512123, 5542681.343784033320844 ] ] ] ] } },
{ "type": "Feature", "properties": { "id": 16125, "street_cells": 451.30827510803942, "yard_cells": 0.0, "utility": 0.95317603694090181, "num_areas": 0.0 }, "geometry": { "type": "MultiPolygon", "coordinates": [ [ [ [ 1263649.034566706512123, 5544981.343784033320844 ], [ 1263749.034566706512123, 5544981.343784033320844 ], [ 1263749.034566706512123, 5544881.343784033320844 ], [ 1263649.034566706512123, 5544881.343784033320844 ], [ 1263649.034566706512123, 5544981.343784033320844 ] ] ] ] } },
{ "type": "Feature", "properties": { "id": 16140, "street_cells": 619.75112355202441, "yard_cells": 0.0, "utility": 0.83255916775337568, "num_areas": 1.0 }, "geometry": { "type": "MultiPolygon", "coordinates": [ [ [ [ 1263649.034566706512123, 5543481.343784033320844 ], [ 1263749.034566706512123, 5543481.343784033320844 ], [ 1263749.034566706512123, 5543381.343784033320844 ], [ 1263649.034566706512123, 5543381.343784033320844 ], [ 1263649.034566706512123, 5543481.343784033320844 ] ] ] ] } },
{ "type": "Feature", "properties": { "id": 16280, "street_cells": 900.71370610594749, "yard_cells": 0.0, "utility": 0.89010855199842975, "num_areas": 2.0 }, "geometry": { "type": "MultiPolygon", "coordinates": [ [ [ [ 1263749.034566706512123, 5545381.343784033320844 ], [ 1263849.034566706512123, 5545381.343784033320844 ], [ 1263849.034566706512123, 5545281.343784033320844 ], [ 1263749.034566706512123, 5545281.343784033320844 ], [ 1263749.034566706512123, 5545381.343784033320844 ] ] ] ] } },
{ "type": "Feature", "properties": { "id": 16411, "street_cells": 865.66797853708272, "yard_cells": 0.0, "utility": 0.74419336776988532, "num_areas": 0.0 }, "geometry": { "type": "MultiPolygon", "coordinates": [ [ [ [ 1263849.034566706512123, 5548181.343784033320844 ], [ 1263949.034566706512123, 5548181.343784033320844 ], [ 1263949.034566706512123, 5548081.343784033320844 ], [ 1263849.034566706512123, 5548081.343784033320844 ], [ 1263849.034566706512123, 5548181.343784033320844 ] ] ] ] } },
{ "type": "Feature", "properties": { "id": 16568, "street_cells": 649.46703385189176, "yard_cells": 0.0, "utility": 0.82756567468433717, "num_areas": 0.0 }, "geometry": { "type": "MultiPolygon", "coordinates": [ [ [ [ 1263949.034566706512123, 5548381.343784033320844 ], [ 1264049.034566706512123, 5548381.343784033320844 ], [ 1264049.034566706512123, 5548281.343784033320844 ], [ 1263949.034566706512123, 5548281.343784033320844 ], [ 1263949.034566706512123, 5548381.343784033320844 ] ] ] ] } },
{ "type": "Feature", "properties": { "id": 16611, "street_cells": 775.521364569664, "yard_cells": 0.0, "utility": 0.86525833930833729, "num_areas": 0.0 }, "geometry": { "type": "MultiPolygon", "coordinates": [ [ [ [ 1263949.034566706512123, 5544081.343784033320844 ], [ 1264049.034566706512123, 5544081.343784033320844 ], [ 1264049.034566706512123, 5543981.343784033320844 ], [ 1263949.034566706512123, 5543981.343784033320844 ], [ 1263949.034566706512123, 5544081.343784033320844 ] ] ] ] } },
{ "type": "Feature", "properties": { "id": 16731, "street_cells": 475.8704093836248, "yard_cells": 0.0, "utility": 0.75602149814197006, "num_areas": 0.0 }, "geometry": { "type": "MultiPolygon", "coordinates": [ [ [ [ 1264049.034566706512123, 5547981.343784033320844 ], [ 1264149.034566706512123, 5547981.343784033320844 ], [ 1264149.034566706512123, 5547881.343784033320844 ], [ 1264049.034566706512123, 5547881.343784033320844 ], [ 1264049.034566706512123, 5547981.343784033320844 ] ] ] ] } },
{ "type": "Feature", "properties": { "id": 16782, "street_cells": 722.95592203736305, "yard_cells": 0.0, "utility": 1.50476338748153, "num_areas": 0.0 }, "geometry": { "type": "MultiPolygon", "coordinates": [ [ [ [ 1264049.034566706512123, 5542881.343784033320844 ], [ 1264149.034566706512123, 5542881.343784033320844 ], [ 1264149.034566706512123, 5542781.343784033320844 ], [ 1264049.034566706512123, 5542781.343784033320844 ], [ 1264049.034566706512123, 5542881.343784033320844 ] ] ] ] } },
{ "type": "Feature", "properties": { "id": 16936, "street_cells": 813.26931619644165, "yard_cells": 0.0, "utility": 1.449355163220269, "num_areas": 0.0 }, "geometry": { "type": "MultiPolygon", "coordinates": [ [ [ [ 1264149.034566706512123, 5543381.343784033320844 ], [ 1264249.034566706512123, 5543381.343784033320844 ], [ 1264249.034566706512123, 5543281.343784033320844 ], [ 1264149.034566706512123, 5543281.343784033320844 ], [ 1264149.034566706512123, 5543381.343784033320844 ] ] ] ] } },
{ "type": "Feature", "properties": { "id": 16962, "street_cells": 1651.787717473507, "yard_cells": 0.0, "utility": 0.95591148927173042, "num_areas": 2.0 }, "geometry": { "type": "MultiPolygon", "coordinates": [ [ [ [ 1264149.034566706512123, 5540781.343784033320844 ], [ 1264249.034566706512123, 5540781.343784033320844 ], [ 1264249.034566706512123, 5540681.343784033320844 ], [ 1264149.034566706512123, 5540681.343784033320844 ], [ 1264149.034566706512123, 5540781.343784033320844 ] ] ] ] } },
{ "type": "Feature", "properties": { "id": 17080, "street_cells": 521.11923940805718, "yard_cells": 0.0, "utility": 0.96734132178859467, "num_areas": 0.0 }, "geometry": { "type": "MultiPolygon", "coordinates": [ [ [ [ 1264251.537204009713605, 5544836.109343289397657 ], [ 1264249.034566706512123, 5544828.307963217608631 ], [ 1264249.034566706512123, 5544881.343784033320844 ], [ 1264267.381233056541532, 5544881.343784033320844 ], [ 1264251.537204009713605, 5544836.109343289397657 ] ] ], [ [ [ 1264260.113650460494682, 5544805.902411622926593 ], [ 1264269.671755341812968, 5544806.082381640560925 ], [ 1264349.034566706512123, 5544798.805483065545559 ], [ 1264349.034566706512123, 5544781.343784033320844 ], [ 1264249.034566706512123, 5544781.343784033320844 ], [ 1264249.034566706512123, 5544806.373525809496641 ], [ 1264260.113650460494682, 5544805.902411622926593 ] ] ] ] } },
{ "type": "Feature", "properties": { "id": 17086, "street_cells": 800.66305256187923, "yard_cells": 0.0, "utility": 0.72267511214724756, "num_areas": 0.0 }, "geometry": { "type": "MultiPolygon", "coordinates": [ [ [ [ 1264249.034566706512123, 5544281.343784033320844 ], [ 1264349.034566706512123, 5544281.343784033320844 ], [ 1264349.034566706512123, 5544181.343784033320844 ], [ 1264249.034566706512123, 5544181.343784033320844 ], [ 1264249.034566706512123, 5544281.343784033320844 ] ] ] ] } },
{ "type": "Feature", "properties": { "id": 17235, "street_cells": 457.69966159015888, "yard_cells": 0.0, "utility": 0.76764714236698917, "num_areas": 0.0 }, "geometry": { "type": "MultiPolygon", "coordinates": [ [ [ [ 1264372.393837329931557, 5545181.343784033320844 ], [ 1264349.034566706512123, 5545181.343784033320844 ], [ 1264349.034566706512123, 5545281.343784033320844 ], [ 1264407.317624040413648, 5545281.343784033320844 ], [ 1264372.393837329931557, 5545181.343784033320844 ] ] ] ] } },
{ "type": "Feature", "properties": { "id": 17363, "street_cells": 493.69092911258338, "yard_cells": 0.0, "utility": 0.78433318921897244, "num_areas": 0.0 }, "geometry": { "type": "MultiPolygon", "coordinates": [ [ [ [ 1264449.034566706512123, 5548381.343784033320844 ], [ 1264549.034566706512123, 5548381.343784033320844 ], [ 1264549.034566706512123, 5548281.343784033320844 ], [ 1264449.034566706512123, 5548281.343784033320844 ], [ 1264449.034566706512123, 5548381.343784033320844 ] ] ] ] } },
{ "type": "Feature", "properties": { "id": 17364, "street_cells": 576.24945673048501, "yard_cells": 0.0, "utility": 0.75377350774605556, "num_areas": 0.0 }, "geometry": { "type": "MultiPolygon", "coordinates": [ [ [ [ 1264449.034566706512123, 5548281.343784033320844 ], [ 1264549.034566706512123, 5548281.343784033320844 ], [ 1264549.034566706512123, 5548181.343784033320844 ], [ 1264449.034566706512123, 5548181.343784033320844 ], [ 1264449.034566706512123, 5548281.343784033320844 ] ] ] ] } },
{ "type": "Feature", "properties": { "id": 17883, "street_cells": 1541.020094488561, "yard_cells": 0.0, "utility": 0.7394592422370837, "num_areas": 1.0 }, "geometry": { "type": "MultiPolygon", "coordinates": [ [ [ [ 1264749.034566706512123, 5544081.343784033320844 ], [ 1264849.034566706512123, 5544081.343784033320844 ], [ 1264849.034566706512123, 5543981.343784033320844 ], [ 1264749.034566706512123, 5543981.343784033320844 ], [ 1264749.034566706512123, 5544081.343784033320844 ] ] ] ] } },
{ "type": "Feature", "properties": { "id": 18204, "street_cells": 1162.1102952271699, "yard_cells": 0.0, "utility": 1.8496534301787251, "num_areas": 0.0 }, "geometry": { "type": "MultiPolygon", "coordinates": [ [ [ [ 1264949.034566706512123, 5543781.343784033320844 ], [ 1265049.034566706512123, 5543781.343784033320844 ], [ 1265049.034566706512123, 5543681.343784033320844 ], [ 1264949.034566706512123, 5543681.343784033320844 ], [ 1264949.034566706512123, 5543781.343784033320844 ] ] ] ] } },
{ "type": "Feature", "properties": { "id": 18363, "street_cells": 769.51196286976347, "yard_cells": 0.0, "utility": 0.87818697867764017, "num_areas": 1.0 }, "geometry": { "type": "MultiPolygon", "coordinates": [ [ [ [ 1265049.034566706512123, 5543781.343784033320844 ], [ 1265149.034566706512123, 5543781.343784033320844 ], [ 1265149.034566706512123, 5543681.343784033320844 ], [ 1265049.034566706512123, 5543681.343784033320844 ], [ 1265049.034566706512123, 5543781.343784033320844 ] ] ] ] } },
{ "type": "Feature", "properties": { "id": 18882, "street_cells": 587.45694933980701, "yard_cells": 0.0, "utility": 0.82535164224156687, "num_areas": 0.0 }, "geometry": { "type": "MultiPolygon", "coordinates": [ [ [ [ 1265349.034566706512123, 5539581.343784033320844 ], [ 1265449.034566706512123, 5539581.343784033320844 ], [ 1265449.034566706512123, 5539481.343784033320844 ], [ 1265349.034566706512123, 5539481.343784033320844 ], [ 1265349.034566706512123, 5539581.343784033320844 ] ] ] ] } },
{ "type": "Feature", "properties": { "id": 19197, "street_cells": 852.36511762738235, "yard_cells": 0.0, "utility": 0.74504118279809539, "num_areas": 0.0 }, "geometry": { "type": "MultiPolygon", "coordinates": [ [ [ [ 1265549.034566706512123, 5539881.343784033320844 ], [ 1265649.034566706512123, 5539881.343784033320844 ], [ 1265649.034566706512123, 5539781.343784033320844 ], [ 1265549.034566706512123, 5539781.343784033320844 ], [ 1265549.034566706512123, 5539881.343784033320844 ] ] ] ] } },
{ "type": "Feature", "properties": { "id": 19527, "street_cells": 405.8653359785676, "yard_cells": 0.0, "utility": 0.72244051507926665, "num_areas": 0.0 }, "geometry": { "type": "MultiPolygon", "coordinates": [ [ [ [ 1265793.211446529254317, 5538591.527256065048277 ], [ 1265789.306784606073052, 5538602.667984748259187 ], [ 1265789.331363091710955, 5538603.518316358327866 ], [ 1265773.587894692784175, 5538645.218657799065113 ], [ 1265764.71659587114118, 5538660.783112415112555 ], [ 1265752.434265846852213, 5538681.343784033320844 ], [ 1265849.034566706512123, 5538681.343784033320844 ], [ 1265849.034566706512123, 5538581.343784033320844 ], [ 1265796.781568184262142, 5538581.343784033320844 ], [ 1265793.211446529254317, 5538591.527256065048277 ] ] ] ] } },
{ "type": "Feature", "properties": { "id": 19665, "street_cells": 528.43761329501865, "yard_cells": 0.0, "utility": 0.78604804195177957, "num_areas": 0.0 }, "geometry": { "type": "MultiPolygon", "coordinates": [ [ [ [ 1265849.034566706512123, 5540781.343784033320844 ], [ 1265949.034566706512123, 5540781.343784033320844 ], [ 1265949.034566706512123, 5540681.343784033320844 ], [ 1265849.034566706512123, 5540681.343784033320844 ], [ 1265849.034566706512123, 5540781.343784033320844 ] ] ] ] } },
{ "type": "Feature", "properties": { "id": 19790, "street_cells": 538.29415539614854, "yard_cells": 0.0, "utility": 1.021009064532961, "num_areas": 0.0 }, "geometry": { "type": "MultiPolygon", "coordinates": [ [ [ [ 1265949.034566706512123, 5544181.343784033320844 ], [ 1266049.034566706512123, 5544181.343784033320844 ], [ 1266049.034566706512123, 5544081.343784033320844 ], [ 1265949.034566706512123, 5544081.343784033320844 ], [ 1265949.034566706512123, 5544181.343784033320844 ] ] ] ] } },
{ "type": "Feature", "properties": { "id": 19791, "street_cells": 860.7221158646048, "yard_cells": 0.0, "utility": 0.85682201491866994, "num_areas": 1.0 }, "geometry": { "type": "MultiPolygon", "coordinates": [ [ [ [ 1265949.034566706512123, 5544081.343784033320844 ], [ 1266049.034566706512123, 5544081.343784033320844 ], [ 1266049.034566706512123, 5543981.343784033320844 ], [ 1265949.034566706512123, 5543981.343784033320844 ], [ 1265949.034566706512123, 5544081.343784033320844 ] ] ] ] } },
{ "type": "Feature", "properties": { "id": 20007, "street_cells": 402.30077166110277, "yard_cells": 0.0, "utility": 0.72615561450389299, "num_areas": 0.0 }, "geometry": { "type": "MultiPolygon", "coordinates": [ [ [ [ 1266049.034566706512123, 5538381.343784033320844 ], [ 1266149.034566706512123, 5538381.343784033320844 ], [ 1266149.034566706512123, 5538281.343784033320844 ], [ 1266049.034566706512123, 5538281.343784033320844 ], [ 1266049.034566706512123, 5538381.343784033320844 ] ] ] ] } },
{ "type": "Feature", "properties": { "id": 20307, "street_cells": 537.18822092115886, "yard_cells": 0.0, "utility": 0.74003891582658221, "num_areas": 0.0 }, "geometry": { "type": "MultiPolygon", "coordinates": [ [ [ [ 1266249.034566706512123, 5540181.343784033320844 ], [ 1266349.034566706512123, 5540181.343784033320844 ], [ 1266349.034566706512123, 5540081.343784033320844 ], [ 1266249.034566706512123, 5540081.343784033320844 ], [ 1266249.034566706512123, 5540181.343784033320844 ] ] ] ] } },
{ "type": "Feature", "properties": { "id": 20627, "street_cells": 544.90428968667982, "yard_cells": 0.0, "utility": 1.179034653877858, "num_areas": 0.0 }, "geometry": { "type": "MultiPolygon", "coordinates": [ [ [ [ 1266449.034566706512123, 5539981.343784033320844 ], [ 1266549.034566706512123, 5539981.343784033320844 ], [ 1266549.034566706512123, 5539881.343784033320844 ], [ 1266449.034566706512123, 5539881.343784033320844 ], [ 1266449.034566706512123, 5539981.343784033320844 ] ] ] ] } },
{ "type": "Feature", "properties": { "id": 21105, "street_cells": 410.31305187175752, "yard_cells": 0.0, "utility": 0.73716405979039901, "num_areas": 0.0 }, "geometry": { "type": "MultiPolygon", "coordinates": [ [ [ [ 1266749.034566706512123, 5539881.343784033320844 ], [ 1266849.034566706512123, 5539881.343784033320844 ], [ 1266849.034566706512123, 5539781.343784033320844 ], [ 1266749.034566706512123, 5539781.343784033320844 ], [ 1266749.034566706512123, 5539881.343784033320844 ] ] ] ] } },
{ "type": "Feature", "properties": { "id": 21268, "street_cells": 1142.0414690822361, "yard_cells": 0.0, "utility": 1.037760581173266, "num_areas": 1.0 }, "geometry": { "type": "MultiPolygon", "coordinates": [ [ [ [ 1266849.034566706512123, 5539481.343784033320844 ], [ 1266949.034566706512123, 5539481.343784033320844 ], [ 1266949.034566706512123, 5539381.343784033320844 ], [ 1266849.034566706512123, 5539381.343784033320844 ], [ 1266849.034566706512123, 5539481.343784033320844 ] ] ] ] } },
{ "type": "Feature", "properties": { "id": 21877, "street_cells": 758.87616989761591, "yard_cells": 0.0, "utility": 1.0463066937553871, "num_areas": 0.0 }, "geometry": { "type": "MultiPolygon", "coordinates": [ [ [ [ 1267249.034566706512123, 5542181.343784033320844 ], [ 1267349.034566706512123, 5542181.343784033320844 ], [ 1267349.034566706512123, 5542081.343784033320844 ], [ 1267249.034566706512123, 5542081.343784033320844 ], [ 1267249.034566706512123, 5542181.343784033320844 ] ] ] ] } },
{ "type": "Feature", "properties": { "id": 22701, "street_cells": 1053.8129619273359, "yard_cells": 0.0, "utility": 0.77634692791769133, "num_areas": 1.0 }, "geometry": { "type": "MultiPolygon", "coordinates": [ [ [ [ 1267749.034566706512123, 5539281.343784033320844 ], [ 1267849.034566706512123, 5539281.343784033320844 ], [ 1267849.034566706512123, 5539181.343784033320844 ], [ 1267749.034566706512123, 5539181.343784033320844 ], [ 1267749.034566706512123, 5539281.343784033320844 ] ] ] ] } }
]
}
