{
"type": "FeatureCollection",
"name": "default",
"crs": { "type": "name", "properties": { "name": "urn:ogc:def:crs:EPSG::3857" } },
"features": [
{ "type": "Feature", "properties": { "id": 3106, "street_cells": 122.5628733821213, "yard_cells": 8073.2486254048999, "utility": 0.50921572087943823, "num_areas": 0.0 }, "geometry": { "type": "MultiPolygon", "coordinates": [ [ [ [ 1255449.034566706512123, 5543081.343784033320844 ], [ 1255549.034566706512123, 5543081.343784033320844 ], [ 1255549.034566706512123, 5542981.343784033320844 ], [ 1255449.034566706512123, 5542981.343784033320844 ], [ 1255449.034566706512123, 5543081.343784033320844 ] ] ] ] } },
{ "type": "Feature", "properties": { "id": 5960, "street_cells": 469.22495975792413, "yard_cells": 4691.6238505505034, "utility": 0.59660966516084224, "num_areas": 0.0 }, "geometry": { "type": "MultiPolygon", "coordinates": [ [ [ [ 1257249.034566706512123, 5543881.343784033320844 ], [ 1257349.034566706512123, 5543881.343784033320844 ], [ 1257349.034566706512123, 5543781.343784033320844 ], [ 1257249.034566706512123, 5543781.343784033320844 ], [ 1257249.034566706512123, 5543881.343784033320844 ] ] ] ] } },
{ "type": "Feature", "properties": { "id": 6272, "street_cells": 66.39607778079808, "yard_cells": 5672.5514054759406, "utility": 0.54636300257786685, "num_areas": 0.0 }, "geometry": { "type": "MultiPolygon", "coordinates": [ [ [ [ 1257449.034566706512123, 5544481.343784033320844 ], [ 1257549.034566706512123, 5544481.343784033320844 ], [ 1257549.034566706512123, 5544381.343784033320844 ], [ 1257449.034566706512123, 5544381.343784033320844 ], [ 1257449.034566706512123, 5544481.343784033320844 ] ] ] ] } },
{ "type": "Feature", "properties": { "id": 7871, "street_cells": 157.34959699511529, "yard_cells": 5169.4527223864015, "utility": 0.51185786574111913, "num_areas": 0.0 }, "geometry": { "type": "MultiPolygon", "coordinates": [ [ [ [ 1258449.034566706512123, 5543581.343784033320844 ], [ 1258549.034566706512123, 5543581.343784033320844 ], [ 1258549.034566706512123, 5543481.343784033320844 ], [ 1258449.034566706512123, 5543481.343784033320844 ], [ 1258449.034566706512123, 5543581.343784033320844 ] ] ] ] } },
{ "type": "Feature", "properties": { "id": 8051, "street_cells": 0.0, "yard_cells": 8539.2132212691722, "utility": 0.47683141574139942, "num_areas": 1.0 }, "geometry": { "type": "MultiPolygon", "coordinates": [ [ [ [ 1258549.034566706512123, 5541481.343784033320844 ], [ 1258649.034566706512123, 5541481.343784033320844 ], [ 1258649.034566706512123, 5541381.343784033320844 ], [ 1258549.034566706512123, 5541381.343784033320844 ], [ 1258549.034566706512123, 5541481.343784033320844 ] ] ] ] } },
{ "type": "Feature", "properties": { "id": 8508, "street_cells": 287.39793595746158, "yard_cells": 4503.6567931322788, "utility": 0.57277556701853227, "num_areas": 1.0 }, "geometry": { "type": "MultiPolygon", "coordinates": [ [ [ [ 1258849.034566706512123, 5543481.343784033320844 ], [ 1258949.034566706512123, 5543481.343784033320844 ], [ 1258949.034566706512123, 5543381.343784033320844 ], [ 1258849.034566706512123, 5543381.343784033320844 ], [ 1258849.034566706512123, 5543481.343784033320844 ] ] ] ] } },
{ "type": "Feature", "properties": { "id": 8664, "street_cells": 404.93223603665831, "yard_cells": 4119.0991783695499, "utility": 0.60852749064083056, "num_areas": 0.0 }, "geometry": { "type": "MultiPolygon", "coordinates": [ [ [ [ 1258949.034566706512123, 5543781.343784033320844 ], [ 1259049.034566706512123, 5543781.343784033320844 ], [ 1259049.034566706512123, 5543681.343784033320844 ], [ 1258949.034566706512123, 5543681.343784033320844 ], [ 1258949.034566706512123, 5543781.343784033320844 ] ] ] ] } },
{ "type": "Feature", "properties": { "id": 8826, "street_cells": 188.47162948250769, "yard_cells": 4486.1574629948773, "utility": 0.57478477162340424, "num_areas": 0.0 }, "geometry": { "type": "MultiPolygon", "coordinates": [ [ [ [ 1259049.034566706512123, 5543481.343784033320844 ], [ 1259149.034566706512123, 5543481.343784033320844 ], [ 1259149.034566706512123, 5543381.343784033320844 ], [ 1259049.034566706512123, 5543381.343784033320844 ], [ 1259049.034566706512123, 5543481.343784033320844 ] ] ] ] } },
{ "type": "Feature", "properties": { "id": 9000, "street_cells": 431.42663938472981, "yard_cells": 4995.3746715120642, "utility": 0.50910697349201461, "num_areas": 0.0 }, "geometry": { "type": "MultiPolygon", "coordinates": [ [ [ [ 1259149.034566706512123, 5541981.343784033320844 ], [ 1259249.034566706512123, 5541981.343784033320844 ], [ 1259249.034566706512123, 5541881.343784033320844 ], [ 1259149.034566706512123, 5541881.343784033320844 ], [ 1259149.034566706512123, 5541981.343784033320844 ] ] ] ] } },
{ "type": "Feature", "properties": { "id": 9314, "street_cells": 256.3281202796847, "yard_cells": 4613.0571067452111, "utility": 0.50063086889190511, "num_areas": 1.0 }, "geometry": { "type": "MultiPolygon", "coordinates": [ [ [ [ 1259349.034566706512123, 5542381.343784033320844 ], [ 1259449.034566706512123, 5542381.343784033320844 ], [ 1259449.034566706512123, 5542281.343784033320844 ], [ 1259349.034566706512123, 5542281.343784033320844 ], [ 1259349.034566706512123, 5542381.343784033320844 ] ] ] ] } },
{ "type": "Feature", "properties": { "id": 9319, "street_cells": 420.08305368423459, "yard_cells": 4012.6217113361122, "utility": 0.49999966479634389, "num_areas": 2.0 }, "geometry": { "type": "MultiPolygon", "coordinates": [ [ [ [ 1259349.034566706512123, 5541881.343784033320844 ], [ 1259449.034566706512123, 5541881.343784033320844 ], [ 1259449.034566706512123, 5541781.343784033320844 ], [ 1259349.034566706512123, 5541781.343784033320844 ], [ 1259349.034566706512123, 5541881.343784033320844 ] ] ] ] } },
{ "type": "Feature", "properties": { "id": 9789, "street_cells": 391.16730992421509, "yard_cells": 4313.6058061392296, "utility": 0.61614201021387838, "num_areas": 2.0 }, "geometry": { "type": "MultiPolygon", "coordinates": [ [ [ [ 1259649.034566706512123, 5542581.343784033320844 ], [ 1259749.034566706512123, 5542581.343784033320844 ], [ 1259749.034566706512123, 5542481.343784033320844 ], [ 1259649.034566706512123, 5542481.343784033320844 ], [ 1259649.034566706512123, 5542581.343784033320844 ] ] ] ] } },
{ "type": "Feature", "properties": { "id": 10276, "street_cells": 208.80996038094159, "yard_cells": 4386.9847510553427, "utility": 0.59302114161827657, "num_areas": 0.0 }, "geometry": { "type": "MultiPolygon", "coordinates": [ [ [ [ 1259949.034566706512123, 5541581.343784033320844 ], [ 1260049.034566706512123, 5541581.343784033320844 ], [ 1260049.034566706512123, 5541481.343784033320844 ], [ 1259949.034566706512123, 5541481.343784033320844 ], [ 1259949.034566706512123, 5541581.343784033320844 ] ] ] ] } },
{ "type": "Feature", "properties": { "id": 11685, "street_cells": 2.036853720992803, "yard_cells": 5633.6687829079747, "utility": 0.46757257817730091, "num_areas": 0.0 }, "geometry": { "type": "MultiPolygon", "coordinates": [ [ [ [ 1260849.034566706512123, 5543781.343784033320844 ], [ 1260949.034566706512123, 5543781.343784033320844 ], [ 1260949.034566706512123, 5543681.343784033320844 ], [ 1260849.034566706512123, 5543681.343784033320844 ], [ 1260849.034566706512123, 5543781.343784033320844 ] ] ] ] } },
{ "type": "Feature", "properties": { "id": 11844, "street_cells": 347.95987847559161, "yard_cells": 4269.6775070820004, "utility": 0.47749442222597849, "num_areas": 0.0 }, "geometry": { "type": "MultiPolygon", "coordinates": [ [ [ [ 1260949.034566706512123, 5543781.343784033320844 ], [ 1261049.034566706512123, 5543781.343784033320844 ], [ 1261049.034566706512123, 5543681.343784033320844 ], [ 1260949.034566706512123, 5543681.343784033320844 ], [ 1260949.034566706512123, 5543781.343784033320844 ] ] ] ] } },
{ "type": "Feature", "properties": { "id": 12318, "street_cells": 191.49032758772381, "yard_cells": 4818.2799674449489, "utility": 0.54428744369745719, "num_areas": 0.0 }, "geometry": { "type": "MultiPolygon", "coordinates": [ [ [ [ 1261249.034566706512123, 5544081.343784033320844 ], [ 1261349.034566706512123, 5544081.343784033320844 ], [ 1261349.034566706512123, 5543981.343784033320844 ], [ 1261249.034566706512123, 5543981.343784033320844 ], [ 1261249.034566706512123, 5544081.343784033320844 ] ] ] ] } },
{ "type": "Feature", "properties": { "id": 12320, "street_cells": 354.16615974009039, "yard_cells": 4503.7011026973187, "utility": 0.52942304245694316, "num_areas": 3.0 }, "geometry": { "type": "MultiPolygon", "coordinates": [ [ [ [ 1261249.034566706512123, 5543881.343784033320844 ], [ 1261349.034566706512123, 5543881.343784033320844 ], [ 1261349.034566706512123, 5543781.343784033320844 ], [ 1261249.034566706512123, 5543781.343784033320844 ], [ 1261249.034566706512123, 5543881.343784033320844 ] ] ] ] } },
{ "type": "Feature", "properties": { "id": 12329, "street_cells": 3.8338204316794871, "yard_cells": 4379.2317712325603, "utility": 0.6323228535783183, "num_areas": 3.0 }, "geometry": { "type": "MultiPolygon", "coordinates": [ [ [ [ 1261249.034566706512123, 5542981.343784033320844 ], [ 1261349.034566706512123, 5542981.343784033320844 ], [ 1261349.034566706512123, 5542881.343784033320844 ], [ 1261249.034566706512123, 5542881.343784033320844 ], [ 1261249.034566706512123, 5542981.343784033320844 ] ] ] ] } },
{ "type": "Feature", "properties": { "id": 12955, "street_cells": 420.03392774909742, "yard_cells": 4436.5813984461129, "utility": 0.70126345785628419, "num_areas": 0.0 }, "geometry": { "type": "MultiPolygon", "coordinates": [ [ [ [ 1261649.034566706512123, 5543981.343784033320844 ], [ 1261749.034566706512123, 5543981.343784033320844 ], [ 1261749.034566706512123, 5543881.343784033320844 ], [ 1261649.034566706512123, 5543881.343784033320844 ], [ 1261649.034566706512123, 5543981.343784033320844 ] ] ] ] } },
{ "type": "Feature", "properties": { "id": 13116, "street_cells": 398.82238749414682, "yard_cells": 4106.5190786896892, "utility": 0.45752449428831121, "num_areas": 0.0 }, "geometry": { "type": "MultiPolygon", "coordinates": [ [ [ [ 1261749.034566706512123, 5543781.343784033320844 ], [ 1261849.034566706512123, 5543781.343784033320844 ], [ 1261849.034566706512123, 5543681.343784033320844 ], [ 1261749.034566706512123, 5543681.343784033320844 ], [ 1261749.034566706512123, 5543781.343784033320844 ] ] ] ] } },
{ "type": "Feature", "properties": { "id": 13756, "street_cells": 0.0, "yard_cells": 4889.2083321157843, "utility": 0.39381175703416399, "num_areas": 0.0 }, "geometry": { "type": "MultiPolygon", "coordinates": [ [ [ [ 1262149.034566706512123, 5543381.343784033320844 ], [ 1262249.034566706512123, 5543381.343784033320844 ], [ 1262249.034566706512123, 5543281.343784033320844 ], [ 1262149.034566706512123, 5543281.343784033320844 ], [ 1262149.034566706512123, 5543381.343784033320844 ] ] ] ] } },
{ "type": "Feature", "properties": { "id": 14054, "street_cells": 0.0, "yard_cells": 6351.1158476867713, "utility": 0.6395067717494084, "num_areas": 0.0 }, "geometry": { "type": "MultiPolygon", "coordinates": [ [ [ [ 1262349.034566706512123, 5545381.343784033320844 ], [ 1262449.034566706512123, 5545381.343784033320844 ], [ 1262449.034566706512123, 5545281.343784033320844 ], [ 1262349.034566706512123, 5545281.343784033320844 ], [ 1262349.034566706512123, 5545381.343784033320844 ] ] ] ] } },
{ "type": "Feature", "properties": { "id": 14219, "street_cells": 439.86407599747179, "yard_cells": 4746.2319780716753, "utility": 0.47199485858051438, "num_areas": 1.0 }, "geometry": { "type": "MultiPolygon", "coordinates": [ [ [ [ 1262449.034566706512123, 5544781.343784033320844 ], [ 1262549.034566706512123, 5544781.343784033320844 ], [ 1262549.034566706512123, 5544681.343784033320844 ], [ 1262449.034566706512123, 5544681.343784033320844 ], [ 1262449.034566706512123, 5544781.343784033320844 ] ] ] ] } },
{ "type": "Feature", "properties": { "id": 14233, "street_cells": 360.0273892251775, "yard_cells": 4623.4276258559621, "utility": 0.62444346794889194, "num_areas": 1.0 }, "geometry": { "type": "MultiPolygon", "coordinates": [ [ [ [ 1262449.034566706512123, 5543381.343784033320844 ], [ 1262549.034566706512123, 5543381.343784033320844 ], [ 1262549.034566706512123, 5543281.343784033320844 ], [ 1262449.034566706512123, 5543281.343784033320844 ], [ 1262449.034566706512123, 5543381.343784033320844 ] ] ] ] } },
{ "type": "Feature", "properties": { "id": 14377, "street_cells": 495.9580023225397, "yard_cells": 4235.7312663118346, "utility": 0.27029010197149428, "num_areas": 0.0 }, "geometry": { "type": "MultiPolygon", "coordinates": [ [ [ [ 1262549.034566706512123, 5544881.343784033320844 ], [ 1262649.034566706512123, 5544881.343784033320844 ], [ 1262649.034566706512123, 5544781.343784033320844 ], [ 1262549.034566706512123, 5544781.343784033320844 ], [ 1262549.034566706512123, 5544881.343784033320844 ] ] ] ] } },
{ "type": "Feature", "properties": { "id": 14857, "street_cells": 570.48591197729115, "yard_cells": 3748.1983831426251, "utility": 0.26219855243214901, "num_areas": 0.0 }, "geometry": { "type": "MultiPolygon", "coordinates": [ [ [ [ 1262849.034566706512123, 5544581.343784033320844 ], [ 1262949.034566706512123, 5544581.343784033320844 ], [ 1262949.034566706512123, 5544481.343784033320844 ], [ 1262849.034566706512123, 5544481.343784033320844 ], [ 1262849.034566706512123, 5544581.343784033320844 ] ] ] ] } },
{ "type": "Feature", "properties": { "id": 15481, "street_cells": 298.77835048213598, "yard_cells": 4645.3295534255703, "utility": 0.60694173339600577, "num_areas": 1.0 }, "geometry": { "type": "MultiPolygon", "coordinates": [ [ [ [ 1263249.034566706512123, 5545781.343784033320844 ], [ 1263349.034566706512123, 5545781.343784033320844 ], [ 1263349.034566706512123, 5545681.343784033320844 ], [ 1263249.034566706512123, 5545681.343784033320844 ], [ 1263249.034566706512123, 5545781.343784033320844 ] ] ] ] } },
{ "type": "Feature", "properties": { "id": 15483, "street_cells": 0.0, "yard_cells": 5924.8242503711954, "utility": 0.70042441068131234, "num_areas": 0.0 }, "geometry": { "type": "MultiPolygon", "coordinates": [ [ [ [ 1263249.034566706512123, 5545581.343784033320844 ], [ 1263349.034566706512123, 5545581.343784033320844 ], [ 1263349.034566706512123, 5545481.343784033320844 ], [ 1263249.034566706512123, 5545481.343784033320844 ], [ 1263249.034566706512123, 5545581.343784033320844 ] ] ] ] } },
{ "type": "Feature", "properties": { "id": 15491, "street_cells": 44.849999828822916, "yard_cells": 5033.011056731455, "utility": 0.55033257842627603, "num_areas": 1.0 }, "geometry": { "type": "MultiPolygon", "coordinates": [ [ [ [ 1263249.034566706512123, 5544781.343784033320844 ], [ 1263349.034566706512123, 5544781.343784033320844 ], [ 1263349.034566706512123, 5544681.343784033320844 ], [ 1263249.034566706512123, 5544681.343784033320844 ], [ 1263249.034566706512123, 5544781.343784033320844 ] ] ] ] } },
{ "type": "Feature", "properties": { "id": 15640, "street_cells": 285.08639860264958, "yard_cells": 5241.3123961271558, "utility": 0.5937345256505735, "num_areas": 1.0 }, "geometry": { "type": "MultiPolygon", "coordinates": [ [ [ [ 1263349.034566706512123, 5545781.343784033320844 ], [ 1263449.034566706512123, 5545781.343784033320844 ], [ 1263449.034566706512123, 5545681.343784033320844 ], [ 1263349.034566706512123, 5545681.343784033320844 ], [ 1263349.034566706512123, 5545781.343784033320844 ] ] ] ] } },
{ "type": "Feature", "properties": { "id": 15978, "street_cells": 0.0, "yard_cells": 5603.4457935541868, "utility": 0.5935331348248154, "num_areas": 0.0 }, "geometry": { "type": "MultiPolygon", "coordinates": [ [ [ [ 1263549.034566706512123, 5543781.343784033320844 ], [ 1263649.034566706512123, 5543781.343784033320844 ], [ 1263649.034566706512123, 5543681.343784033320844 ], [ 1263549.034566706512123, 5543681.343784033320844 ], [ 1263549.034566706512123, 5543781.343784033320844 ] ] ] ] } },
{ "type": "Feature", "properties": { "id": 15979, "street_cells": 732.15261323191226, "yard_cells": 5187.4791655037552, "utility": 0.39323133304194252, "num_areas": 1.0 }, "geometry": { "type": "MultiPolygon", "coordinates": [ [ [ [ 1263549.034566706512123, 5543681.343784033320844 ], [ 1263649.034566706512123, 5543681.343784033320844 ], [ 1263649.034566706512123, 5543581.343784033320844 ], [ 1263549.034566706512123, 5543581.343784033320844 ], [ 1263549.034566706512123, 5543681.343784033320844 ] ] ] ] } },
{ "type": "Feature", "properties": { "id": 16076, "street_cells": 81.390625358233237, "yard_cells": 6086.9394750226056, "utility": 0.43967961149449419, "num_areas": 0.0 }, "geometry": { "type": "MultiPolygon", "coordinates": [ [ [ [ 1263649.034566706512123, 5549881.343784033320844 ], [ 1263749.034566706512123, 5549881.343784033320844 ], [ 1263749.034566706512123, 5549781.343784033320844 ], [ 1263649.034566706512123, 5549781.343784033320844 ], [ 1263649.034566706512123, 5549881.343784033320844 ] ] ] ] } },
{ "type": "Feature", "properties": { "id": 16112, "street_cells": 323.9522167298943, "yard_cells": 4739.7086972761899, "utility": 0.60199537265606873, "num_areas": 0.0 }, "geometry": { "type": "MultiPolygon", "coordinates": [ [ [ [ 1263649.034566706512123, 5546281.343784033320844 ], [ 1263749.034566706512123, 5546281.343784033320844 ], [ 1263749.034566706512123, 5546181.343784033320844 ], [ 1263649.034566706512123, 5546181.343784033320844 ], [ 1263649.034566706512123, 5546281.343784033320844 ] ] ] ] } },
{ "type": "Feature", "properties": { "id": 16113, "street_cells": 218.65239908099181, "yard_cells": 4759.9477744509932, "utility": 0.53623569156721418, "num_areas": 2.0 }, "geometry": { "type": "MultiPolygon", "coordinates": [ [ [ [ 1263649.034566706512123, 5546181.343784033320844 ], [ 1263749.034566706512123, 5546181.343784033320844 ], [ 1263749.034566706512123, 5546081.343784033320844 ], [ 1263649.034566706512123, 5546081.343784033320844 ], [ 1263649.034566706512123, 5546181.343784033320844 ] ] ] ] } },
{ "type": "Feature", "properties": { "id": 16271, "street_cells": 98.362333324551585, "yard_cells": 6106.6756988475099, "utility": 0.69075763089162867, "num_areas": 0.0 }, "geometry": { "type": "MultiPolygon", "coordinates": [ [ [ [ 1263749.034566706512123, 5546281.343784033320844 ], [ 1263849.034566706512123, 5546281.343784033320844 ], [ 1263849.034566706512123, 5546181.343784033320844 ], [ 1263749.034566706512123, 5546181.343784033320844 ], [ 1263749.034566706512123, 5546281.343784033320844 ] ] ] ] } },
{ "type": "Feature", "properties": { "id": 16274, "street_cells": 385.83039495199921, "yard_cells": 4784.0205503366888, "utility": 0.64226483204101392, "num_areas": 0.0 }, "geometry": { "type": "MultiPolygon", "coordinates": [ [ [ [ 1263749.034566706512123, 5545981.343784033320844 ], [ 1263849.034566706512123, 5545981.343784033320844 ], [ 1263849.034566706512123, 5545881.343784033320844 ], [ 1263749.034566706512123, 5545881.343784033320844 ], [ 1263749.034566706512123, 5545981.343784033320844 ] ] ] ] } },
{ "type": "Feature", "properties": { "id": 16300, "street_cells": 0.0, "yard_cells": 5292.0143771898001, "utility": 0.60987922833599206, "num_areas": 0.0 }, "geometry": { "type": "MultiPolygon", "coordinates": [ [ [ [ 1263749.034566706512123, 5543381.343784033320844 ], [ 1263849.034566706512123, 5543381.343784033320844 ], [ 1263849.034566706512123, 5543281.343784033320844 ], [ 1263749.034566706512123, 5543281.343784033320844 ], [ 1263749.034566706512123, 5543381.343784033320844 ] ] ] ] } },
{ "type": "Feature", "properties": { "id": 16446, "street_cells": 258.4470125362277, "yard_cells": 4984.0696221873332, "utility": 0.63414675670311726, "num_areas": 0.0 }, "geometry": { "type": "MultiPolygon", "coordinates": [ [ [ [ 1263849.034566706512123, 5544681.343784033320844 ], [ 1263949.034566706512123, 5544681.343784033320844 ], [ 1263949.034566706512123, 5544581.343784033320844 ], [ 1263849.034566706512123, 5544581.343784033320844 ], [ 1263849.034566706512123, 5544681.343784033320844 ] ] ] ] } },
{ "type": "Feature", "properties": { "id": 16750, "street_cells": 342.02595155537131, "yard_cells": 5259.0325151248844, "utility": 0.62340845481317453, "num_areas": 1.0 }, "geometry": { "type": "MultiPolygon", "coordinates": [ [ [ [ 1264049.034566706512123, 5546081.343784033320844 ], [ 1264149.034566706512123, 5546081.343784033320844 ], [ 1264149.034566706512123, 5545981.343784033320844 ], [ 1264049.034566706512123, 5545981.343784033320844 ], [ 1264049.034566706512123, 5546081.343784033320844 ] ] ] ] } },
{ "type": "Feature", "properties": { "id": 16927, "street_cells": 64.424480557069188, "yard_cells": 5267.9026477793632, "utility": 0.51724770271367437, "num_areas": 1.0 }, "geometry": { "type": "MultiPolygon", "coordinates": [ [ [ [ 1264149.034566706512123, 5544281.343784033320844 ], [ 1264249.034566706512123, 5544281.343784033320844 ], [ 1264249.034566706512123, 5544181.343784033320844 ], [ 1264149.034566706512123, 5544181.343784033320844 ], [ 1264149.034566706512123, 5544281.343784033320844 ] ] ] ] } },
{ "type": "Feature", "properties": { "id": 17578, "street_cells": 325.40485727488999, "yard_cells": 5177.8352869767696, "utility": 0.52446206290570307, "num_areas": 0.0 }, "geometry": { "type": "MultiPolygon", "coordinates": [ [ [ [ 1264549.034566706512123, 5542781.343784033320844 ], [ 1264649.034566706512123, 5542781.343784033320844 ], [ 1264649.034566706512123, 5542681.343784033320844 ], [ 1264549.034566706512123, 5542681.343784033320844 ], [ 1264549.034566706512123, 5542781.343784033320844 ] ] ] ] } },
{ "type": "Feature", "properties": { "id": 18045, "street_cells": 102.2856218669564, "yard_cells": 4921.4808836719021, "utility": 0.56902726932737568, "num_areas": 0.0 }, "geometry": { "type": "MultiPolygon", "coordinates": [ [ [ [ 1264849.034566706512123, 5543781.343784033320844 ], [ 1264949.034566706512123, 5543781.343784033320844 ], [ 1264949.034566706512123, 5543681.343784033320844 ], [ 1264849.034566706512123, 5543681.343784033320844 ], [ 1264849.034566706512123, 5543781.343784033320844 ] ] ] ] } },
{ "type": "Feature", "properties": { "id": 18719, "street_cells": 338.83074579909447, "yard_cells": 4458.0530433314416, "utility": 0.37585226750771028, "num_areas": 0.0 }, "geometry": { "type": "MultiPolygon", "coordinates": [ [ [ [ 1265249.034566706512123, 5539981.343784033320844 ], [ 1265349.034566706512123, 5539981.343784033320844 ], [ 1265349.034566706512123, 5539881.343784033320844 ], [ 1265249.034566706512123, 5539881.343784033320844 ], [ 1265249.034566706512123, 5539981.343784033320844 ] ] ] ] } },
{ "type": "Feature", "properties": { "id": 18878, "street_cells": 478.64365828293381, "yard_cells": 4292.7467013206333, "utility": 0.55591706871009328, "num_areas": 0.0 }, "geometry": { "type": "MultiPolygon", "coordinates": [ [ [ [ 1265349.034566706512123, 5539981.343784033320844 ], [ 1265449.034566706512123, 5539981.343784033320844 ], [ 1265449.034566706512123, 5539881.343784033320844 ], [ 1265349.034566706512123, 5539881.343784033320844 ], [ 1265349.034566706512123, 5539981.343784033320844 ] ] ] ] } },
{ "type": "Feature", "properties": { "id": 19037, "street_cells": 405.75128435343498, "yard_cells": 4360.9408056268003, "utility": 0.60957258274901893, "num_areas": 0.0 }, "geometry": { "type": "MultiPolygon", "coordinates": [ [ [ [ 1265449.034566706512123, 5539981.343784033320844 ], [ 1265549.034566706512123, 5539981.343784033320844 ], [ 1265549.034566706512123, 5539881.343784033320844 ], [ 1265449.034566706512123, 5539881.343784033320844 ], [ 1265449.034566706512123, 5539981.343784033320844 ] ] ] ] } },
{ "type": "Feature", "properties": { "id": 19184, "street_cells": 239.66862864196301, "yard_cells": 5304.0008095055819, "utility": 0.39075997013160002, "num_areas": 0.0 }, "geometry": { "type": "MultiPolygon", "coordinates": [ [ [ [ 1265549.034566706512123, 5541181.343784033320844 ], [ 1265649.034566706512123, 5541181.343784033320844 ], [ 1265649.034566706512123, 5541081.343784033320844 ], [ 1265549.034566706512123, 5541081.343784033320844 ], [ 1265549.034566706512123, 5541181.343784033320844 ] ] ] ] } },
{ "type": "Feature", "properties": { "id": 19345, "street_cells": 83.43431467264891, "yard_cells": 4805.7986906468868, "utility": 0.63173464517020594, "num_areas": 0.0 }, "geometry": { "type": "MultiPolygon", "coordinates": [ [ [ [ 1265649.034566706512123, 5540981.343784033320844 ], [ 1265749.034566706512123, 5540981.343784033320844 ], [ 1265749.034566706512123, 5540881.343784033320844 ], [ 1265649.034566706512123, 5540881.343784033320844 ], [ 1265649.034566706512123, 5540981.343784033320844 ] ] ] ] } },
{ "type": "Feature", "properties": { "id": 19498, "street_cells": 2.689874032139778, "yard_cells": 6047.263721998781, "utility": 0.61542344114803194, "num_areas": 0.0 }, "geometry": { "type": "MultiPolygon", "coordinates": [ [ [ [ 1265749.034566706512123, 5541581.343784033320844 ], [ 1265849.034566706512123, 5541581.343784033320844 ], [ 1265849.034566706512123, 5541481.343784033320844 ], [ 1265749.034566706512123, 5541481.343784033320844 ], [ 1265749.034566706512123, 5541581.343784033320844 ] ] ] ] } },
{ "type": "Feature", "properties": { "id": 19504, "street_cells": 0.0, "yard_cells": 6084.0324303353718, "utility": 0.67887064055779545, "num_areas": 0.0 }, "geometry": { "type": "MultiPolygon", "coordinates": [ [ [ [ 1265749.034566706512123, 5540981.343784033320844 ], [ 1265849.034566706512123, 5540981.343784033320844 ], [ 1265849.034566706512123, 5540881.343784033320844 ], [ 1265749.034566706512123, 5540881.343784033320844 ], [ 1265749.034566706512123, 5540981.343784033320844 ] ] ] ] } },
{ "type": "Feature", "properties": { "id": 19526, "street_cells": 86.181150563061237, "yard_cells": 5611.1835784951854, "utility": 0.5397521966342278, "num_areas": 1.0 }, "geometry": { "type": "MultiPolygon", "coordinates": [ [ [ [ 1265749.034566706512123, 5538687.034894553944468 ], [ 1265749.034566706512123, 5538781.343784033320844 ], [ 1265849.034566706512123, 5538781.343784033320844 ], [ 1265849.034566706512123, 5538681.343784033320844 ], [ 1265752.434265846852213, 5538681.343784033320844 ], [ 1265749.034566706512123, 5538687.034894553944468 ] ] ] ] } },
{ "type": "Feature", "properties": { "id": 19675, "street_cells": 237.33096101582049, "yard_cells": 4757.0810152050108, "utility": 0.61620103965164097, "num_areas": 0.0 }, "geometry": { "type": "MultiPolygon", "coordinates": [ [ [ [ 1265849.034566706512123, 5539781.343784033320844 ], [ 1265949.034566706512123, 5539781.343784033320844 ], [ 1265949.034566706512123, 5539681.343784033320844 ], [ 1265849.034566706512123, 5539681.343784033320844 ], [ 1265849.034566706512123, 5539781.343784033320844 ] ] ] ] } },
{ "type": "Feature", "properties": { "id": 19687, "street_cells": 160.89318906776609, "yard_cells": 5531.1198988528922, "utility": 0.53377293134620252, "num_areas": 0.0 }, "geometry": { "type": "MultiPolygon", "coordinates": [ [ [ [ 1265849.034566706512123, 5538581.343784033320844 ], [ 1265949.034566706512123, 5538581.343784033320844 ], [ 1265949.034566706512123, 5538481.343784033320844 ], [ 1265849.034566706512123, 5538481.343784033320844 ], [ 1265849.034566706512123, 5538581.343784033320844 ] ] ] ] } },
{ "type": "Feature", "properties": { "id": 19817, "street_cells": 17.14005324691534, "yard_cells": 5343.5231939997757, "utility": 0.56157974140274225, "num_areas": 1.0 }, "geometry": { "type": "MultiPolygon", "coordinates": [ [ [ [ 1265949.034566706512123, 5541481.343784033320844 ], [ 1266049.034566706512123, 5541481.343784033320844 ], [ 1266049.034566706512123, 5541381.343784033320844 ], [ 1265949.034566706512123, 5541381.343784033320844 ], [ 1265949.034566706512123, 5541481.343784033320844 ] ] ] ] } },
{ "type": "Feature", "properties": { "id": 19833, "street_cells": 427.81377203959278, "yard_cells": 4205.4350444953889, "utility": 0.16684197301004891, "num_areas": 3.0 }, "geometry": { "type": "MultiPolygon", "coordinates": [ [ [ [ 1265949.034566706512123, 5539881.343784033320844 ], [ 1266049.034566706512123, 5539881.343784033320844 ], [ 1266049.034566706512123, 5539781.343784033320844 ], [ 1265949.034566706512123, 5539781.343784033320844 ], [ 1265949.034566706512123, 5539881.343784033320844 ] ] ] ] } },
{ "type": "Feature", "properties": { "id": 19846, "street_cells": 353.34486205093572, "yard_cells": 5548.9911384615116, "utility": 0.59105124335182224, "num_areas": 0.0 }, "geometry": { "type": "MultiPolygon", "coordinates": [ [ [ [ 1265949.034566706512123, 5538581.343784033320844 ], [ 1266049.034566706512123, 5538581.343784033320844 ], [ 1266049.034566706512123, 5538481.343784033320844 ], [ 1265949.034566706512123, 5538481.343784033320844 ], [ 1265949.034566706512123, 5538581.343784033320844 ] ] ] ] } },
{ "type": "Feature", "properties": { "id": 19985, "street_cells": 0.0, "yard_cells": 4814.2367233242039, "utility": 0.54661486637522239, "num_areas": 1.0 }, "geometry": { "type": "MultiPolygon", "coordinates": [ [ [ [ 1266049.034566706512123, 5540581.343784033320844 ], [ 1266149.034566706512123, 5540581.343784033320844 ], [ 1266149.034566706512123, 5540481.343784033320844 ], [ 1266049.034566706512123, 5540481.343784033320844 ], [ 1266049.034566706512123, 5540581.343784033320844 ] ] ] ] } },
{ "type": "Feature", "properties": { "id": 20011, "street_cells": 186.73449331186711, "yard_cells": 5469.198301845463, "utility": 0.58033604362801972, "num_areas": 0.0 }, "geometry": { "type": "MultiPolygon", "coordinates": [ [ [ [ 1266049.034566706512123, 5537981.343784033320844 ], [ 1266149.034566706512123, 5537981.343784033320844 ], [ 1266149.034566706512123, 5537881.343784033320844 ], [ 1266049.034566706512123, 5537881.343784033320844 ], [ 1266049.034566706512123, 5537981.343784033320844 ] ] ] ] } },
{ "type": "Feature", "properties": { "id": 20116, "street_cells": 405.52240374088291, "yard_cells": 4573.2963979057968, "utility": 0.53322343389078652, "num_areas": 0.0 }, "geometry": { "type": "MultiPolygon", "coordinates": [ [ [ [ 1266149.034566706512123, 5543381.343784033320844 ], [ 1266249.034566706512123, 5543381.343784033320844 ], [ 1266249.034566706512123, 5543281.343784033320844 ], [ 1266149.034566706512123, 5543281.343784033320844 ], [ 1266149.034566706512123, 5543381.343784033320844 ] ] ] ] } },
{ "type": "Feature", "properties": { "id": 20307, "street_cells": 537.18822092115886, "yard_cells": 4275.1250982494093, "utility": 0.63047268488072861, "num_areas": 0.0 }, "geometry": { "type": "MultiPolygon", "coordinates": [ [ [ [ 1266249.034566706512123, 5540181.343784033320844 ], [ 1266349.034566706512123, 5540181.343784033320844 ], [ 1266349.034566706512123, 5540081.343784033320844 ], [ 1266249.034566706512123, 5540081.343784033320844 ], [ 1266249.034566706512123, 5540181.343784033320844 ] ] ] ] } },
{ "type": "Feature", "properties": { "id": 20620, "street_cells": 197.73974210172889, "yard_cells": 5129.848033968894, "utility": 0.5091915112594817, "num_areas": 0.0 }, "geometry": { "type": "MultiPolygon", "coordinates": [ [ [ [ 1266449.034566706512123, 5540681.343784033320844 ], [ 1266549.034566706512123, 5540681.343784033320844 ], [ 1266549.034566706512123, 5540581.343784033320844 ], [ 1266449.034566706512123, 5540581.343784033320844 ], [ 1266449.034566706512123, 5540681.343784033320844 ] ] ] ] } },
{ "type": "Feature", "properties": { "id": 20791, "street_cells": 48.511434352956712, "yard_cells": 4699.7539819851518, "utility": 0.61355439565046166, "num_areas": 0.0 }, "geometry": { "type": "MultiPolygon", "coordinates": [ [ [ [ 1266549.034566706512123, 5539481.343784033320844 ], [ 1266649.034566706512123, 5539481.343784033320844 ], [ 1266649.034566706512123, 5539381.343784033320844 ], [ 1266549.034566706512123, 5539381.343784033320844 ], [ 1266549.034566706512123, 5539481.343784033320844 ] ] ] ] } },
{ "type": "Feature", "properties": { "id": 20949, "street_cells": 514.68386142123495, "yard_cells": 4037.4929226264362, "utility": 0.50760330697349498, "num_areas": 0.0 }, "geometry": { "type": "MultiPolygon", "coordinates": [ [ [ [ 1266649.034566706512123, 5539581.343784033320844 ], [ 1266749.034566706512123, 5539581.343784033320844 ], [ 1266749.034566706512123, 5539481.343784033320844 ], [ 1266649.034566706512123, 5539481.343784033320844 ], [ 1266649.034566706512123, 5539581.343784033320844 ] ] ] ] } },
{ "type": "Feature", "properties": { "id": 20954, "street_cells": 63.054135034978387, "yard_cells": 6250.9698437964544, "utility": 0.40560292971313561, "num_areas": 0.0 }, "geometry": { "type": "MultiPolygon", "coordinates": [ [ [ [ 1266649.034566706512123, 5539081.343784033320844 ], [ 1266749.034566706512123, 5539081.343784033320844 ], [ 1266749.034566706512123, 5538981.343784033320844 ], [ 1266649.034566706512123, 5538981.343784033320844 ], [ 1266649.034566706512123, 5539081.343784033320844 ] ] ] ] } },
{ "type": "Feature", "properties": { "id": 21105, "street_cells": 410.31305187175752, "yard_cells": 4927.360329084564, "utility": 0.66843646258547107, "num_areas": 0.0 }, "geometry": { "type": "MultiPolygon", "coordinates": [ [ [ [ 1266749.034566706512123, 5539881.343784033320844 ], [ 1266849.034566706512123, 5539881.343784033320844 ], [ 1266849.034566706512123, 5539781.343784033320844 ], [ 1266749.034566706512123, 5539781.343784033320844 ], [ 1266749.034566706512123, 5539881.343784033320844 ] ] ] ] } },
{ "type": "Feature", "properties": { "id": 21422, "street_cells": 299.57074961811298, "yard_cells": 4063.3131870961461, "utility": 0.51676056634042977, "num_areas": 2.0 }, "geometry": { "type": "MultiPolygon", "coordinates": [ [ [ [ 1266949.034566706512123, 5539981.343784033320844 ], [ 1267049.034566706512123, 5539981.343784033320844 ], [ 1267049.034566706512123, 5539881.343784033320844 ], [ 1266949.034566706512123, 5539881.343784033320844 ], [ 1266949.034566706512123, 5539981.343784033320844 ] ] ] ] } },
{ "type": "Feature", "properties": { "id": 21581, "street_cells": 387.23632563613359, "yard_cells": 4578.2422373865274, "utility": 0.68820066003144498, "num_areas": 0.0 }, "geometry": { "type": "MultiPolygon", "coordinates": [ [ [ [ 1267049.034566706512123, 5539981.343784033320844 ], [ 1267149.034566706512123, 5539981.343784033320844 ], [ 1267149.034566706512123, 5539881.343784033320844 ], [ 1267049.034566706512123, 5539881.343784033320844 ], [ 1267049.034566706512123, 5539981.343784033320844 ] ] ] ] } },
{ "type": "Feature", "properties": { "id": 21582, "street_cells": 401.67031501755122, "yard_cells": 4433.2278954680078, "utility": 0.68043831793407961, "num_areas": 0.0 }, "geometry": { "type": "MultiPolygon", "coordinates": [ [ [ [ 1267049.034566706512123, 5539881.343784033320844 ], [ 1267149.034566706512123, 5539881.343784033320844 ], [ 1267149.034566706512123, 5539781.343784033320844 ], [ 1267049.034566706512123, 5539781.343784033320844 ], [ 1267049.034566706512123, 5539881.343784033320844 ] ] ] ] } },
{ "type": "Feature", "properties": { "id": 21587, "street_cells": 435.0011513158679, "yard_cells": 3799.5283828387041, "utility": 0.56068862784065288, "num_areas": 0.0 }, "geometry": { "type": "MultiPolygon", "coordinates": [ [ [ [ 1267049.034566706512123, 5539381.343784033320844 ], [ 1267149.034566706512123, 5539381.343784033320844 ], [ 1267149.034566706512123, 5539281.343784033320844 ], [ 1267049.034566706512123, 5539281.343784033320844 ], [ 1267049.034566706512123, 5539381.343784033320844 ] ] ] ] } },
{ "type": "Feature", "properties": { "id": 21588, "street_cells": 382.48125309571628, "yard_cells": 4492.831018535886, "utility": 0.6093707759646888, "num_areas": 0.0 }, "geometry": { "type": "MultiPolygon", "coordinates": [ [ [ [ 1267049.034566706512123, 5539281.343784033320844 ], [ 1267149.034566706512123, 5539281.343784033320844 ], [ 1267149.034566706512123, 5539181.343784033320844 ], [ 1267049.034566706512123, 5539181.343784033320844 ], [ 1267049.034566706512123, 5539281.343784033320844 ] ] ] ] } },
{ "type": "Feature", "properties": { "id": 21736, "street_cells": 552.16485474705701, "yard_cells": 4154.5833755853819, "utility": 0.47961102444125558, "num_areas": 0.0 }, "geometry": { "type": "MultiPolygon", "coordinates": [ [ [ [ 1267149.034566706512123, 5540381.343784033320844 ], [ 1267249.034566706512123, 5540381.343784033320844 ], [ 1267249.034566706512123, 5540281.343784033320844 ], [ 1267149.034566706512123, 5540281.343784033320844 ], [ 1267149.034566706512123, 5540381.343784033320844 ] ] ] ] } },
{ "type": "Feature", "properties": { "id": 21737, "street_cells": 172.1106897711754, "yard_cells": 5038.9909802129259, "utility": 0.43598443555995858, "num_areas": 7.0 }, "geometry": { "type": "MultiPolygon", "coordinates": [ [ [ [ 1267149.034566706512123, 5540281.343784033320844 ], [ 1267249.034566706512123, 5540281.343784033320844 ], [ 1267249.034566706512123, 5540181.343784033320844 ], [ 1267149.034566706512123, 5540181.343784033320844 ], [ 1267149.034566706512123, 5540281.343784033320844 ] ] ] ] } },
{ "type": "Feature", "properties": { "id": 21741, "street_cells": 372.95016006529329, "yard_cells": 4514.1450785961933, "utility": 0.68895636965596208, "num_areas": 0.0 }, "geometry": { "type": "MultiPolygon", "coordinates": [ [ [ [ 1267149.034566706512123, 5539881.343784033320844 ], [ 1267249.034566706512123, 5539881.343784033320844 ], [ 1267249.034566706512123, 5539781.343784033320844 ], [ 1267149.034566706512123, 5539781.343784033320844 ], [ 1267149.034566706512123, 5539881.343784033320844 ] ] ] ] } },
{ "type": "Feature", "properties": { "id": 21746, "street_cells": 348.48698984310028, "yard_cells": 3806.581533207494, "utility": 0.60652159621356083, "num_areas": 2.0 }, "geometry": { "type": "MultiPolygon", "coordinates": [ [ [ [ 1267149.034566706512123, 5539381.343784033320844 ], [ 1267249.034566706512123, 5539381.343784033320844 ], [ 1267249.034566706512123, 5539281.343784033320844 ], [ 1267149.034566706512123, 5539281.343784033320844 ], [ 1267149.034566706512123, 5539381.343784033320844 ] ] ] ] } },
{ "type": "Feature", "properties": { "id": 21747, "street_cells": 813.42545765787372, "yard_cells": 3176.493515506826, "utility": 0.37935517907031158, "num_areas": 0.0 }, "geometry": { "type": "MultiPolygon", "coordinates": [ [ [ [ 1267149.034566706512123, 5539281.343784033320844 ], [ 1267249.034566706512123, 5539281.343784033320844 ], [ 1267249.034566706512123, 5539181.343784033320844 ], [ 1267149.034566706512123, 5539181.343784033320844 ], [ 1267149.034566706512123, 5539281.343784033320844 ] ] ] ] } },
{ "type": "Feature", "properties": { "id": 21748, "street_cells": 353.9739038899541, "yard_cells": 4297.2898027570918, "utility": 0.59434044054268487, "num_areas": 0.0 }, "geometry": { "type": "MultiPolygon", "coordinates": [ [ [ [ 1267149.034566706512123, 5539181.343784033320844 ], [ 1267249.034566706512123, 5539181.343784033320844 ], [ 1267249.034566706512123, 5539081.343784033320844 ], [ 1267149.034566706512123, 5539081.343784033320844 ], [ 1267149.034566706512123, 5539181.343784033320844 ] ] ] ] } },
{ "type": "Feature", "properties": { "id": 21896, "street_cells": 206.74159396067259, "yard_cells": 3950.590416837877, "utility": 0.59262587635267039, "num_areas": 1.0 }, "geometry": { "type": "MultiPolygon", "coordinates": [ [ [ [ 1267249.034566706512123, 5540281.343784033320844 ], [ 1267349.034566706512123, 5540281.343784033320844 ], [ 1267349.034566706512123, 5540181.343784033320844 ], [ 1267249.034566706512123, 5540181.343784033320844 ], [ 1267249.034566706512123, 5540281.343784033320844 ] ] ] ] } },
{ "type": "Feature", "properties": { "id": 21897, "street_cells": 253.17971135824919, "yard_cells": 4087.3169950855081, "utility": 0.5352859902072673, "num_areas": 1.0 }, "geometry": { "type": "MultiPolygon", "coordinates": [ [ [ [ 1267249.034566706512123, 5540181.343784033320844 ], [ 1267349.034566706512123, 5540181.343784033320844 ], [ 1267349.034566706512123, 5540081.343784033320844 ], [ 1267249.034566706512123, 5540081.343784033320844 ], [ 1267249.034566706512123, 5540181.343784033320844 ] ] ] ] } },
{ "type": "Feature", "properties": { "id": 21898, "street_cells": 496.22067376971239, "yard_cells": 3678.1014554604581, "utility": 0.51572425716196779, "num_areas": 3.0 }, "geometry": { "type": "MultiPolygon", "coordinates": [ [ [ [ 1267249.034566706512123, 5540081.343784033320844 ], [ 1267349.034566706512123, 5540081.343784033320844 ], [ 1267349.034566706512123, 5539981.343784033320844 ], [ 1267249.034566706512123, 5539981.343784033320844 ], [ 1267249.034566706512123, 5540081.343784033320844 ] ] ] ] } },
{ "type": "Feature", "properties": { "id": 21901, "street_cells": 451.28774762153631, "yard_cells": 4348.6233609674673, "utility": 0.65693592754417751, "num_areas": 0.0 }, "geometry": { "type": "MultiPolygon", "coordinates": [ [ [ [ 1267249.034566706512123, 5539781.343784033320844 ], [ 1267349.034566706512123, 5539781.343784033320844 ], [ 1267349.034566706512123, 5539681.343784033320844 ], [ 1267249.034566706512123, 5539681.343784033320844 ], [ 1267249.034566706512123, 5539781.343784033320844 ] ] ] ] } },
{ "type": "Feature", "properties": { "id": 21904, "street_cells": 453.98959315903488, "yard_cells": 4209.1956651906748, "utility": 0.67473186289072085, "num_areas": 0.0 }, "geometry": { "type": "MultiPolygon", "coordinates": [ [ [ [ 1267249.034566706512123, 5539481.343784033320844 ], [ 1267349.034566706512123, 5539481.343784033320844 ], [ 1267349.034566706512123, 5539381.343784033320844 ], [ 1267249.034566706512123, 5539381.343784033320844 ], [ 1267249.034566706512123, 5539481.343784033320844 ] ] ] ] } },
{ "type": "Feature", "properties": { "id": 21905, "street_cells": 709.29557994604113, "yard_cells": 3342.3438205712168, "utility": 0.52607774561624099, "num_areas": 2.0 }, "geometry": { "type": "MultiPolygon", "coordinates": [ [ [ [ 1267249.034566706512123, 5539381.343784033320844 ], [ 1267349.034566706512123, 5539381.343784033320844 ], [ 1267349.034566706512123, 5539281.343784033320844 ], [ 1267249.034566706512123, 5539281.343784033320844 ], [ 1267249.034566706512123, 5539381.343784033320844 ] ] ] ] } },
{ "type": "Feature", "properties": { "id": 21907, "street_cells": 421.37787138968707, "yard_cells": 4340.0818873234093, "utility": 0.69157557378600731, "num_areas": 0.0 }, "geometry": { "type": "MultiPolygon", "coordinates": [ [ [ [ 1267249.034566706512123, 5539181.343784033320844 ], [ 1267349.034566706512123, 5539181.343784033320844 ], [ 1267349.034566706512123, 5539081.343784033320844 ], [ 1267249.034566706512123, 5539081.343784033320844 ], [ 1267249.034566706512123, 5539181.343784033320844 ] ] ] ] } },
{ "type": "Feature", "properties": { "id": 22054, "street_cells": 272.99497469663618, "yard_cells": 3858.933499823926, "utility": 0.46476615654534881, "num_areas": 0.0 }, "geometry": { "type": "MultiPolygon", "coordinates": [ [ [ [ 1267349.034566706512123, 5540381.343784033320844 ], [ 1267449.034566706512123, 5540381.343784033320844 ], [ 1267449.034566706512123, 5540281.343784033320844 ], [ 1267349.034566706512123, 5540281.343784033320844 ], [ 1267349.034566706512123, 5540381.343784033320844 ] ] ] ] } },
{ "type": "Feature", "properties": { "id": 22055, "street_cells": 113.3005024626851, "yard_cells": 4289.0195529467783, "utility": 0.45773261412044369, "num_areas": 3.0 }, "geometry": { "type": "MultiPolygon", "coordinates": [ [ [ [ 1267349.034566706512123, 5540281.343784033320844 ], [ 1267449.034566706512123, 5540281.343784033320844 ], [ 1267449.034566706512123, 5540181.343784033320844 ], [ 1267349.034566706512123, 5540181.343784033320844 ], [ 1267349.034566706512123, 5540281.343784033320844 ] ] ] ] } },
{ "type": "Feature", "properties": { "id": 22063, "street_cells": 425.26516379900278, "yard_cells": 3887.9894546410069, "utility": 0.54736860320790093, "num_areas": 0.0 }, "geometry": { "type": "MultiPolygon", "coordinates": [ [ [ [ 1267349.034566706512123, 5539481.343784033320844 ], [ 1267449.034566706512123, 5539481.343784033320844 ], [ 1267449.034566706512123, 5539381.343784033320844 ], [ 1267349.034566706512123, 5539381.343784033320844 ], [ 1267349.034566706512123, 5539481.343784033320844 ] ] ] ] } },
{ "type": "Feature", "properties": { "id": 22064, "street_cells": 666.64253462478518, "yard_cells": 3691.92152822041, "utility": 0.35391556199722102, "num_areas": 0.0 }, "geometry": { "type": "MultiPolygon", "coordinates": [ [ [ [ 1267349.034566706512123, 5539381.343784033320844 ], [ 1267449.034566706512123, 5539381.343784033320844 ], [ 1267449.034566706512123, 5539281.343784033320844 ], [ 1267349.034566706512123, 5539281.343784033320844 ], [ 1267349.034566706512123, 5539381.343784033320844 ] ] ] ] } },
{ "type": "Feature", "properties": { "id": 22065, "street_cells": 408.67100771069528, "yard_cells": 3806.7190127668991, "utility": 0.58794088254717392, "num_areas": 1.0 }, "geometry": { "type": "MultiPolygon", "coordinates": [ [ [ [ 1267349.034566706512123, 5539281.343784033320844 ], [ 1267449.034566706512123, 5539281.343784033320844 ], [ 1267449.034566706512123, 5539181.343784033320844 ], [ 1267349.034566706512123, 5539181.343784033320844 ], [ 1267349.034566706512123, 5539281.343784033320844 ] ] ] ] } },
{ "type": "Feature", "properties": { "id": 22067, "street_cells": 446.86394782364368, "yard_cells": 3854.063443813357, "utility": 0.57119982505044919, "num_areas": 2.0 }, "geometry": { "type": "MultiPolygon", "coordinates": [ [ [ [ 1267349.034566706512123, 5539081.343784033320844 ], [ 1267449.034566706512123, 5539081.343784033320844 ], [ 1267449.034566706512123, 5538981.343784033320844 ], [ 1267349.034566706512123, 5538981.343784033320844 ], [ 1267349.034566706512123, 5539081.343784033320844 ] ] ] ] } },
{ "type": "Feature", "properties": { "id": 22213, "street_cells": 298.55283889025452, "yard_cells": 4857.340302735538, "utility": 0.64112141571260628, "num_areas": 0.0 }, "geometry": { "type": "MultiPolygon", "coordinates": [ [ [ [ 1267449.034566706512123, 5540381.343784033320844 ], [ 1267549.034566706512123, 5540381.343784033320844 ], [ 1267549.034566706512123, 5540281.343784033320844 ], [ 1267449.034566706512123, 5540281.343784033320844 ], [ 1267449.034566706512123, 5540381.343784033320844 ] ] ] ] } },
{ "type": "Feature", "properties": { "id": 22223, "street_cells": 330.4747556779534, "yard_cells": 3733.5184510171821, "utility": 0.48098881500557977, "num_areas": 0.0 }, "geometry": { "type": "MultiPolygon", "coordinates": [ [ [ [ 1267449.034566706512123, 5539381.343784033320844 ], [ 1267549.034566706512123, 5539381.343784033320844 ], [ 1267549.034566706512123, 5539281.343784033320844 ], [ 1267449.034566706512123, 5539281.343784033320844 ], [ 1267449.034566706512123, 5539381.343784033320844 ] ] ] ] } },
{ "type": "Feature", "properties": { "id": 22224, "street_cells": 350.48629946634168, "yard_cells": 4025.5915629633819, "utility": 0.52660793969634967, "num_areas": 1.0 }, "geometry": { "type": "MultiPolygon", "coordinates": [ [ [ [ 1267449.034566706512123, 5539281.343784033320844 ], [ 1267549.034566706512123, 5539281.343784033320844 ], [ 1267549.034566706512123, 5539181.343784033320844 ], [ 1267449.034566706512123, 5539181.343784033320844 ], [ 1267449.034566706512123, 5539281.343784033320844 ] ] ] ] } },
{ "type": "Feature", "properties": { "id": 22225, "street_cells": 291.13715378623459, "yard_cells": 4391.4821345142554, "utility": 0.65311510050616761, "num_areas": 1.0 }, "geometry": { "type": "MultiPolygon", "coordinates": [ [ [ [ 1267449.034566706512123, 5539181.343784033320844 ], [ 1267549.034566706512123, 5539181.343784033320844 ], [ 1267549.034566706512123, 5539081.343784033320844 ], [ 1267449.034566706512123, 5539081.343784033320844 ], [ 1267449.034566706512123, 5539181.343784033320844 ] ] ] ] } },
{ "type": "Feature", "properties": { "id": 22226, "street_cells": 278.40787494089449, "yard_cells": 4820.1514186765999, "utility": 0.72439497381798423, "num_areas": 0.0 }, "geometry": { "type": "MultiPolygon", "coordinates": [ [ [ [ 1267449.034566706512123, 5539081.343784033320844 ], [ 1267549.034566706512123, 5539081.343784033320844 ], [ 1267549.034566706512123, 5538981.343784033320844 ], [ 1267449.034566706512123, 5538981.343784033320844 ], [ 1267449.034566706512123, 5539081.343784033320844 ] ] ] ] } },
{ "type": "Feature", "properties": { "id": 22227, "street_cells": 155.33455683495851, "yard_cells": 4342.5690067787073, "utility": 0.53932340681358915, "num_areas": 0.0 }, "geometry": { "type": "MultiPolygon", "coordinates": [ [ [ [ 1267449.034566706512123, 5538981.343784033320844 ], [ 1267549.034566706512123, 5538981.343784033320844 ], [ 1267549.034566706512123, 5538881.343784033320844 ], [ 1267449.034566706512123, 5538881.343784033320844 ], [ 1267449.034566706512123, 5538981.343784033320844 ] ] ] ] } },
{ "type": "Feature", "properties": { "id": 22378, "street_cells": 65.754200543463227, "yard_cells": 4127.639596443074, "utility": 0.51133798146402276, "num_areas": 2.0 }, "geometry": { "type": "MultiPolygon", "coordinates": [ [ [ [ 1267549.034566706512123, 5539781.343784033320844 ], [ 1267649.034566706512123, 5539781.343784033320844 ], [ 1267649.034566706512123, 5539681.343784033320844 ], [ 1267549.034566706512123, 5539681.343784033320844 ], [ 1267549.034566706512123, 5539781.343784033320844 ] ] ] ] } },
{ "type": "Feature", "properties": { "id": 22379, "street_cells": 203.87185742631559, "yard_cells": 5131.3929288961881, "utility": 0.56937372438980816, "num_areas": 0.0 }, "geometry": { "type": "MultiPolygon", "coordinates": [ [ [ [ 1267549.034566706512123, 5539681.343784033320844 ], [ 1267649.034566706512123, 5539681.343784033320844 ], [ 1267649.034566706512123, 5539581.343784033320844 ], [ 1267549.034566706512123, 5539581.343784033320844 ], [ 1267549.034566706512123, 5539681.343784033320844 ] ] ] ] } },
{ "type": "Feature", "properties": { "id": 22539, "street_cells": 334.96868642084303, "yard_cells": 4223.6443228544667, "utility": 0.58177254392803135, "num_areas": 0.0 }, "geometry": { "type": "MultiPolygon", "coordinates": [ [ [ [ 1267649.034566706512123, 5539581.343784033320844 ], [ 1267749.034566706512123, 5539581.343784033320844 ], [ 1267749.034566706512123, 5539481.343784033320844 ], [ 1267649.034566706512123, 5539481.343784033320844 ], [ 1267649.034566706512123, 5539581.343784033320844 ] ] ] ] } },
{ "type": "Feature", "properties": { "id": 22540, "street_cells": 55.918485209345818, "yard_cells": 5060.6883068760653, "utility": 0.4926921855273258, "num_areas": 2.0 }, "geometry": { "type": "MultiPolygon", "coordinates": [ [ [ [ 1267649.034566706512123, 5539481.343784033320844 ], [ 1267749.034566706512123, 5539481.343784033320844 ], [ 1267749.034566706512123, 5539381.343784033320844 ], [ 1267649.034566706512123, 5539381.343784033320844 ], [ 1267649.034566706512123, 5539481.343784033320844 ] ] ] ] } },
{ "type": "Feature", "properties": { "id": 22543, "street_cells": 575.11705824080855, "yard_cells": 3656.2804499049671, "utility": 0.52821374523350739, "num_areas": 1.0 }, "geometry": { "type": "MultiPolygon", "coordinates": [ [ [ [ 1267649.034566706512123, 5539181.343784033320844 ], [ 1267749.034566706512123, 5539181.343784033320844 ], [ 1267749.034566706512123, 5539081.343784033320844 ], [ 1267649.034566706512123, 5539081.343784033320844 ], [ 1267649.034566706512123, 5539181.343784033320844 ] ] ] ] } }
]
}
