{
"type": "FeatureCollection",
"name": "higher_green",
"crs": { "type": "name", "properties": { "name": "urn:ogc:def:crs:EPSG::3857" } },
"features": [
{ "type": "Feature", "properties": { "id": 367, "street_cells": 0.0, "yard_cells": 5782.7660910412669, "utility": 0.49196171439986119, "num_areas": 0.0 }, "geometry": { "type": "MultiPolygon", "coordinates": [ [ [ [ 1253749.034566706512123, 5546681.343784033320844 ], [ 1253849.034566706512123, 5546681.343784033320844 ], [ 1253849.034566706512123, 5546581.343784033320844 ], [ 1253749.034566706512123, 5546581.343784033320844 ], [ 1253749.034566706512123, 5546681.343784033320844 ] ] ] ] } },
{ "type": "Feature", "properties": { "id": 1482, "street_cells": 64.389259943366056, "yard_cells": 5716.0411629294977, "utility": 0.45857060323521748, "num_areas": 0.0 }, "geometry": { "type": "MultiPolygon", "coordinates": [ [ [ [ 1254449.034566706512123, 5546481.343784033320844 ], [ 1254549.034566706512123, 5546481.343784033320844 ], [ 1254549.034566706512123, 5546381.343784033320844 ], [ 1254449.034566706512123, 5546381.343784033320844 ], [ 1254449.034566706512123, 5546481.343784033320844 ] ] ] ] } },
{ "type": "Feature", "properties": { "id": 1800, "street_cells": 129.0536619782448, "yard_cells": 5281.5100617059506, "utility": 0.42756831638662501, "num_areas": 0.0 }, "geometry": { "type": "MultiPolygon", "coordinates": [ [ [ [ 1254649.034566706512123, 5546481.343784033320844 ], [ 1254749.034566706512123, 5546481.343784033320844 ], [ 1254749.034566706512123, 5546381.343784033320844 ], [ 1254649.034566706512123, 5546381.343784033320844 ], [ 1254649.034566706512123, 5546481.343784033320844 ] ] ] ] } },
{ "type": "Feature", "properties": { "id": 3106, "street_cells": 122.5628733821213, "yard_cells": 8073.2486254048999, "utility": 0.47693724589793529, "num_areas": 0.0 }, "geometry": { "type": "MultiPolygon", "coordinates": [ [ [ [ 1255449.034566706512123, 5543081.343784033320844 ], [ 1255549.034566706512123, 5543081.343784033320844 ], [ 1255549.034566706512123, 5542981.343784033320844 ], [ 1255449.034566706512123, 5542981.343784033320844 ], [ 1255449.034566706512123, 5543081.343784033320844 ] ] ] ] } },
{ "type": "Feature", "properties": { "id": 6272, "street_cells": 66.39607778079808, "yard_cells": 5672.5514054759406, "utility": 0.50133412017146595, "num_areas": 0.0 }, "geometry": { "type": "MultiPolygon", "coordinates": [ [ [ [ 1257449.034566706512123, 5544481.343784033320844 ], [ 1257549.034566706512123, 5544481.343784033320844 ], [ 1257549.034566706512123, 5544381.343784033320844 ], [ 1257449.034566706512123, 5544381.343784033320844 ], [ 1257449.034566706512123, 5544481.343784033320844 ] ] ] ] } },
{ "type": "Feature", "properties": { "id": 7871, "street_cells": 157.34959699511529, "yard_cells": 5169.4527223864015, "utility": 0.4859787712637898, "num_areas": 0.0 }, "geometry": { "type": "MultiPolygon", "coordinates": [ [ [ [ 1258449.034566706512123, 5543581.343784033320844 ], [ 1258549.034566706512123, 5543581.343784033320844 ], [ 1258549.034566706512123, 5543481.343784033320844 ], [ 1258449.034566706512123, 5543481.343784033320844 ], [ 1258449.034566706512123, 5543581.343784033320844 ] ] ] ] } },
{ "type": "Feature", "properties": { "id": 7892, "street_cells": 111.74546915441751, "yard_cells": 6067.0369234175341, "utility": 0.32911357315801659, "num_areas": 0.0 }, "geometry": { "type": "MultiPolygon", "coordinates": [ [ [ [ 1258449.034566706512123, 5541481.343784033320844 ], [ 1258549.034566706512123, 5541481.343784033320844 ], [ 1258549.034566706512123, 5541381.343784033320844 ], [ 1258449.034566706512123, 5541381.343784033320844 ], [ 1258449.034566706512123, 5541481.343784033320844 ] ] ] ] } },
{ "type": "Feature", "properties": { "id": 8051, "street_cells": 0.0, "yard_cells": 8539.2132212691722, "utility": 0.55060885271953153, "num_areas": 1.0 }, "geometry": { "type": "MultiPolygon", "coordinates": [ [ [ [ 1258549.034566706512123, 5541481.343784033320844 ], [ 1258649.034566706512123, 5541481.343784033320844 ], [ 1258649.034566706512123, 5541381.343784033320844 ], [ 1258549.034566706512123, 5541381.343784033320844 ], [ 1258549.034566706512123, 5541481.343784033320844 ] ] ] ] } },
{ "type": "Feature", "properties": { "id": 8508, "street_cells": 287.39793595746158, "yard_cells": 4503.6567931322788, "utility": 0.53575349085588264, "num_areas": 1.0 }, "geometry": { "type": "MultiPolygon", "coordinates": [ [ [ [ 1258849.034566706512123, 5543481.343784033320844 ], [ 1258949.034566706512123, 5543481.343784033320844 ], [ 1258949.034566706512123, 5543381.343784033320844 ], [ 1258849.034566706512123, 5543381.343784033320844 ], [ 1258849.034566706512123, 5543481.343784033320844 ] ] ] ] } },
{ "type": "Feature", "properties": { "id": 8826, "street_cells": 188.47162948250769, "yard_cells": 4486.1574629948773, "utility": 0.55249037263019318, "num_areas": 0.0 }, "geometry": { "type": "MultiPolygon", "coordinates": [ [ [ [ 1259049.034566706512123, 5543481.343784033320844 ], [ 1259149.034566706512123, 5543481.343784033320844 ], [ 1259149.034566706512123, 5543381.343784033320844 ], [ 1259049.034566706512123, 5543381.343784033320844 ], [ 1259049.034566706512123, 5543481.343784033320844 ] ] ] ] } },
{ "type": "Feature", "properties": { "id": 9000, "street_cells": 431.42663938472981, "yard_cells": 4995.3746715120642, "utility": 0.48090369907467279, "num_areas": 0.0 }, "geometry": { "type": "MultiPolygon", "coordinates": [ [ [ [ 1259149.034566706512123, 5541981.343784033320844 ], [ 1259249.034566706512123, 5541981.343784033320844 ], [ 1259249.034566706512123, 5541881.343784033320844 ], [ 1259149.034566706512123, 5541881.343784033320844 ], [ 1259149.034566706512123, 5541981.343784033320844 ] ] ] ] } },
{ "type": "Feature", "properties": { "id": 9314, "street_cells": 256.3281202796847, "yard_cells": 4613.0571067452111, "utility": 0.47125944443769457, "num_areas": 1.0 }, "geometry": { "type": "MultiPolygon", "coordinates": [ [ [ [ 1259349.034566706512123, 5542381.343784033320844 ], [ 1259449.034566706512123, 5542381.343784033320844 ], [ 1259449.034566706512123, 5542281.343784033320844 ], [ 1259349.034566706512123, 5542281.343784033320844 ], [ 1259349.034566706512123, 5542381.343784033320844 ] ] ] ] } },
{ "type": "Feature", "properties": { "id": 9741, "street_cells": 2.3759009083732958, "yard_cells": 4828.3026421926916, "utility": 0.31569894528097397, "num_areas": 4.0 }, "geometry": { "type": "MultiPolygon", "coordinates": [ [ [ [ 1259649.278317219344899, 5547362.869409847073257 ], [ 1259670.590352218830958, 5547375.012775938026607 ], [ 1259681.98935675015673, 5547381.343784033320844 ], [ 1259749.034566706512123, 5547381.343784033320844 ], [ 1259749.034566706512123, 5547281.343784033320844 ], [ 1259649.034566706512123, 5547281.343784033320844 ], [ 1259649.034566706512123, 5547362.725936091504991 ], [ 1259649.278317219344899, 5547362.869409847073257 ] ] ] ] } },
{ "type": "Feature", "properties": { "id": 9789, "street_cells": 391.16730992421509, "yard_cells": 4313.6058061392296, "utility": 0.58456962236497989, "num_areas": 2.0 }, "geometry": { "type": "MultiPolygon", "coordinates": [ [ [ [ 1259649.034566706512123, 5542581.343784033320844 ], [ 1259749.034566706512123, 5542581.343784033320844 ], [ 1259749.034566706512123, 5542481.343784033320844 ], [ 1259649.034566706512123, 5542481.343784033320844 ], [ 1259649.034566706512123, 5542581.343784033320844 ] ] ] ] } },
{ "type": "Feature", "properties": { "id": 10276, "street_cells": 208.80996038094159, "yard_cells": 4386.9847510553427, "utility": 0.55822928849235254, "num_areas": 0.0 }, "geometry": { "type": "MultiPolygon", "coordinates": [ [ [ [ 1259949.034566706512123, 5541581.343784033320844 ], [ 1260049.034566706512123, 5541581.343784033320844 ], [ 1260049.034566706512123, 5541481.343784033320844 ], [ 1259949.034566706512123, 5541481.343784033320844 ], [ 1259949.034566706512123, 5541581.343784033320844 ] ] ] ] } },
{ "type": "Feature", "properties": { "id": 11685, "street_cells": 2.036853720992803, "yard_cells": 5633.6687829079747, "utility": 0.51466646090743862, "num_areas": 0.0 }, "geometry": { "type": "MultiPolygon", "coordinates": [ [ [ [ 1260849.034566706512123, 5543781.343784033320844 ], [ 1260949.034566706512123, 5543781.343784033320844 ], [ 1260949.034566706512123, 5543681.343784033320844 ], [ 1260849.034566706512123, 5543681.343784033320844 ], [ 1260849.034566706512123, 5543781.343784033320844 ] ] ] ] } },
{ "type": "Feature", "properties": { "id": 11844, "street_cells": 347.95987847559161, "yard_cells": 4269.6775070820004, "utility": 0.52558763250846452, "num_areas": 0.0 }, "geometry": { "type": "MultiPolygon", "coordinates": [ [ [ [ 1260949.034566706512123, 5543781.343784033320844 ], [ 1261049.034566706512123, 5543781.343784033320844 ], [ 1261049.034566706512123, 5543681.343784033320844 ], [ 1260949.034566706512123, 5543681.343784033320844 ], [ 1260949.034566706512123, 5543781.343784033320844 ] ] ] ] } },
{ "type": "Feature", "properties": { "id": 12001, "street_cells": 392.80244411304602, "yard_cells": 5050.6882660991287, "utility": 0.60778285697746515, "num_areas": 1.0 }, "geometry": { "type": "MultiPolygon", "coordinates": [ [ [ [ 1261049.034566706512123, 5543981.343784033320844 ], [ 1261149.034566706512123, 5543981.343784033320844 ], [ 1261149.034566706512123, 5543881.343784033320844 ], [ 1261049.034566706512123, 5543881.343784033320844 ], [ 1261049.034566706512123, 5543981.343784033320844 ] ] ] ] } },
{ "type": "Feature", "properties": { "id": 12003, "street_cells": 759.04115792363882, "yard_cells": 3041.1096184495882, "utility": 0.30826575022965069, "num_areas": 0.0 }, "geometry": { "type": "MultiPolygon", "coordinates": [ [ [ [ 1261049.034566706512123, 5543781.343784033320844 ], [ 1261149.034566706512123, 5543781.343784033320844 ], [ 1261149.034566706512123, 5543681.343784033320844 ], [ 1261049.034566706512123, 5543681.343784033320844 ], [ 1261049.034566706512123, 5543781.343784033320844 ] ] ] ] } },
{ "type": "Feature", "properties": { "id": 12162, "street_cells": 419.77845451235771, "yard_cells": 3881.0877916839531, "utility": 0.5405166994084265, "num_areas": 1.0 }, "geometry": { "type": "MultiPolygon", "coordinates": [ [ [ [ 1261149.034566706512123, 5543781.343784033320844 ], [ 1261249.034566706512123, 5543781.343784033320844 ], [ 1261249.034566706512123, 5543681.343784033320844 ], [ 1261149.034566706512123, 5543681.343784033320844 ], [ 1261149.034566706512123, 5543781.343784033320844 ] ] ] ] } },
{ "type": "Feature", "properties": { "id": 12320, "street_cells": 354.16615974009039, "yard_cells": 4503.7011026973187, "utility": 0.56992357752955813, "num_areas": 3.0 }, "geometry": { "type": "MultiPolygon", "coordinates": [ [ [ [ 1261249.034566706512123, 5543881.343784033320844 ], [ 1261349.034566706512123, 5543881.343784033320844 ], [ 1261349.034566706512123, 5543781.343784033320844 ], [ 1261249.034566706512123, 5543781.343784033320844 ], [ 1261249.034566706512123, 5543881.343784033320844 ] ] ] ] } },
{ "type": "Feature", "properties": { "id": 12329, "street_cells": 3.8338204316794871, "yard_cells": 4379.2317712325603, "utility": 0.62787226966754928, "num_areas": 3.0 }, "geometry": { "type": "MultiPolygon", "coordinates": [ [ [ [ 1261249.034566706512123, 5542981.343784033320844 ], [ 1261349.034566706512123, 5542981.343784033320844 ], [ 1261349.034566706512123, 5542881.343784033320844 ], [ 1261249.034566706512123, 5542881.343784033320844 ], [ 1261249.034566706512123, 5542981.343784033320844 ] ] ] ] } },
{ "type": "Feature", "properties": { "id": 12481, "street_cells": 122.9919250566512, "yard_cells": 4127.0297242860543, "utility": 0.36540478031402118, "num_areas": 3.0 }, "geometry": { "type": "MultiPolygon", "coordinates": [ [ [ [ 1261349.034566706512123, 5543681.343784033320844 ], [ 1261449.034566706512123, 5543681.343784033320844 ], [ 1261449.034566706512123, 5543581.343784033320844 ], [ 1261349.034566706512123, 5543581.343784033320844 ], [ 1261349.034566706512123, 5543681.343784033320844 ] ] ] ] } },
{ "type": "Feature", "properties": { "id": 13116, "street_cells": 398.82238749414682, "yard_cells": 4106.5190786896892, "utility": 0.47836129223280999, "num_areas": 0.0 }, "geometry": { "type": "MultiPolygon", "coordinates": [ [ [ [ 1261749.034566706512123, 5543781.343784033320844 ], [ 1261849.034566706512123, 5543781.343784033320844 ], [ 1261849.034566706512123, 5543681.343784033320844 ], [ 1261749.034566706512123, 5543681.343784033320844 ], [ 1261749.034566706512123, 5543781.343784033320844 ] ] ] ] } },
{ "type": "Feature", "properties": { "id": 13756, "street_cells": 0.0, "yard_cells": 4889.2083321157843, "utility": 0.39257647138941998, "num_areas": 0.0 }, "geometry": { "type": "MultiPolygon", "coordinates": [ [ [ [ 1262149.034566706512123, 5543381.343784033320844 ], [ 1262249.034566706512123, 5543381.343784033320844 ], [ 1262249.034566706512123, 5543281.343784033320844 ], [ 1262149.034566706512123, 5543281.343784033320844 ], [ 1262149.034566706512123, 5543381.343784033320844 ] ] ] ] } },
{ "type": "Feature", "properties": { "id": 14054, "street_cells": 0.0, "yard_cells": 6351.1158476867713, "utility": 0.62273892333184677, "num_areas": 0.0 }, "geometry": { "type": "MultiPolygon", "coordinates": [ [ [ [ 1262349.034566706512123, 5545381.343784033320844 ], [ 1262449.034566706512123, 5545381.343784033320844 ], [ 1262449.034566706512123, 5545281.343784033320844 ], [ 1262349.034566706512123, 5545281.343784033320844 ], [ 1262349.034566706512123, 5545381.343784033320844 ] ] ] ] } },
{ "type": "Feature", "properties": { "id": 14074, "street_cells": 593.63346499651675, "yard_cells": 3467.7677734454319, "utility": 0.56682788633304793, "num_areas": 2.0 }, "geometry": { "type": "MultiPolygon", "coordinates": [ [ [ [ 1262349.034566706512123, 5543381.343784033320844 ], [ 1262449.034566706512123, 5543381.343784033320844 ], [ 1262449.034566706512123, 5543281.343784033320844 ], [ 1262349.034566706512123, 5543281.343784033320844 ], [ 1262349.034566706512123, 5543381.343784033320844 ] ] ] ] } },
{ "type": "Feature", "properties": { "id": 14233, "street_cells": 360.0273892251775, "yard_cells": 4623.4276258559621, "utility": 0.62248475026681804, "num_areas": 1.0 }, "geometry": { "type": "MultiPolygon", "coordinates": [ [ [ [ 1262449.034566706512123, 5543381.343784033320844 ], [ 1262549.034566706512123, 5543381.343784033320844 ], [ 1262549.034566706512123, 5543281.343784033320844 ], [ 1262449.034566706512123, 5543281.343784033320844 ], [ 1262449.034566706512123, 5543381.343784033320844 ] ] ] ] } },
{ "type": "Feature", "properties": { "id": 14857, "street_cells": 570.48591197729115, "yard_cells": 3748.1983831426251, "utility": 0.26329601370628908, "num_areas": 0.0 }, "geometry": { "type": "MultiPolygon", "coordinates": [ [ [ [ 1262849.034566706512123, 5544581.343784033320844 ], [ 1262949.034566706512123, 5544581.343784033320844 ], [ 1262949.034566706512123, 5544481.343784033320844 ], [ 1262849.034566706512123, 5544481.343784033320844 ], [ 1262849.034566706512123, 5544581.343784033320844 ] ] ] ] } },
{ "type": "Feature", "properties": { "id": 15374, "street_cells": 0.0, "yard_cells": 4411.8330925637201, "utility": 0.1900509175106472, "num_areas": 4.0 }, "geometry": { "type": "MultiPolygon", "coordinates": [ [ [ [ 1263149.034566706512123, 5540581.343784033320844 ], [ 1263249.034566706512123, 5540581.343784033320844 ], [ 1263249.034566706512123, 5540481.343784033320844 ], [ 1263149.034566706512123, 5540481.343784033320844 ], [ 1263149.034566706512123, 5540581.343784033320844 ] ] ] ] } },
{ "type": "Feature", "properties": { "id": 15481, "street_cells": 298.77835048213598, "yard_cells": 4645.3295534255703, "utility": 0.58260084901681575, "num_areas": 1.0 }, "geometry": { "type": "MultiPolygon", "coordinates": [ [ [ [ 1263249.034566706512123, 5545781.343784033320844 ], [ 1263349.034566706512123, 5545781.343784033320844 ], [ 1263349.034566706512123, 5545681.343784033320844 ], [ 1263249.034566706512123, 5545681.343784033320844 ], [ 1263249.034566706512123, 5545781.343784033320844 ] ] ] ] } },
{ "type": "Feature", "properties": { "id": 15483, "street_cells": 0.0, "yard_cells": 5924.8242503711954, "utility": 0.67963022529647998, "num_areas": 0.0 }, "geometry": { "type": "MultiPolygon", "coordinates": [ [ [ [ 1263249.034566706512123, 5545581.343784033320844 ], [ 1263349.034566706512123, 5545581.343784033320844 ], [ 1263349.034566706512123, 5545481.343784033320844 ], [ 1263249.034566706512123, 5545481.343784033320844 ], [ 1263249.034566706512123, 5545581.343784033320844 ] ] ] ] } },
{ "type": "Feature", "properties": { "id": 15491, "street_cells": 44.849999828822916, "yard_cells": 5033.011056731455, "utility": 0.47893361795420131, "num_areas": 1.0 }, "geometry": { "type": "MultiPolygon", "coordinates": [ [ [ [ 1263249.034566706512123, 5544781.343784033320844 ], [ 1263349.034566706512123, 5544781.343784033320844 ], [ 1263349.034566706512123, 5544681.343784033320844 ], [ 1263249.034566706512123, 5544681.343784033320844 ], [ 1263249.034566706512123, 5544781.343784033320844 ] ] ] ] } },
{ "type": "Feature", "properties": { "id": 15640, "street_cells": 285.08639860264958, "yard_cells": 5241.3123961271558, "utility": 0.57610774736090176, "num_areas": 1.0 }, "geometry": { "type": "MultiPolygon", "coordinates": [ [ [ [ 1263349.034566706512123, 5545781.343784033320844 ], [ 1263449.034566706512123, 5545781.343784033320844 ], [ 1263449.034566706512123, 5545681.343784033320844 ], [ 1263349.034566706512123, 5545681.343784033320844 ], [ 1263349.034566706512123, 5545781.343784033320844 ] ] ] ] } },
{ "type": "Feature", "properties": { "id": 15978, "street_cells": 0.0, "yard_cells": 5603.4457935541868, "utility": 0.67431636188273281, "num_areas": 0.0 }, "geometry": { "type": "MultiPolygon", "coordinates": [ [ [ [ 1263549.034566706512123, 5543781.343784033320844 ], [ 1263649.034566706512123, 5543781.343784033320844 ], [ 1263649.034566706512123, 5543681.343784033320844 ], [ 1263549.034566706512123, 5543681.343784033320844 ], [ 1263549.034566706512123, 5543781.343784033320844 ] ] ] ] } },
{ "type": "Feature", "properties": { "id": 15979, "street_cells": 732.15261323191226, "yard_cells": 5187.4791655037552, "utility": 0.44675234846560669, "num_areas": 1.0 }, "geometry": { "type": "MultiPolygon", "coordinates": [ [ [ [ 1263549.034566706512123, 5543681.343784033320844 ], [ 1263649.034566706512123, 5543681.343784033320844 ], [ 1263649.034566706512123, 5543581.343784033320844 ], [ 1263549.034566706512123, 5543581.343784033320844 ], [ 1263549.034566706512123, 5543681.343784033320844 ] ] ] ] } },
{ "type": "Feature", "properties": { "id": 16076, "street_cells": 81.390625358233237, "yard_cells": 6086.9394750226056, "utility": 0.45377019089414289, "num_areas": 0.0 }, "geometry": { "type": "MultiPolygon", "coordinates": [ [ [ [ 1263649.034566706512123, 5549881.343784033320844 ], [ 1263749.034566706512123, 5549881.343784033320844 ], [ 1263749.034566706512123, 5549781.343784033320844 ], [ 1263649.034566706512123, 5549781.343784033320844 ], [ 1263649.034566706512123, 5549881.343784033320844 ] ] ] ] } },
{ "type": "Feature", "properties": { "id": 16095, "street_cells": 613.2055448234081, "yard_cells": 4613.9539346420206, "utility": 0.49192888643107219, "num_areas": 0.0 }, "geometry": { "type": "MultiPolygon", "coordinates": [ [ [ [ 1263649.034566706512123, 5547981.343784033320844 ], [ 1263749.034566706512123, 5547981.343784033320844 ], [ 1263749.034566706512123, 5547881.343784033320844 ], [ 1263649.034566706512123, 5547881.343784033320844 ], [ 1263649.034566706512123, 5547981.343784033320844 ] ] ] ] } },
{ "type": "Feature", "properties": { "id": 16137, "street_cells": 168.62465070784091, "yard_cells": 4610.8284833878861, "utility": 0.62144662453200183, "num_areas": 0.0 }, "geometry": { "type": "MultiPolygon", "coordinates": [ [ [ [ 1263649.034566706512123, 5543781.343784033320844 ], [ 1263749.034566706512123, 5543781.343784033320844 ], [ 1263749.034566706512123, 5543681.343784033320844 ], [ 1263649.034566706512123, 5543681.343784033320844 ], [ 1263649.034566706512123, 5543781.343784033320844 ] ] ] ] } },
{ "type": "Feature", "properties": { "id": 16271, "street_cells": 98.362333324551585, "yard_cells": 6106.6756988475099, "utility": 0.57202957771157348, "num_areas": 0.0 }, "geometry": { "type": "MultiPolygon", "coordinates": [ [ [ [ 1263749.034566706512123, 5546281.343784033320844 ], [ 1263849.034566706512123, 5546281.343784033320844 ], [ 1263849.034566706512123, 5546181.343784033320844 ], [ 1263749.034566706512123, 5546181.343784033320844 ], [ 1263749.034566706512123, 5546281.343784033320844 ] ] ] ] } },
{ "type": "Feature", "properties": { "id": 16274, "street_cells": 385.83039495199921, "yard_cells": 4784.0205503366888, "utility": 0.62319728702123345, "num_areas": 0.0 }, "geometry": { "type": "MultiPolygon", "coordinates": [ [ [ [ 1263749.034566706512123, 5545981.343784033320844 ], [ 1263849.034566706512123, 5545981.343784033320844 ], [ 1263849.034566706512123, 5545881.343784033320844 ], [ 1263749.034566706512123, 5545881.343784033320844 ], [ 1263749.034566706512123, 5545981.343784033320844 ] ] ] ] } },
{ "type": "Feature", "properties": { "id": 16297, "street_cells": 452.18508128970859, "yard_cells": 3827.014547279105, "utility": 0.5953923847664343, "num_areas": 0.0 }, "geometry": { "type": "MultiPolygon", "coordinates": [ [ [ [ 1263749.034566706512123, 5543681.343784033320844 ], [ 1263849.034566706512123, 5543681.343784033320844 ], [ 1263849.034566706512123, 5543581.343784033320844 ], [ 1263749.034566706512123, 5543581.343784033320844 ], [ 1263749.034566706512123, 5543681.343784033320844 ] ] ] ] } },
{ "type": "Feature", "properties": { "id": 16300, "street_cells": 0.0, "yard_cells": 5292.0143771898001, "utility": 0.65813700584951795, "num_areas": 0.0 }, "geometry": { "type": "MultiPolygon", "coordinates": [ [ [ [ 1263749.034566706512123, 5543381.343784033320844 ], [ 1263849.034566706512123, 5543381.343784033320844 ], [ 1263849.034566706512123, 5543281.343784033320844 ], [ 1263749.034566706512123, 5543281.343784033320844 ], [ 1263749.034566706512123, 5543381.343784033320844 ] ] ] ] } },
{ "type": "Feature", "properties": { "id": 16446, "street_cells": 258.4470125362277, "yard_cells": 4984.0696221873332, "utility": 0.55187392570914806, "num_areas": 0.0 }, "geometry": { "type": "MultiPolygon", "coordinates": [ [ [ [ 1263849.034566706512123, 5544681.343784033320844 ], [ 1263949.034566706512123, 5544681.343784033320844 ], [ 1263949.034566706512123, 5544581.343784033320844 ], [ 1263849.034566706512123, 5544581.343784033320844 ], [ 1263849.034566706512123, 5544681.343784033320844 ] ] ] ] } },
{ "type": "Feature", "properties": { "id": 16927, "street_cells": 64.424480557069188, "yard_cells": 5267.9026477793632, "utility": 0.50521758043266529, "num_areas": 1.0 }, "geometry": { "type": "MultiPolygon", "coordinates": [ [ [ [ 1264149.034566706512123, 5544281.343784033320844 ], [ 1264249.034566706512123, 5544281.343784033320844 ], [ 1264249.034566706512123, 5544181.343784033320844 ], [ 1264149.034566706512123, 5544181.343784033320844 ], [ 1264149.034566706512123, 5544281.343784033320844 ] ] ] ] } },
{ "type": "Feature", "properties": { "id": 16960, "street_cells": 177.73869694918389, "yard_cells": 4147.2311960207198, "utility": 0.4063936735019219, "num_areas": 3.0 }, "geometry": { "type": "MultiPolygon", "coordinates": [ [ [ [ 1264149.034566706512123, 5540981.343784033320844 ], [ 1264249.034566706512123, 5540981.343784033320844 ], [ 1264249.034566706512123, 5540881.343784033320844 ], [ 1264149.034566706512123, 5540881.343784033320844 ], [ 1264149.034566706512123, 5540981.343784033320844 ] ] ] ] } },
{ "type": "Feature", "properties": { "id": 17271, "street_cells": 35.072863122820863, "yard_cells": 4706.3682964080936, "utility": 0.54029355476898699, "num_areas": 0.0 }, "geometry": { "type": "MultiPolygon", "coordinates": [ [ [ [ 1264349.034566706512123, 5541681.343784033320844 ], [ 1264449.034566706512123, 5541681.343784033320844 ], [ 1264449.034566706512123, 5541581.343784033320844 ], [ 1264349.034566706512123, 5541581.343784033320844 ], [ 1264349.034566706512123, 5541681.343784033320844 ] ] ] ] } },
{ "type": "Feature", "properties": { "id": 17273, "street_cells": 124.1405847387388, "yard_cells": 4561.3770033074543, "utility": 0.54426381280901803, "num_areas": 1.0 }, "geometry": { "type": "MultiPolygon", "coordinates": [ [ [ [ 1264349.034566706512123, 5541481.343784033320844 ], [ 1264449.034566706512123, 5541481.343784033320844 ], [ 1264449.034566706512123, 5541381.343784033320844 ], [ 1264349.034566706512123, 5541381.343784033320844 ], [ 1264349.034566706512123, 5541481.343784033320844 ] ] ] ] } },
{ "type": "Feature", "properties": { "id": 17443, "street_cells": 263.00399567112328, "yard_cells": 4536.965744198038, "utility": 0.42489494005573453, "num_areas": 4.0 }, "geometry": { "type": "MultiPolygon", "coordinates": [ [ [ [ 1264449.034566706512123, 5540381.343784033320844 ], [ 1264549.034566706512123, 5540381.343784033320844 ], [ 1264549.034566706512123, 5540281.343784033320844 ], [ 1264449.034566706512123, 5540281.343784033320844 ], [ 1264449.034566706512123, 5540381.343784033320844 ] ] ] ] } },
{ "type": "Feature", "properties": { "id": 17578, "street_cells": 325.40485727488999, "yard_cells": 5177.8352869767696, "utility": 0.55143367989778436, "num_areas": 0.0 }, "geometry": { "type": "MultiPolygon", "coordinates": [ [ [ [ 1264549.034566706512123, 5542781.343784033320844 ], [ 1264649.034566706512123, 5542781.343784033320844 ], [ 1264649.034566706512123, 5542681.343784033320844 ], [ 1264549.034566706512123, 5542681.343784033320844 ], [ 1264549.034566706512123, 5542781.343784033320844 ] ] ] ] } },
{ "type": "Feature", "properties": { "id": 17579, "street_cells": 330.58272062242031, "yard_cells": 4546.7304986678064, "utility": 0.47410085011255609, "num_areas": 0.0 }, "geometry": { "type": "MultiPolygon", "coordinates": [ [ [ [ 1264549.034566706512123, 5542681.343784033320844 ], [ 1264649.034566706512123, 5542681.343784033320844 ], [ 1264649.034566706512123, 5542581.343784033320844 ], [ 1264549.034566706512123, 5542581.343784033320844 ], [ 1264549.034566706512123, 5542681.343784033320844 ] ] ] ] } },
{ "type": "Feature", "properties": { "id": 17603, "street_cells": 223.00733301751319, "yard_cells": 4603.2134669937514, "utility": 0.4899064973472026, "num_areas": 2.0 }, "geometry": { "type": "MultiPolygon", "coordinates": [ [ [ [ 1264549.034566706512123, 5540281.343784033320844 ], [ 1264649.034566706512123, 5540281.343784033320844 ], [ 1264649.034566706512123, 5540181.343784033320844 ], [ 1264549.034566706512123, 5540181.343784033320844 ], [ 1264549.034566706512123, 5540281.343784033320844 ] ] ] ] } },
{ "type": "Feature", "properties": { "id": 18695, "street_cells": 465.62038497924812, "yard_cells": 4309.4751863821884, "utility": 0.2536401351991831, "num_areas": 3.0 }, "geometry": { "type": "MultiPolygon", "coordinates": [ [ [ [ 1265249.034566706512123, 5542381.343784033320844 ], [ 1265349.034566706512123, 5542381.343784033320844 ], [ 1265349.034566706512123, 5542281.343784033320844 ], [ 1265249.034566706512123, 5542281.343784033320844 ], [ 1265249.034566706512123, 5542381.343784033320844 ] ] ] ] } },
{ "type": "Feature", "properties": { "id": 18719, "street_cells": 338.83074579909447, "yard_cells": 4458.0530433314416, "utility": 0.35178437739472512, "num_areas": 0.0 }, "geometry": { "type": "MultiPolygon", "coordinates": [ [ [ [ 1265249.034566706512123, 5539981.343784033320844 ], [ 1265349.034566706512123, 5539981.343784033320844 ], [ 1265349.034566706512123, 5539881.343784033320844 ], [ 1265249.034566706512123, 5539881.343784033320844 ], [ 1265249.034566706512123, 5539981.343784033320844 ] ] ] ] } },
{ "type": "Feature", "properties": { "id": 18866, "street_cells": 308.37482752650982, "yard_cells": 4292.2625441189293, "utility": 0.29325652596687102, "num_areas": 1.0 }, "geometry": { "type": "MultiPolygon", "coordinates": [ [ [ [ 1265349.034566706512123, 5541181.343784033320844 ], [ 1265449.034566706512123, 5541181.343784033320844 ], [ 1265449.034566706512123, 5541081.343784033320844 ], [ 1265349.034566706512123, 5541081.343784033320844 ], [ 1265349.034566706512123, 5541181.343784033320844 ] ] ] ] } },
{ "type": "Feature", "properties": { "id": 19183, "street_cells": 384.95627371072771, "yard_cells": 4205.2807213752531, "utility": 0.35967909745794691, "num_areas": 3.0 }, "geometry": { "type": "MultiPolygon", "coordinates": [ [ [ [ 1265549.034566706512123, 5541281.343784033320844 ], [ 1265649.034566706512123, 5541281.343784033320844 ], [ 1265649.034566706512123, 5541181.343784033320844 ], [ 1265549.034566706512123, 5541181.343784033320844 ], [ 1265549.034566706512123, 5541281.343784033320844 ] ] ] ] } },
{ "type": "Feature", "properties": { "id": 19184, "street_cells": 239.66862864196301, "yard_cells": 5304.0008095055819, "utility": 0.39265075231617291, "num_areas": 0.0 }, "geometry": { "type": "MultiPolygon", "coordinates": [ [ [ [ 1265549.034566706512123, 5541181.343784033320844 ], [ 1265649.034566706512123, 5541181.343784033320844 ], [ 1265649.034566706512123, 5541081.343784033320844 ], [ 1265549.034566706512123, 5541081.343784033320844 ], [ 1265549.034566706512123, 5541181.343784033320844 ] ] ] ] } },
{ "type": "Feature", "properties": { "id": 19342, "street_cells": 416.8173429563642, "yard_cells": 4113.2309594584476, "utility": 0.43780994778797999, "num_areas": 1.0 }, "geometry": { "type": "MultiPolygon", "coordinates": [ [ [ [ 1265649.034566706512123, 5541281.343784033320844 ], [ 1265749.034566706512123, 5541281.343784033320844 ], [ 1265749.034566706512123, 5541181.343784033320844 ], [ 1265649.034566706512123, 5541181.343784033320844 ], [ 1265649.034566706512123, 5541281.343784033320844 ] ] ] ] } },
{ "type": "Feature", "properties": { "id": 19344, "street_cells": 656.19136979281905, "yard_cells": 3830.1756785316388, "utility": 0.4125524515602213, "num_areas": 0.0 }, "geometry": { "type": "MultiPolygon", "coordinates": [ [ [ [ 1265649.034566706512123, 5541081.343784033320844 ], [ 1265749.034566706512123, 5541081.343784033320844 ], [ 1265749.034566706512123, 5540981.343784033320844 ], [ 1265649.034566706512123, 5540981.343784033320844 ], [ 1265649.034566706512123, 5541081.343784033320844 ] ] ] ] } },
{ "type": "Feature", "properties": { "id": 19345, "street_cells": 83.43431467264891, "yard_cells": 4805.7986906468868, "utility": 0.63479143886394851, "num_areas": 0.0 }, "geometry": { "type": "MultiPolygon", "coordinates": [ [ [ [ 1265649.034566706512123, 5540981.343784033320844 ], [ 1265749.034566706512123, 5540981.343784033320844 ], [ 1265749.034566706512123, 5540881.343784033320844 ], [ 1265649.034566706512123, 5540881.343784033320844 ], [ 1265649.034566706512123, 5540981.343784033320844 ] ] ] ] } },
{ "type": "Feature", "properties": { "id": 19498, "street_cells": 2.689874032139778, "yard_cells": 6047.263721998781, "utility": 0.61840130932142579, "num_areas": 0.0 }, "geometry": { "type": "MultiPolygon", "coordinates": [ [ [ [ 1265749.034566706512123, 5541581.343784033320844 ], [ 1265849.034566706512123, 5541581.343784033320844 ], [ 1265849.034566706512123, 5541481.343784033320844 ], [ 1265749.034566706512123, 5541481.343784033320844 ], [ 1265749.034566706512123, 5541581.343784033320844 ] ] ] ] } },
{ "type": "Feature", "properties": { "id": 19504, "street_cells": 0.0, "yard_cells": 6084.0324303353718, "utility": 0.68215551262993723, "num_areas": 0.0 }, "geometry": { "type": "MultiPolygon", "coordinates": [ [ [ [ 1265749.034566706512123, 5540981.343784033320844 ], [ 1265849.034566706512123, 5540981.343784033320844 ], [ 1265849.034566706512123, 5540881.343784033320844 ], [ 1265749.034566706512123, 5540881.343784033320844 ], [ 1265749.034566706512123, 5540981.343784033320844 ] ] ] ] } },
{ "type": "Feature", "properties": { "id": 19631, "street_cells": 203.9871448593214, "yard_cells": 5030.8634181814268, "utility": 0.52409269868246078, "num_areas": 0.0 }, "geometry": { "type": "MultiPolygon", "coordinates": [ [ [ [ 1265849.034566706512123, 5544181.343784033320844 ], [ 1265949.034566706512123, 5544181.343784033320844 ], [ 1265949.034566706512123, 5544081.343784033320844 ], [ 1265849.034566706512123, 5544081.343784033320844 ], [ 1265849.034566706512123, 5544181.343784033320844 ] ] ] ] } },
{ "type": "Feature", "properties": { "id": 19817, "street_cells": 17.14005324691534, "yard_cells": 5343.5231939997757, "utility": 0.56429707442409482, "num_areas": 1.0 }, "geometry": { "type": "MultiPolygon", "coordinates": [ [ [ [ 1265949.034566706512123, 5541481.343784033320844 ], [ 1266049.034566706512123, 5541481.343784033320844 ], [ 1266049.034566706512123, 5541381.343784033320844 ], [ 1265949.034566706512123, 5541381.343784033320844 ], [ 1265949.034566706512123, 5541481.343784033320844 ] ] ] ] } },
{ "type": "Feature", "properties": { "id": 19846, "street_cells": 353.34486205093572, "yard_cells": 5548.9911384615116, "utility": 0.54294964298505244, "num_areas": 0.0 }, "geometry": { "type": "MultiPolygon", "coordinates": [ [ [ [ 1265949.034566706512123, 5538581.343784033320844 ], [ 1266049.034566706512123, 5538581.343784033320844 ], [ 1266049.034566706512123, 5538481.343784033320844 ], [ 1265949.034566706512123, 5538481.343784033320844 ], [ 1265949.034566706512123, 5538581.343784033320844 ] ] ] ] } },
{ "type": "Feature", "properties": { "id": 19985, "street_cells": 0.0, "yard_cells": 4814.2367233242039, "utility": 0.54005671543147815, "num_areas": 1.0 }, "geometry": { "type": "MultiPolygon", "coordinates": [ [ [ [ 1266049.034566706512123, 5540581.343784033320844 ], [ 1266149.034566706512123, 5540581.343784033320844 ], [ 1266149.034566706512123, 5540481.343784033320844 ], [ 1266049.034566706512123, 5540481.343784033320844 ], [ 1266049.034566706512123, 5540581.343784033320844 ] ] ] ] } },
{ "type": "Feature", "properties": { "id": 20011, "street_cells": 186.73449331186711, "yard_cells": 5469.198301845463, "utility": 0.59667574688786074, "num_areas": 0.0 }, "geometry": { "type": "MultiPolygon", "coordinates": [ [ [ [ 1266049.034566706512123, 5537981.343784033320844 ], [ 1266149.034566706512123, 5537981.343784033320844 ], [ 1266149.034566706512123, 5537881.343784033320844 ], [ 1266049.034566706512123, 5537881.343784033320844 ], [ 1266049.034566706512123, 5537981.343784033320844 ] ] ] ] } },
{ "type": "Feature", "properties": { "id": 20139, "street_cells": 392.63344848230491, "yard_cells": 4175.5344589229207, "utility": 0.42065302113123693, "num_areas": 2.0 }, "geometry": { "type": "MultiPolygon", "coordinates": [ [ [ [ 1266149.034566706512123, 5541081.343784033320844 ], [ 1266249.034566706512123, 5541081.343784033320844 ], [ 1266249.034566706512123, 5540981.343784033320844 ], [ 1266149.034566706512123, 5540981.343784033320844 ], [ 1266149.034566706512123, 5541081.343784033320844 ] ] ] ] } },
{ "type": "Feature", "properties": { "id": 20307, "street_cells": 537.18822092115886, "yard_cells": 4275.1250982494093, "utility": 0.58761050278909921, "num_areas": 0.0 }, "geometry": { "type": "MultiPolygon", "coordinates": [ [ [ [ 1266249.034566706512123, 5540181.343784033320844 ], [ 1266349.034566706512123, 5540181.343784033320844 ], [ 1266349.034566706512123, 5540081.343784033320844 ], [ 1266249.034566706512123, 5540081.343784033320844 ], [ 1266249.034566706512123, 5540181.343784033320844 ] ] ] ] } },
{ "type": "Feature", "properties": { "id": 20791, "street_cells": 48.511434352956712, "yard_cells": 4699.7539819851518, "utility": 0.59908457350347244, "num_areas": 0.0 }, "geometry": { "type": "MultiPolygon", "coordinates": [ [ [ [ 1266549.034566706512123, 5539481.343784033320844 ], [ 1266649.034566706512123, 5539481.343784033320844 ], [ 1266649.034566706512123, 5539381.343784033320844 ], [ 1266549.034566706512123, 5539381.343784033320844 ], [ 1266549.034566706512123, 5539481.343784033320844 ] ] ] ] } },
{ "type": "Feature", "properties": { "id": 20954, "street_cells": 63.054135034978387, "yard_cells": 6250.9698437964544, "utility": 0.52522712126150806, "num_areas": 0.0 }, "geometry": { "type": "MultiPolygon", "coordinates": [ [ [ [ 1266649.034566706512123, 5539081.343784033320844 ], [ 1266749.034566706512123, 5539081.343784033320844 ], [ 1266749.034566706512123, 5538981.343784033320844 ], [ 1266649.034566706512123, 5538981.343784033320844 ], [ 1266649.034566706512123, 5539081.343784033320844 ] ] ] ] } },
{ "type": "Feature", "properties": { "id": 21105, "street_cells": 410.31305187175752, "yard_cells": 4927.360329084564, "utility": 0.65267232366194428, "num_areas": 0.0 }, "geometry": { "type": "MultiPolygon", "coordinates": [ [ [ [ 1266749.034566706512123, 5539881.343784033320844 ], [ 1266849.034566706512123, 5539881.343784033320844 ], [ 1266849.034566706512123, 5539781.343784033320844 ], [ 1266749.034566706512123, 5539781.343784033320844 ], [ 1266749.034566706512123, 5539881.343784033320844 ] ] ] ] } },
{ "type": "Feature", "properties": { "id": 21113, "street_cells": 88.551796498894703, "yard_cells": 4722.670635862276, "utility": 0.30467202422783679, "num_areas": 1.0 }, "geometry": { "type": "MultiPolygon", "coordinates": [ [ [ [ 1266749.034566706512123, 5539081.343784033320844 ], [ 1266849.034566706512123, 5539081.343784033320844 ], [ 1266849.034566706512123, 5538981.343784033320844 ], [ 1266749.034566706512123, 5538981.343784033320844 ], [ 1266749.034566706512123, 5539081.343784033320844 ] ] ] ] } },
{ "type": "Feature", "properties": { "id": 21236, "street_cells": 166.48388651162389, "yard_cells": 7087.8723481572233, "utility": 0.61823387080593817, "num_areas": 0.0 }, "geometry": { "type": "MultiPolygon", "coordinates": [ [ [ [ 1266849.034566706512123, 5542681.343784033320844 ], [ 1266949.034566706512123, 5542681.343784033320844 ], [ 1266949.034566706512123, 5542581.343784033320844 ], [ 1266849.034566706512123, 5542581.343784033320844 ], [ 1266849.034566706512123, 5542681.343784033320844 ] ] ] ] } },
{ "type": "Feature", "properties": { "id": 21581, "street_cells": 387.23632563613359, "yard_cells": 4578.2422373865274, "utility": 0.58485549112752111, "num_areas": 0.0 }, "geometry": { "type": "MultiPolygon", "coordinates": [ [ [ [ 1267049.034566706512123, 5539981.343784033320844 ], [ 1267149.034566706512123, 5539981.343784033320844 ], [ 1267149.034566706512123, 5539881.343784033320844 ], [ 1267049.034566706512123, 5539881.343784033320844 ], [ 1267049.034566706512123, 5539981.343784033320844 ] ] ] ] } },
{ "type": "Feature", "properties": { "id": 21582, "street_cells": 401.67031501755122, "yard_cells": 4433.2278954680078, "utility": 0.5824597524812003, "num_areas": 0.0 }, "geometry": { "type": "MultiPolygon", "coordinates": [ [ [ [ 1267049.034566706512123, 5539881.343784033320844 ], [ 1267149.034566706512123, 5539881.343784033320844 ], [ 1267149.034566706512123, 5539781.343784033320844 ], [ 1267049.034566706512123, 5539781.343784033320844 ], [ 1267049.034566706512123, 5539881.343784033320844 ] ] ] ] } },
{ "type": "Feature", "properties": { "id": 21588, "street_cells": 382.48125309571628, "yard_cells": 4492.831018535886, "utility": 0.55641207533447745, "num_areas": 0.0 }, "geometry": { "type": "MultiPolygon", "coordinates": [ [ [ [ 1267049.034566706512123, 5539281.343784033320844 ], [ 1267149.034566706512123, 5539281.343784033320844 ], [ 1267149.034566706512123, 5539181.343784033320844 ], [ 1267049.034566706512123, 5539181.343784033320844 ], [ 1267049.034566706512123, 5539281.343784033320844 ] ] ] ] } },
{ "type": "Feature", "properties": { "id": 21741, "street_cells": 372.95016006529329, "yard_cells": 4514.1450785961933, "utility": 0.62844968486822883, "num_areas": 0.0 }, "geometry": { "type": "MultiPolygon", "coordinates": [ [ [ [ 1267149.034566706512123, 5539881.343784033320844 ], [ 1267249.034566706512123, 5539881.343784033320844 ], [ 1267249.034566706512123, 5539781.343784033320844 ], [ 1267149.034566706512123, 5539781.343784033320844 ], [ 1267149.034566706512123, 5539881.343784033320844 ] ] ] ] } },
{ "type": "Feature", "properties": { "id": 21748, "street_cells": 353.9739038899541, "yard_cells": 4297.2898027570918, "utility": 0.54268798409972618, "num_areas": 0.0 }, "geometry": { "type": "MultiPolygon", "coordinates": [ [ [ [ 1267149.034566706512123, 5539181.343784033320844 ], [ 1267249.034566706512123, 5539181.343784033320844 ], [ 1267249.034566706512123, 5539081.343784033320844 ], [ 1267149.034566706512123, 5539081.343784033320844 ], [ 1267149.034566706512123, 5539181.343784033320844 ] ] ] ] } },
{ "type": "Feature", "properties": { "id": 21751, "street_cells": 35.723422852158549, "yard_cells": 4487.6194094396196, "utility": 0.44065422767044848, "num_areas": 0.0 }, "geometry": { "type": "MultiPolygon", "coordinates": [ [ [ [ 1267149.034566706512123, 5538881.343784033320844 ], [ 1267249.034566706512123, 5538881.343784033320844 ], [ 1267249.034566706512123, 5538781.343784033320844 ], [ 1267149.034566706512123, 5538781.343784033320844 ], [ 1267149.034566706512123, 5538881.343784033320844 ] ] ] ] } },
{ "type": "Feature", "properties": { "id": 21901, "street_cells": 451.28774762153631, "yard_cells": 4348.6233609674673, "utility": 0.59984347334014065, "num_areas": 0.0 }, "geometry": { "type": "MultiPolygon", "coordinates": [ [ [ [ 1267249.034566706512123, 5539781.343784033320844 ], [ 1267349.034566706512123, 5539781.343784033320844 ], [ 1267349.034566706512123, 5539681.343784033320844 ], [ 1267249.034566706512123, 5539681.343784033320844 ], [ 1267249.034566706512123, 5539781.343784033320844 ] ] ] ] } },
{ "type": "Feature", "properties": { "id": 21904, "street_cells": 453.98959315903488, "yard_cells": 4209.1956651906748, "utility": 0.61609281398666715, "num_areas": 0.0 }, "geometry": { "type": "MultiPolygon", "coordinates": [ [ [ [ 1267249.034566706512123, 5539481.343784033320844 ], [ 1267349.034566706512123, 5539481.343784033320844 ], [ 1267349.034566706512123, 5539381.343784033320844 ], [ 1267249.034566706512123, 5539381.343784033320844 ], [ 1267249.034566706512123, 5539481.343784033320844 ] ] ] ] } },
{ "type": "Feature", "properties": { "id": 21907, "street_cells": 421.37787138968707, "yard_cells": 4340.0818873234093, "utility": 0.63147268533140555, "num_areas": 0.0 }, "geometry": { "type": "MultiPolygon", "coordinates": [ [ [ [ 1267249.034566706512123, 5539181.343784033320844 ], [ 1267349.034566706512123, 5539181.343784033320844 ], [ 1267349.034566706512123, 5539081.343784033320844 ], [ 1267249.034566706512123, 5539081.343784033320844 ], [ 1267249.034566706512123, 5539181.343784033320844 ] ] ] ] } },
{ "type": "Feature", "properties": { "id": 21910, "street_cells": 0.0, "yard_cells": 4533.4620077293366, "utility": 0.44863232641001571, "num_areas": 0.0 }, "geometry": { "type": "MultiPolygon", "coordinates": [ [ [ [ 1267249.034566706512123, 5538881.343784033320844 ], [ 1267349.034566706512123, 5538881.343784033320844 ], [ 1267349.034566706512123, 5538781.343784033320844 ], [ 1267249.034566706512123, 5538781.343784033320844 ], [ 1267249.034566706512123, 5538881.343784033320844 ] ] ] ] } },
{ "type": "Feature", "properties": { "id": 22063, "street_cells": 425.26516379900278, "yard_cells": 3887.9894546410069, "utility": 0.49979833706611931, "num_areas": 0.0 }, "geometry": { "type": "MultiPolygon", "coordinates": [ [ [ [ 1267349.034566706512123, 5539481.343784033320844 ], [ 1267449.034566706512123, 5539481.343784033320844 ], [ 1267449.034566706512123, 5539381.343784033320844 ], [ 1267349.034566706512123, 5539381.343784033320844 ], [ 1267349.034566706512123, 5539481.343784033320844 ] ] ] ] } },
{ "type": "Feature", "properties": { "id": 22064, "street_cells": 666.64253462478518, "yard_cells": 3691.92152822041, "utility": 0.32315775569035943, "num_areas": 0.0 }, "geometry": { "type": "MultiPolygon", "coordinates": [ [ [ [ 1267349.034566706512123, 5539381.343784033320844 ], [ 1267449.034566706512123, 5539381.343784033320844 ], [ 1267449.034566706512123, 5539281.343784033320844 ], [ 1267349.034566706512123, 5539281.343784033320844 ], [ 1267349.034566706512123, 5539381.343784033320844 ] ] ] ] } },
{ "type": "Feature", "properties": { "id": 22067, "street_cells": 446.86394782364368, "yard_cells": 3854.063443813357, "utility": 0.52155845443009508, "num_areas": 2.0 }, "geometry": { "type": "MultiPolygon", "coordinates": [ [ [ [ 1267349.034566706512123, 5539081.343784033320844 ], [ 1267449.034566706512123, 5539081.343784033320844 ], [ 1267449.034566706512123, 5538981.343784033320844 ], [ 1267349.034566706512123, 5538981.343784033320844 ], [ 1267349.034566706512123, 5539081.343784033320844 ] ] ] ] } },
{ "type": "Feature", "properties": { "id": 22069, "street_cells": 193.3031489402056, "yard_cells": 4178.0172989275306, "utility": 0.38752898825581389, "num_areas": 1.0 }, "geometry": { "type": "MultiPolygon", "coordinates": [ [ [ [ 1267349.034566706512123, 5538881.343784033320844 ], [ 1267449.034566706512123, 5538881.343784033320844 ], [ 1267449.034566706512123, 5538781.343784033320844 ], [ 1267349.034566706512123, 5538781.343784033320844 ], [ 1267349.034566706512123, 5538881.343784033320844 ] ] ] ] } },
{ "type": "Feature", "properties": { "id": 22224, "street_cells": 350.48629946634168, "yard_cells": 4025.5915629633819, "utility": 0.48084192444279328, "num_areas": 1.0 }, "geometry": { "type": "MultiPolygon", "coordinates": [ [ [ [ 1267449.034566706512123, 5539281.343784033320844 ], [ 1267549.034566706512123, 5539281.343784033320844 ], [ 1267549.034566706512123, 5539181.343784033320844 ], [ 1267449.034566706512123, 5539181.343784033320844 ], [ 1267449.034566706512123, 5539281.343784033320844 ] ] ] ] } },
{ "type": "Feature", "properties": { "id": 22225, "street_cells": 291.13715378623459, "yard_cells": 4391.4821345142554, "utility": 0.59635470363610044, "num_areas": 1.0 }, "geometry": { "type": "MultiPolygon", "coordinates": [ [ [ [ 1267449.034566706512123, 5539181.343784033320844 ], [ 1267549.034566706512123, 5539181.343784033320844 ], [ 1267549.034566706512123, 5539081.343784033320844 ], [ 1267449.034566706512123, 5539081.343784033320844 ], [ 1267449.034566706512123, 5539181.343784033320844 ] ] ] ] } },
{ "type": "Feature", "properties": { "id": 22226, "street_cells": 278.40787494089449, "yard_cells": 4820.1514186765999, "utility": 0.66143984359250796, "num_areas": 0.0 }, "geometry": { "type": "MultiPolygon", "coordinates": [ [ [ [ 1267449.034566706512123, 5539081.343784033320844 ], [ 1267549.034566706512123, 5539081.343784033320844 ], [ 1267549.034566706512123, 5538981.343784033320844 ], [ 1267449.034566706512123, 5538981.343784033320844 ], [ 1267449.034566706512123, 5539081.343784033320844 ] ] ] ] } },
{ "type": "Feature", "properties": { "id": 22227, "street_cells": 155.33455683495851, "yard_cells": 4342.5690067787073, "utility": 0.49245232606789602, "num_areas": 0.0 }, "geometry": { "type": "MultiPolygon", "coordinates": [ [ [ [ 1267449.034566706512123, 5538981.343784033320844 ], [ 1267549.034566706512123, 5538981.343784033320844 ], [ 1267549.034566706512123, 5538881.343784033320844 ], [ 1267449.034566706512123, 5538881.343784033320844 ], [ 1267449.034566706512123, 5538981.343784033320844 ] ] ] ] } },
{ "type": "Feature", "properties": { "id": 24261, "street_cells": 262.90037349909551, "yard_cells": 4982.6655507262331, "utility": 0.1157665270112927, "num_areas": 4.0 }, "geometry": { "type": "MultiPolygon", "coordinates": [ [ [ [ 1268749.034566706512123, 5542281.343784033320844 ], [ 1268849.034566706512123, 5542281.343784033320844 ], [ 1268849.034566706512123, 5542181.343784033320844 ], [ 1268749.034566706512123, 5542181.343784033320844 ], [ 1268749.034566706512123, 5542281.343784033320844 ] ] ] ] } },
{ "type": "Feature", "properties": { "id": 24895, "street_cells": 273.32828853502872, "yard_cells": 4638.1912089753896, "utility": 0.60021119824740521, "num_areas": 1.0 }, "geometry": { "type": "MultiPolygon", "coordinates": [ [ [ [ 1269149.034566706512123, 5542481.343784033320844 ], [ 1269249.034566706512123, 5542481.343784033320844 ], [ 1269249.034566706512123, 5542381.343784033320844 ], [ 1269149.034566706512123, 5542381.343784033320844 ], [ 1269149.034566706512123, 5542481.343784033320844 ] ] ] ] } },
{ "type": "Feature", "properties": { "id": 25055, "street_cells": 405.65131325200201, "yard_cells": 5699.9746062643826, "utility": 0.6316019955416331, "num_areas": 0.0 }, "geometry": { "type": "MultiPolygon", "coordinates": [ [ [ [ 1269249.034566706512123, 5542381.343784033320844 ], [ 1269349.034566706512123, 5542381.343784033320844 ], [ 1269349.034566706512123, 5542281.343784033320844 ], [ 1269249.034566706512123, 5542281.343784033320844 ], [ 1269249.034566706512123, 5542381.343784033320844 ] ] ] ] } },
{ "type": "Feature", "properties": { "id": 25703, "street_cells": 135.3512080207467, "yard_cells": 5217.9668658589944, "utility": 0.60535023211005823, "num_areas": 0.0 }, "geometry": { "type": "MultiPolygon", "coordinates": [ [ [ [ 1269722.840282435528934, 5541154.313003056682646 ], [ 1269745.01568117341958, 5541146.159186707809567 ], [ 1269749.034566706512123, 5541144.455984814092517 ], [ 1269749.034566706512123, 5541081.343784033320844 ], [ 1269649.034566706512123, 5541081.343784033320844 ], [ 1269649.034566706512123, 5541181.343784033320844 ], [ 1269657.656470290385187, 5541181.343784033320844 ], [ 1269722.840282435528934, 5541154.313003056682646 ] ] ] ] } },
{ "type": "Feature", "properties": { "id": 26659, "street_cells": 194.83976573720579, "yard_cells": 5121.5098157626053, "utility": 0.60028704627718921, "num_areas": 0.0 }, "geometry": { "type": "MultiPolygon", "coordinates": [ [ [ [ 1270302.317869324004278, 5540892.808076760731637 ], [ 1270308.040328935720026, 5540890.271688754670322 ], [ 1270328.023470380343497, 5540881.343784033320844 ], [ 1270249.034566706512123, 5540881.343784033320844 ], [ 1270249.034566706512123, 5540981.343784033320844 ], [ 1270346.481167370453477, 5540981.343784033320844 ], [ 1270302.317869324004278, 5540892.808076760731637 ] ] ] ] } },
{ "type": "Feature", "properties": { "id": 26819, "street_cells": 119.9642244094284, "yard_cells": 5315.4781482988037, "utility": 0.622762912020007, "num_areas": 0.0 }, "geometry": { "type": "MultiPolygon", "coordinates": [ [ [ [ 1270436.532205266179517, 5540832.865137711167336 ], [ 1270436.580200990429148, 5540832.844700532965362 ], [ 1270438.931611831532791, 5540831.793484089896083 ], [ 1270449.034566706512123, 5540827.487463670782745 ], [ 1270449.034566706512123, 5540781.343784033320844 ], [ 1270349.034566706512123, 5540781.343784033320844 ], [ 1270349.034566706512123, 5540871.956618025898933 ], [ 1270436.532205266179517, 5540832.865137711167336 ] ] ] ] } },
{ "type": "Feature", "properties": { "id": 26820, "street_cells": 0.0, "yard_cells": 6424.2059857100248, "utility": 0.72707215414333548, "num_areas": 0.0 }, "geometry": { "type": "MultiPolygon", "coordinates": [ [ [ [ 1270349.034566706512123, 5540781.343784033320844 ], [ 1270449.034566706512123, 5540781.343784033320844 ], [ 1270449.034566706512123, 5540681.343784033320844 ], [ 1270349.034566706512123, 5540681.343784033320844 ], [ 1270349.034566706512123, 5540781.343784033320844 ] ] ] ] } },
{ "type": "Feature", "properties": { "id": 29488, "street_cells": 644.05003544166686, "yard_cells": 4700.9157988878433, "utility": 0.48088241951979571, "num_areas": 0.0 }, "geometry": { "type": "MultiPolygon", "coordinates": [ [ [ [ 1272049.034566706512123, 5544281.343784033320844 ], [ 1272149.034566706512123, 5544281.343784033320844 ], [ 1272149.034566706512123, 5544181.343784033320844 ], [ 1272049.034566706512123, 5544181.343784033320844 ], [ 1272049.034566706512123, 5544281.343784033320844 ] ] ] ] } }
]
}
