{
"type": "FeatureCollection",
"name": "no_yard",
"crs": { "type": "name", "properties": { "name": "urn:ogc:def:crs:EPSG::3857" } },
"features": [
{ "type": "Feature", "properties": { "id": 5961, "street_cells": 1139.655918227136, "yard_cells": 0.0, "utility": 0.24106627715934309, "num_areas": 1.0 }, "geometry": { "type": "MultiPolygon", "coordinates": [ [ [ [ 1257249.034566706512123, 5543781.343784033320844 ], [ 1257349.034566706512123, 5543781.343784033320844 ], [ 1257349.034566706512123, 5543681.343784033320844 ], [ 1257249.034566706512123, 5543681.343784033320844 ], [ 1257249.034566706512123, 5543781.343784033320844 ] ] ] ] } },
{ "type": "Feature", "properties": { "id": 6599, "street_cells": 1260.890616661869, "yard_cells": 0.0, "utility": 0.21855957480269611, "num_areas": 1.0 }, "geometry": { "type": "MultiPolygon", "coordinates": [ [ [ [ 1257649.034566706512123, 5543581.343784033320844 ], [ 1257749.034566706512123, 5543581.343784033320844 ], [ 1257749.034566706512123, 5543481.343784033320844 ], [ 1257649.034566706512123, 5543481.343784033320844 ], [ 1257649.034566706512123, 5543581.343784033320844 ] ] ] ] } },
{ "type": "Feature", "properties": { "id": 9002, "street_cells": 1102.934931664169, "yard_cells": 0.0, "utility": -0.24112885510350021, "num_areas": 0.0 }, "geometry": { "type": "MultiPolygon", "coordinates": [ [ [ [ 1259149.034566706512123, 5541781.343784033320844 ], [ 1259249.034566706512123, 5541781.343784033320844 ], [ 1259249.034566706512123, 5541681.343784033320844 ], [ 1259149.034566706512123, 5541681.343784033320844 ], [ 1259149.034566706512123, 5541781.343784033320844 ] ] ] ] } },
{ "type": "Feature", "properties": { "id": 9003, "street_cells": 998.90550959743553, "yard_cells": 0.0, "utility": 0.09219768607845262, "num_areas": 1.0 }, "geometry": { "type": "MultiPolygon", "coordinates": [ [ [ [ 1259149.034566706512123, 5541681.343784033320844 ], [ 1259249.034566706512123, 5541681.343784033320844 ], [ 1259249.034566706512123, 5541581.343784033320844 ], [ 1259149.034566706512123, 5541581.343784033320844 ], [ 1259149.034566706512123, 5541681.343784033320844 ] ] ] ] } },
{ "type": "Feature", "properties": { "id": 9309, "street_cells": 1090.9671408921481, "yard_cells": 0.0, "utility": 0.070152898211250828, "num_areas": 0.0 }, "geometry": { "type": "MultiPolygon", "coordinates": [ [ [ [ 1259349.034566706512123, 5542881.343784033320844 ], [ 1259449.034566706512123, 5542881.343784033320844 ], [ 1259449.034566706512123, 5542781.343784033320844 ], [ 1259349.034566706512123, 5542781.343784033320844 ], [ 1259349.034566706512123, 5542881.343784033320844 ] ] ] ] } },
{ "type": "Feature", "properties": { "id": 9473, "street_cells": 1355.885862310417, "yard_cells": 0.0, "utility": 0.26169927568278162, "num_areas": 3.0 }, "geometry": { "type": "MultiPolygon", "coordinates": [ [ [ [ 1259449.034566706512123, 5542381.343784033320844 ], [ 1259549.034566706512123, 5542381.343784033320844 ], [ 1259549.034566706512123, 5542281.343784033320844 ], [ 1259449.034566706512123, 5542281.343784033320844 ], [ 1259449.034566706512123, 5542381.343784033320844 ] ] ] ] } },
{ "type": "Feature", "properties": { "id": 9630, "street_cells": 1028.5567404017779, "yard_cells": 0.0, "utility": 0.19530420745042329, "num_areas": 3.0 }, "geometry": { "type": "MultiPolygon", "coordinates": [ [ [ [ 1259549.034566706512123, 5542581.343784033320844 ], [ 1259649.034566706512123, 5542581.343784033320844 ], [ 1259649.034566706512123, 5542481.343784033320844 ], [ 1259549.034566706512123, 5542481.343784033320844 ], [ 1259549.034566706512123, 5542581.343784033320844 ] ] ] ] } },
{ "type": "Feature", "properties": { "id": 9787, "street_cells": 1119.611307534575, "yard_cells": 0.0, "utility": 0.26993680247862262, "num_areas": 1.0 }, "geometry": { "type": "MultiPolygon", "coordinates": [ [ [ [ 1259649.034566706512123, 5542781.343784033320844 ], [ 1259749.034566706512123, 5542781.343784033320844 ], [ 1259749.034566706512123, 5542681.343784033320844 ], [ 1259649.034566706512123, 5542681.343784033320844 ], [ 1259649.034566706512123, 5542781.343784033320844 ] ] ] ] } },
{ "type": "Feature", "properties": { "id": 10422, "street_cells": 1054.2026249289511, "yard_cells": 0.0, "utility": 0.26097357607215782, "num_areas": 0.0 }, "geometry": { "type": "MultiPolygon", "coordinates": [ [ [ [ 1260049.034566706512123, 5542881.343784033320844 ], [ 1260149.034566706512123, 5542881.343784033320844 ], [ 1260149.034566706512123, 5542781.343784033320844 ], [ 1260049.034566706512123, 5542781.343784033320844 ], [ 1260049.034566706512123, 5542881.343784033320844 ] ] ] ] } },
{ "type": "Feature", "properties": { "id": 11692, "street_cells": 1350.876745853946, "yard_cells": 0.0, "utility": 0.34374254022203449, "num_areas": 0.0 }, "geometry": { "type": "MultiPolygon", "coordinates": [ [ [ [ 1260849.034566706512123, 5543081.343784033320844 ], [ 1260949.034566706512123, 5543081.343784033320844 ], [ 1260949.034566706512123, 5542981.343784033320844 ], [ 1260849.034566706512123, 5542981.343784033320844 ], [ 1260849.034566706512123, 5543081.343784033320844 ] ] ] ] } },
{ "type": "Feature", "properties": { "id": 11851, "street_cells": 1380.296502733976, "yard_cells": 0.0, "utility": 0.28226000586409072, "num_areas": 6.0 }, "geometry": { "type": "MultiPolygon", "coordinates": [ [ [ [ 1260949.034566706512123, 5543081.343784033320844 ], [ 1261049.034566706512123, 5543081.343784033320844 ], [ 1261049.034566706512123, 5542981.343784033320844 ], [ 1260949.034566706512123, 5542981.343784033320844 ], [ 1260949.034566706512123, 5543081.343784033320844 ] ] ] ] } },
{ "type": "Feature", "properties": { "id": 11854, "street_cells": 1127.495421414171, "yard_cells": 0.0, "utility": 0.17066573745312141, "num_areas": 1.0 }, "geometry": { "type": "MultiPolygon", "coordinates": [ [ [ [ 1260949.034566706512123, 5542781.343784033320844 ], [ 1261049.034566706512123, 5542781.343784033320844 ], [ 1261049.034566706512123, 5542681.343784033320844 ], [ 1260949.034566706512123, 5542681.343784033320844 ], [ 1260949.034566706512123, 5542781.343784033320844 ] ] ] ] } },
{ "type": "Feature", "properties": { "id": 11855, "street_cells": 942.99227980375292, "yard_cells": 0.0, "utility": 0.20073146558505589, "num_areas": 1.0 }, "geometry": { "type": "MultiPolygon", "coordinates": [ [ [ [ 1260949.034566706512123, 5542681.343784033320844 ], [ 1261049.034566706512123, 5542681.343784033320844 ], [ 1261049.034566706512123, 5542581.343784033320844 ], [ 1260949.034566706512123, 5542581.343784033320844 ], [ 1260949.034566706512123, 5542681.343784033320844 ] ] ] ] } },
{ "type": "Feature", "properties": { "id": 12016, "street_cells": 956.3433092457941, "yard_cells": 0.0, "utility": 0.059321563360469273, "num_areas": 10.0 }, "geometry": { "type": "MultiPolygon", "coordinates": [ [ [ [ 1261049.034566706512123, 5542481.343784033320844 ], [ 1261149.034566706512123, 5542481.343784033320844 ], [ 1261149.034566706512123, 5542381.343784033320844 ], [ 1261049.034566706512123, 5542381.343784033320844 ], [ 1261049.034566706512123, 5542481.343784033320844 ] ] ] ] } },
{ "type": "Feature", "properties": { "id": 12017, "street_cells": 1215.4833443265411, "yard_cells": 0.0, "utility": 0.1605367458788502, "num_areas": 5.0 }, "geometry": { "type": "MultiPolygon", "coordinates": [ [ [ [ 1261049.034566706512123, 5542381.343784033320844 ], [ 1261149.034566706512123, 5542381.343784033320844 ], [ 1261149.034566706512123, 5542281.343784033320844 ], [ 1261049.034566706512123, 5542281.343784033320844 ], [ 1261049.034566706512123, 5542381.343784033320844 ] ] ] ] } },
{ "type": "Feature", "properties": { "id": 12172, "street_cells": 946.41620269287387, "yard_cells": 0.0, "utility": 0.28980043417919821, "num_areas": 3.0 }, "geometry": { "type": "MultiPolygon", "coordinates": [ [ [ [ 1261149.034566706512123, 5542781.343784033320844 ], [ 1261249.034566706512123, 5542781.343784033320844 ], [ 1261249.034566706512123, 5542681.343784033320844 ], [ 1261149.034566706512123, 5542681.343784033320844 ], [ 1261149.034566706512123, 5542781.343784033320844 ] ] ] ] } },
{ "type": "Feature", "properties": { "id": 12181, "street_cells": 963.99073585197345, "yard_cells": 0.0, "utility": 0.29879661108170202, "num_areas": 0.0 }, "geometry": { "type": "MultiPolygon", "coordinates": [ [ [ [ 1261149.034566706512123, 5541881.343784033320844 ], [ 1261249.034566706512123, 5541881.343784033320844 ], [ 1261249.034566706512123, 5541781.343784033320844 ], [ 1261149.034566706512123, 5541781.343784033320844 ], [ 1261149.034566706512123, 5541881.343784033320844 ] ] ] ] } },
{ "type": "Feature", "properties": { "id": 12183, "street_cells": 953.45525791216642, "yard_cells": 0.0, "utility": 0.13803106614503621, "num_areas": 0.0 }, "geometry": { "type": "MultiPolygon", "coordinates": [ [ [ [ 1261200.703846126096323, 5541672.393083024770021 ], [ 1261200.703904925845563, 5541672.393515816889703 ], [ 1261200.529467521468177, 5541681.343784033320844 ], [ 1261249.034566706512123, 5541681.343784033320844 ], [ 1261249.034566706512123, 5541581.343784033320844 ], [ 1261149.034566706512123, 5541581.343784033320844 ], [ 1261149.034566706512123, 5541681.343784033320844 ], [ 1261200.529438100289553, 5541681.343784033320844 ], [ 1261200.703846126096323, 5541672.393083024770021 ] ] ] ] } },
{ "type": "Feature", "properties": { "id": 12323, "street_cells": 1102.8167767405509, "yard_cells": 0.0, "utility": 0.14841177448696069, "num_areas": 1.0 }, "geometry": { "type": "MultiPolygon", "coordinates": [ [ [ [ 1261249.034566706512123, 5543581.343784033320844 ], [ 1261349.034566706512123, 5543581.343784033320844 ], [ 1261349.034566706512123, 5543481.343784033320844 ], [ 1261249.034566706512123, 5543481.343784033320844 ], [ 1261249.034566706512123, 5543581.343784033320844 ] ] ] ] } },
{ "type": "Feature", "properties": { "id": 12325, "street_cells": 1383.917834053422, "yard_cells": 0.0, "utility": 0.1771668770527981, "num_areas": 0.0 }, "geometry": { "type": "MultiPolygon", "coordinates": [ [ [ [ 1261249.034566706512123, 5543381.343784033320844 ], [ 1261349.034566706512123, 5543381.343784033320844 ], [ 1261349.034566706512123, 5543281.343784033320844 ], [ 1261249.034566706512123, 5543281.343784033320844 ], [ 1261249.034566706512123, 5543381.343784033320844 ] ] ] ] } },
{ "type": "Feature", "properties": { "id": 12326, "street_cells": 1124.086739758751, "yard_cells": 0.0, "utility": 0.19107284738468, "num_areas": 4.0 }, "geometry": { "type": "MultiPolygon", "coordinates": [ [ [ [ 1261249.034566706512123, 5543281.343784033320844 ], [ 1261349.034566706512123, 5543281.343784033320844 ], [ 1261349.034566706512123, 5543181.343784033320844 ], [ 1261249.034566706512123, 5543181.343784033320844 ], [ 1261249.034566706512123, 5543281.343784033320844 ] ] ] ] } },
{ "type": "Feature", "properties": { "id": 12485, "street_cells": 1000.971985559166, "yard_cells": 0.0, "utility": 0.1057347806171795, "num_areas": 6.0 }, "geometry": { "type": "MultiPolygon", "coordinates": [ [ [ [ 1261349.034566706512123, 5543281.343784033320844 ], [ 1261449.034566706512123, 5543281.343784033320844 ], [ 1261449.034566706512123, 5543181.343784033320844 ], [ 1261349.034566706512123, 5543181.343784033320844 ], [ 1261349.034566706512123, 5543281.343784033320844 ] ] ] ] } },
{ "type": "Feature", "properties": { "id": 12487, "street_cells": 1042.1097381621601, "yard_cells": 0.0, "utility": 0.068226308839261215, "num_areas": 0.0 }, "geometry": { "type": "MultiPolygon", "coordinates": [ [ [ [ 1261349.034566706512123, 5543081.343784033320844 ], [ 1261449.034566706512123, 5543081.343784033320844 ], [ 1261449.034566706512123, 5542981.343784033320844 ], [ 1261349.034566706512123, 5542981.343784033320844 ], [ 1261349.034566706512123, 5543081.343784033320844 ] ] ] ] } },
{ "type": "Feature", "properties": { "id": 12489, "street_cells": 1156.86429884471, "yard_cells": 0.0, "utility": 0.35538825563071702, "num_areas": 4.0 }, "geometry": { "type": "MultiPolygon", "coordinates": [ [ [ [ 1261349.034566706512123, 5542881.343784033320844 ], [ 1261449.034566706512123, 5542881.343784033320844 ], [ 1261449.034566706512123, 5542781.343784033320844 ], [ 1261349.034566706512123, 5542781.343784033320844 ], [ 1261349.034566706512123, 5542881.343784033320844 ] ] ] ] } },
{ "type": "Feature", "properties": { "id": 12639, "street_cells": 1044.6478618562221, "yard_cells": 0.0, "utility": 0.1683027467904373, "num_areas": 4.0 }, "geometry": { "type": "MultiPolygon", "coordinates": [ [ [ [ 1261449.034566706512123, 5543781.343784033320844 ], [ 1261549.034566706512123, 5543781.343784033320844 ], [ 1261549.034566706512123, 5543681.343784033320844 ], [ 1261449.034566706512123, 5543681.343784033320844 ], [ 1261449.034566706512123, 5543781.343784033320844 ] ] ] ] } },
{ "type": "Feature", "properties": { "id": 12647, "street_cells": 1324.149462202937, "yard_cells": 0.0, "utility": 0.48122105103555202, "num_areas": 0.0 }, "geometry": { "type": "MultiPolygon", "coordinates": [ [ [ [ 1261449.034566706512123, 5542981.343784033320844 ], [ 1261549.034566706512123, 5542981.343784033320844 ], [ 1261549.034566706512123, 5542881.343784033320844 ], [ 1261449.034566706512123, 5542881.343784033320844 ], [ 1261449.034566706512123, 5542981.343784033320844 ] ] ] ] } },
{ "type": "Feature", "properties": { "id": 12800, "street_cells": 1296.578734306526, "yard_cells": 0.0, "utility": 0.1571806562580102, "num_areas": 3.0 }, "geometry": { "type": "MultiPolygon", "coordinates": [ [ [ [ 1261549.034566706512123, 5543581.343784033320844 ], [ 1261649.034566706512123, 5543581.343784033320844 ], [ 1261649.034566706512123, 5543481.343784033320844 ], [ 1261549.034566706512123, 5543481.343784033320844 ], [ 1261549.034566706512123, 5543581.343784033320844 ] ] ] ] } },
{ "type": "Feature", "properties": { "id": 12803, "street_cells": 1137.637199741602, "yard_cells": 0.0, "utility": 0.37444924647304539, "num_areas": 0.0 }, "geometry": { "type": "MultiPolygon", "coordinates": [ [ [ [ 1261549.034566706512123, 5543281.343784033320844 ], [ 1261649.034566706512123, 5543281.343784033320844 ], [ 1261649.034566706512123, 5543181.343784033320844 ], [ 1261549.034566706512123, 5543181.343784033320844 ], [ 1261549.034566706512123, 5543281.343784033320844 ] ] ] ] } },
{ "type": "Feature", "properties": { "id": 12806, "street_cells": 1033.0422878142449, "yard_cells": 0.0, "utility": 0.33066879618372658, "num_areas": 4.0 }, "geometry": { "type": "MultiPolygon", "coordinates": [ [ [ [ 1261549.034566706512123, 5542981.343784033320844 ], [ 1261649.034566706512123, 5542981.343784033320844 ], [ 1261649.034566706512123, 5542881.343784033320844 ], [ 1261549.034566706512123, 5542881.343784033320844 ], [ 1261549.034566706512123, 5542981.343784033320844 ] ] ] ] } },
{ "type": "Feature", "properties": { "id": 12958, "street_cells": 1043.9602640185501, "yard_cells": 0.0, "utility": 0.15527010022053939, "num_areas": 0.0 }, "geometry": { "type": "MultiPolygon", "coordinates": [ [ [ [ 1261649.034566706512123, 5543681.343784033320844 ], [ 1261749.034566706512123, 5543681.343784033320844 ], [ 1261749.034566706512123, 5543581.343784033320844 ], [ 1261649.034566706512123, 5543581.343784033320844 ], [ 1261649.034566706512123, 5543681.343784033320844 ] ] ] ] } },
{ "type": "Feature", "properties": { "id": 12962, "street_cells": 1137.49547444582, "yard_cells": 0.0, "utility": 0.32428726305252498, "num_areas": 1.0 }, "geometry": { "type": "MultiPolygon", "coordinates": [ [ [ [ 1261649.034566706512123, 5543281.343784033320844 ], [ 1261749.034566706512123, 5543281.343784033320844 ], [ 1261749.034566706512123, 5543181.343784033320844 ], [ 1261649.034566706512123, 5543181.343784033320844 ], [ 1261649.034566706512123, 5543281.343784033320844 ] ] ] ] } },
{ "type": "Feature", "properties": { "id": 13117, "street_cells": 983.54298018179838, "yard_cells": 0.0, "utility": 0.06888184346652089, "num_areas": 0.0 }, "geometry": { "type": "MultiPolygon", "coordinates": [ [ [ [ 1261749.034566706512123, 5543681.343784033320844 ], [ 1261849.034566706512123, 5543681.343784033320844 ], [ 1261849.034566706512123, 5543581.343784033320844 ], [ 1261749.034566706512123, 5543581.343784033320844 ], [ 1261749.034566706512123, 5543681.343784033320844 ] ] ] ] } },
{ "type": "Feature", "properties": { "id": 13124, "street_cells": 1072.8670947082339, "yard_cells": 0.0, "utility": 0.41037952898025543, "num_areas": 1.0 }, "geometry": { "type": "MultiPolygon", "coordinates": [ [ [ [ 1261749.034566706512123, 5542981.343784033320844 ], [ 1261849.034566706512123, 5542981.343784033320844 ], [ 1261849.034566706512123, 5542881.343784033320844 ], [ 1261749.034566706512123, 5542881.343784033320844 ], [ 1261749.034566706512123, 5542981.343784033320844 ] ] ] ] } },
{ "type": "Feature", "properties": { "id": 13130, "street_cells": 910.86654210514405, "yard_cells": 0.0, "utility": 0.1744604497429883, "num_areas": 0.0 }, "geometry": { "type": "MultiPolygon", "coordinates": [ [ [ [ 1261749.034566706512123, 5542381.343784033320844 ], [ 1261849.034566706512123, 5542381.343784033320844 ], [ 1261849.034566706512123, 5542281.343784033320844 ], [ 1261749.034566706512123, 5542281.343784033320844 ], [ 1261749.034566706512123, 5542381.343784033320844 ] ] ] ] } },
{ "type": "Feature", "properties": { "id": 13283, "street_cells": 1080.806995748728, "yard_cells": 0.0, "utility": 0.39596138867623498, "num_areas": 1.0 }, "geometry": { "type": "MultiPolygon", "coordinates": [ [ [ [ 1261849.034566706512123, 5542981.343784033320844 ], [ 1261949.034566706512123, 5542981.343784033320844 ], [ 1261949.034566706512123, 5542881.343784033320844 ], [ 1261849.034566706512123, 5542881.343784033320844 ], [ 1261849.034566706512123, 5542981.343784033320844 ] ] ] ] } },
{ "type": "Feature", "properties": { "id": 13604, "street_cells": 917.50868050158056, "yard_cells": 0.0, "utility": 0.41875648265196153, "num_areas": 1.0 }, "geometry": { "type": "MultiPolygon", "coordinates": [ [ [ [ 1262049.034566706512123, 5542681.343784033320844 ], [ 1262149.034566706512123, 5542681.343784033320844 ], [ 1262149.034566706512123, 5542581.343784033320844 ], [ 1262049.034566706512123, 5542581.343784033320844 ], [ 1262049.034566706512123, 5542681.343784033320844 ] ] ] ] } },
{ "type": "Feature", "properties": { "id": 13758, "street_cells": 1218.2608681290519, "yard_cells": 0.0, "utility": 0.33345110201862632, "num_areas": 2.0 }, "geometry": { "type": "MultiPolygon", "coordinates": [ [ [ [ 1262149.034566706512123, 5543181.343784033320844 ], [ 1262249.034566706512123, 5543181.343784033320844 ], [ 1262249.034566706512123, 5543081.343784033320844 ], [ 1262149.034566706512123, 5543081.343784033320844 ], [ 1262149.034566706512123, 5543181.343784033320844 ] ] ] ] } },
{ "type": "Feature", "properties": { "id": 13778, "street_cells": 1162.564033430069, "yard_cells": 0.0, "utility": -0.44640405337818551, "num_areas": 2.0 }, "geometry": { "type": "MultiPolygon", "coordinates": [ [ [ [ 1262149.034566706512123, 5541181.343784033320844 ], [ 1262249.034566706512123, 5541181.343784033320844 ], [ 1262249.034566706512123, 5541081.343784033320844 ], [ 1262149.034566706512123, 5541081.343784033320844 ], [ 1262149.034566706512123, 5541181.343784033320844 ] ] ] ] } },
{ "type": "Feature", "properties": { "id": 13913, "street_cells": 1012.475061850588, "yard_cells": 0.0, "utility": 0.28479424221077843, "num_areas": 3.0 }, "geometry": { "type": "MultiPolygon", "coordinates": [ [ [ [ 1262249.034566706512123, 5543581.343784033320844 ], [ 1262349.034566706512123, 5543581.343784033320844 ], [ 1262349.034566706512123, 5543481.343784033320844 ], [ 1262249.034566706512123, 5543481.343784033320844 ], [ 1262249.034566706512123, 5543581.343784033320844 ] ] ] ] } },
{ "type": "Feature", "properties": { "id": 13914, "street_cells": 959.60561686456219, "yard_cells": 0.0, "utility": 0.31778123211423231, "num_areas": 1.0 }, "geometry": { "type": "MultiPolygon", "coordinates": [ [ [ [ 1262249.034566706512123, 5543481.343784033320844 ], [ 1262349.034566706512123, 5543481.343784033320844 ], [ 1262349.034566706512123, 5543381.343784033320844 ], [ 1262249.034566706512123, 5543381.343784033320844 ], [ 1262249.034566706512123, 5543481.343784033320844 ] ] ] ] } },
{ "type": "Feature", "properties": { "id": 13915, "street_cells": 922.44278215765962, "yard_cells": 0.0, "utility": 0.17686452292196569, "num_areas": 0.0 }, "geometry": { "type": "MultiPolygon", "coordinates": [ [ [ [ 1262249.034566706512123, 5543381.343784033320844 ], [ 1262349.034566706512123, 5543381.343784033320844 ], [ 1262349.034566706512123, 5543281.343784033320844 ], [ 1262249.034566706512123, 5543281.343784033320844 ], [ 1262249.034566706512123, 5543381.343784033320844 ] ] ] ] } },
{ "type": "Feature", "properties": { "id": 13938, "street_cells": 1433.058151758893, "yard_cells": 0.0, "utility": 0.15640478469415869, "num_areas": 0.0 }, "geometry": { "type": "MultiPolygon", "coordinates": [ [ [ [ 1262249.034566706512123, 5541081.343784033320844 ], [ 1262349.034566706512123, 5541081.343784033320844 ], [ 1262349.034566706512123, 5540981.343784033320844 ], [ 1262249.034566706512123, 5540981.343784033320844 ], [ 1262249.034566706512123, 5541081.343784033320844 ] ] ] ] } },
{ "type": "Feature", "properties": { "id": 14072, "street_cells": 1043.9569051642441, "yard_cells": 0.0, "utility": 0.13232939830973961, "num_areas": 4.0 }, "geometry": { "type": "MultiPolygon", "coordinates": [ [ [ [ 1262349.034566706512123, 5543581.343784033320844 ], [ 1262449.034566706512123, 5543581.343784033320844 ], [ 1262449.034566706512123, 5543481.343784033320844 ], [ 1262349.034566706512123, 5543481.343784033320844 ], [ 1262349.034566706512123, 5543581.343784033320844 ] ] ] ] } },
{ "type": "Feature", "properties": { "id": 14085, "street_cells": 1440.7010955790061, "yard_cells": 0.0, "utility": 0.51224112076017658, "num_areas": 0.0 }, "geometry": { "type": "MultiPolygon", "coordinates": [ [ [ [ 1262349.034566706512123, 5542281.343784033320844 ], [ 1262449.034566706512123, 5542281.343784033320844 ], [ 1262449.034566706512123, 5542181.343784033320844 ], [ 1262349.034566706512123, 5542181.343784033320844 ], [ 1262349.034566706512123, 5542281.343784033320844 ] ] ] ] } },
{ "type": "Feature", "properties": { "id": 14097, "street_cells": 1394.8324874203649, "yard_cells": 0.0, "utility": 0.2024340402580026, "num_areas": 4.0 }, "geometry": { "type": "MultiPolygon", "coordinates": [ [ [ [ 1262349.034566706512123, 5541081.343784033320844 ], [ 1262449.034566706512123, 5541081.343784033320844 ], [ 1262449.034566706512123, 5540981.343784033320844 ], [ 1262349.034566706512123, 5540981.343784033320844 ], [ 1262349.034566706512123, 5541081.343784033320844 ] ] ] ] } },
{ "type": "Feature", "properties": { "id": 14389, "street_cells": 1204.5816383168101, "yard_cells": 0.0, "utility": 0.11327112734636841, "num_areas": 0.0 }, "geometry": { "type": "MultiPolygon", "coordinates": [ [ [ [ 1262549.034566706512123, 5543681.343784033320844 ], [ 1262649.034566706512123, 5543681.343784033320844 ], [ 1262649.034566706512123, 5543581.343784033320844 ], [ 1262549.034566706512123, 5543581.343784033320844 ], [ 1262549.034566706512123, 5543681.343784033320844 ] ] ] ] } },
{ "type": "Feature", "properties": { "id": 14391, "street_cells": 1038.794103291631, "yard_cells": 0.0, "utility": 0.32216747567441778, "num_areas": 5.0 }, "geometry": { "type": "MultiPolygon", "coordinates": [ [ [ [ 1262549.034566706512123, 5543481.343784033320844 ], [ 1262649.034566706512123, 5543481.343784033320844 ], [ 1262649.034566706512123, 5543381.343784033320844 ], [ 1262549.034566706512123, 5543381.343784033320844 ], [ 1262549.034566706512123, 5543481.343784033320844 ] ] ] ] } },
{ "type": "Feature", "properties": { "id": 14544, "street_cells": 1104.6200808018441, "yard_cells": 0.0, "utility": 0.44746886136879988, "num_areas": 0.0 }, "geometry": { "type": "MultiPolygon", "coordinates": [ [ [ [ 1262649.034566706512123, 5544081.343784033320844 ], [ 1262749.034566706512123, 5544081.343784033320844 ], [ 1262749.034566706512123, 5543981.343784033320844 ], [ 1262649.034566706512123, 5543981.343784033320844 ], [ 1262649.034566706512123, 5544081.343784033320844 ] ] ] ] } },
{ "type": "Feature", "properties": { "id": 14704, "street_cells": 1091.255850312114, "yard_cells": 0.0, "utility": 0.45247919008883491, "num_areas": 0.0 }, "geometry": { "type": "MultiPolygon", "coordinates": [ [ [ [ 1262749.034566706512123, 5543981.343784033320844 ], [ 1262849.034566706512123, 5543981.343784033320844 ], [ 1262849.034566706512123, 5543881.343784033320844 ], [ 1262749.034566706512123, 5543881.343784033320844 ], [ 1262749.034566706512123, 5543981.343784033320844 ] ] ] ] } },
{ "type": "Feature", "properties": { "id": 14863, "street_cells": 1020.109005304426, "yard_cells": 0.0, "utility": 0.44753240362396962, "num_areas": 0.0 }, "geometry": { "type": "MultiPolygon", "coordinates": [ [ [ [ 1262849.034566706512123, 5543981.343784033320844 ], [ 1262949.034566706512123, 5543981.343784033320844 ], [ 1262949.034566706512123, 5543881.343784033320844 ], [ 1262849.034566706512123, 5543881.343784033320844 ], [ 1262849.034566706512123, 5543981.343784033320844 ] ] ] ] } },
{ "type": "Feature", "properties": { "id": 14869, "street_cells": 1089.7220681995159, "yard_cells": 0.0, "utility": 0.2044149876562914, "num_areas": 3.0 }, "geometry": { "type": "MultiPolygon", "coordinates": [ [ [ [ 1262849.034566706512123, 5543381.343784033320844 ], [ 1262949.034566706512123, 5543381.343784033320844 ], [ 1262949.034566706512123, 5543281.343784033320844 ], [ 1262849.034566706512123, 5543281.343784033320844 ], [ 1262849.034566706512123, 5543381.343784033320844 ] ] ] ] } },
{ "type": "Feature", "properties": { "id": 14890, "street_cells": 1033.7946098119021, "yard_cells": 0.0, "utility": 0.13018716303280151, "num_areas": 7.0 }, "geometry": { "type": "MultiPolygon", "coordinates": [ [ [ [ 1262849.034566706512123, 5541281.343784033320844 ], [ 1262949.034566706512123, 5541281.343784033320844 ], [ 1262949.034566706512123, 5541181.343784033320844 ], [ 1262849.034566706512123, 5541181.343784033320844 ], [ 1262849.034566706512123, 5541281.343784033320844 ] ] ] ] } },
{ "type": "Feature", "properties": { "id": 15022, "street_cells": 1049.354391068965, "yard_cells": 0.0, "utility": 0.30350284153272927, "num_areas": 5.0 }, "geometry": { "type": "MultiPolygon", "coordinates": [ [ [ [ 1262949.034566706512123, 5543981.343784033320844 ], [ 1263049.034566706512123, 5543981.343784033320844 ], [ 1263049.034566706512123, 5543881.343784033320844 ], [ 1262949.034566706512123, 5543881.343784033320844 ], [ 1262949.034566706512123, 5543981.343784033320844 ] ] ] ] } },
{ "type": "Feature", "properties": { "id": 15198, "street_cells": 984.14143954738995, "yard_cells": 0.0, "utility": 0.35649484775037338, "num_areas": 4.0 }, "geometry": { "type": "MultiPolygon", "coordinates": [ [ [ [ 1263049.034566706512123, 5542281.343784033320844 ], [ 1263149.034566706512123, 5542281.343784033320844 ], [ 1263149.034566706512123, 5542181.343784033320844 ], [ 1263049.034566706512123, 5542181.343784033320844 ], [ 1263049.034566706512123, 5542281.343784033320844 ] ] ] ] } },
{ "type": "Feature", "properties": { "id": 15211, "street_cells": 1136.685444784164, "yard_cells": 0.0, "utility": 0.044844860242304302, "num_areas": 3.0 }, "geometry": { "type": "MultiPolygon", "coordinates": [ [ [ [ 1263049.034566706512123, 5540981.343784033320844 ], [ 1263149.034566706512123, 5540981.343784033320844 ], [ 1263149.034566706512123, 5540881.343784033320844 ], [ 1263049.034566706512123, 5540881.343784033320844 ], [ 1263049.034566706512123, 5540981.343784033320844 ] ] ] ] } },
{ "type": "Feature", "properties": { "id": 15331, "street_cells": 1065.1877171635631, "yard_cells": 0.0, "utility": 0.2515946308361463, "num_areas": 4.0 }, "geometry": { "type": "MultiPolygon", "coordinates": [ [ [ [ 1263149.034566706512123, 5544881.343784033320844 ], [ 1263249.034566706512123, 5544881.343784033320844 ], [ 1263249.034566706512123, 5544781.343784033320844 ], [ 1263149.034566706512123, 5544781.343784033320844 ], [ 1263149.034566706512123, 5544881.343784033320844 ] ] ] ] } },
{ "type": "Feature", "properties": { "id": 15477, "street_cells": 1168.458407378336, "yard_cells": 0.0, "utility": 0.1681679762948404, "num_areas": 0.0 }, "geometry": { "type": "MultiPolygon", "coordinates": [ [ [ [ 1263249.034566706512123, 5546181.343784033320844 ], [ 1263349.034566706512123, 5546181.343784033320844 ], [ 1263349.034566706512123, 5546081.343784033320844 ], [ 1263249.034566706512123, 5546081.343784033320844 ], [ 1263249.034566706512123, 5546181.343784033320844 ] ] ] ] } },
{ "type": "Feature", "properties": { "id": 15530, "street_cells": 1306.700858387421, "yard_cells": 0.0, "utility": 0.21995220090768519, "num_areas": 5.0 }, "geometry": { "type": "MultiPolygon", "coordinates": [ [ [ [ 1263249.034566706512123, 5540881.343784033320844 ], [ 1263349.034566706512123, 5540881.343784033320844 ], [ 1263349.034566706512123, 5540781.343784033320844 ], [ 1263249.034566706512123, 5540781.343784033320844 ], [ 1263249.034566706512123, 5540881.343784033320844 ] ] ] ] } },
{ "type": "Feature", "properties": { "id": 15659, "street_cells": 924.14138170182696, "yard_cells": 0.0, "utility": 0.32680591552420563, "num_areas": 5.0 }, "geometry": { "type": "MultiPolygon", "coordinates": [ [ [ [ 1263349.034566706512123, 5543881.343784033320844 ], [ 1263449.034566706512123, 5543881.343784033320844 ], [ 1263449.034566706512123, 5543781.343784033320844 ], [ 1263349.034566706512123, 5543781.343784033320844 ], [ 1263349.034566706512123, 5543881.343784033320844 ] ] ] ] } },
{ "type": "Feature", "properties": { "id": 15660, "street_cells": 1204.557553571462, "yard_cells": 0.0, "utility": 0.4249142575954773, "num_areas": 0.0 }, "geometry": { "type": "MultiPolygon", "coordinates": [ [ [ [ 1263349.034566706512123, 5543781.343784033320844 ], [ 1263449.034566706512123, 5543781.343784033320844 ], [ 1263449.034566706512123, 5543681.343784033320844 ], [ 1263349.034566706512123, 5543681.343784033320844 ], [ 1263349.034566706512123, 5543781.343784033320844 ] ] ] ] } },
{ "type": "Feature", "properties": { "id": 15807, "street_cells": 1103.8886833027011, "yard_cells": 0.0, "utility": 0.089059138492611309, "num_areas": 2.0 }, "geometry": { "type": "MultiPolygon", "coordinates": [ [ [ [ 1263449.034566706512123, 5544981.343784033320844 ], [ 1263549.034566706512123, 5544981.343784033320844 ], [ 1263549.034566706512123, 5544881.343784033320844 ], [ 1263449.034566706512123, 5544881.343784033320844 ], [ 1263449.034566706512123, 5544981.343784033320844 ] ] ] ] } },
{ "type": "Feature", "properties": { "id": 15820, "street_cells": 1087.091049706936, "yard_cells": 0.0, "utility": 0.21209226574678991, "num_areas": 4.0 }, "geometry": { "type": "MultiPolygon", "coordinates": [ [ [ [ 1263449.034566706512123, 5543681.343784033320844 ], [ 1263549.034566706512123, 5543681.343784033320844 ], [ 1263549.034566706512123, 5543581.343784033320844 ], [ 1263449.034566706512123, 5543581.343784033320844 ], [ 1263449.034566706512123, 5543681.343784033320844 ] ] ] ] } },
{ "type": "Feature", "properties": { "id": 16139, "street_cells": 1041.332136084, "yard_cells": 0.0, "utility": 0.2423657792670196, "num_areas": 0.0 }, "geometry": { "type": "MultiPolygon", "coordinates": [ [ [ [ 1263649.034566706512123, 5543581.343784033320844 ], [ 1263749.034566706512123, 5543581.343784033320844 ], [ 1263749.034566706512123, 5543481.343784033320844 ], [ 1263649.034566706512123, 5543481.343784033320844 ], [ 1263649.034566706512123, 5543581.343784033320844 ] ] ] ] } },
{ "type": "Feature", "properties": { "id": 16298, "street_cells": 1134.8142244383689, "yard_cells": 0.0, "utility": 0.29245068828759829, "num_areas": 1.0 }, "geometry": { "type": "MultiPolygon", "coordinates": [ [ [ [ 1263749.034566706512123, 5543581.343784033320844 ], [ 1263849.034566706512123, 5543581.343784033320844 ], [ 1263849.034566706512123, 5543481.343784033320844 ], [ 1263749.034566706512123, 5543481.343784033320844 ], [ 1263749.034566706512123, 5543581.343784033320844 ] ] ] ] } },
{ "type": "Feature", "properties": { "id": 16454, "street_cells": 970.54072450762635, "yard_cells": 0.0, "utility": 0.2800127969684143, "num_areas": 0.0 }, "geometry": { "type": "MultiPolygon", "coordinates": [ [ [ [ 1263849.034566706512123, 5543881.343784033320844 ], [ 1263949.034566706512123, 5543881.343784033320844 ], [ 1263949.034566706512123, 5543781.343784033320844 ], [ 1263849.034566706512123, 5543781.343784033320844 ], [ 1263849.034566706512123, 5543881.343784033320844 ] ] ] ] } },
{ "type": "Feature", "properties": { "id": 16484, "street_cells": 1174.74222705178, "yard_cells": 0.0, "utility": 0.23258808283302479, "num_areas": 0.0 }, "geometry": { "type": "MultiPolygon", "coordinates": [ [ [ [ 1263849.034566706512123, 5540881.343784033320844 ], [ 1263949.034566706512123, 5540881.343784033320844 ], [ 1263949.034566706512123, 5540781.343784033320844 ], [ 1263849.034566706512123, 5540781.343784033320844 ], [ 1263849.034566706512123, 5540881.343784033320844 ] ] ] ] } },
{ "type": "Feature", "properties": { "id": 16767, "street_cells": 1080.3356964528559, "yard_cells": 0.0, "utility": 0.28779745888125391, "num_areas": 3.0 }, "geometry": { "type": "MultiPolygon", "coordinates": [ [ [ [ 1264049.034566706512123, 5544381.343784033320844 ], [ 1264149.034566706512123, 5544381.343784033320844 ], [ 1264149.034566706512123, 5544281.343784033320844 ], [ 1264049.034566706512123, 5544281.343784033320844 ], [ 1264049.034566706512123, 5544381.343784033320844 ] ] ] ] } },
{ "type": "Feature", "properties": { "id": 16923, "street_cells": 1221.1943581119181, "yard_cells": 0.0, "utility": 0.23506272868994321, "num_areas": 1.0 }, "geometry": { "type": "MultiPolygon", "coordinates": [ [ [ [ 1264149.034566706512123, 5544681.343784033320844 ], [ 1264249.034566706512123, 5544681.343784033320844 ], [ 1264249.034566706512123, 5544581.343784033320844 ], [ 1264149.034566706512123, 5544581.343784033320844 ], [ 1264149.034566706512123, 5544681.343784033320844 ] ] ] ] } },
{ "type": "Feature", "properties": { "id": 16940, "street_cells": 1086.6601411936811, "yard_cells": 0.0, "utility": 0.28258823629247021, "num_areas": 0.0 }, "geometry": { "type": "MultiPolygon", "coordinates": [ [ [ [ 1264149.034566706512123, 5542981.343784033320844 ], [ 1264249.034566706512123, 5542981.343784033320844 ], [ 1264249.034566706512123, 5542881.343784033320844 ], [ 1264149.034566706512123, 5542881.343784033320844 ], [ 1264149.034566706512123, 5542981.343784033320844 ] ] ] ] } },
{ "type": "Feature", "properties": { "id": 16941, "street_cells": 1321.5279882319739, "yard_cells": 0.0, "utility": 0.2290547095205657, "num_areas": 1.0 }, "geometry": { "type": "MultiPolygon", "coordinates": [ [ [ [ 1264149.034566706512123, 5542881.343784033320844 ], [ 1264249.034566706512123, 5542881.343784033320844 ], [ 1264249.034566706512123, 5542781.343784033320844 ], [ 1264149.034566706512123, 5542781.343784033320844 ], [ 1264149.034566706512123, 5542881.343784033320844 ] ] ] ] } },
{ "type": "Feature", "properties": { "id": 16962, "street_cells": 1651.787717473507, "yard_cells": 0.0, "utility": 0.31911403458545401, "num_areas": 2.0 }, "geometry": { "type": "MultiPolygon", "coordinates": [ [ [ [ 1264149.034566706512123, 5540781.343784033320844 ], [ 1264249.034566706512123, 5540781.343784033320844 ], [ 1264249.034566706512123, 5540681.343784033320844 ], [ 1264149.034566706512123, 5540681.343784033320844 ], [ 1264149.034566706512123, 5540781.343784033320844 ] ] ] ] } },
{ "type": "Feature", "properties": { "id": 17106, "street_cells": 1119.494813914225, "yard_cells": 0.0, "utility": 0.27259550948217443, "num_areas": 2.0 }, "geometry": { "type": "MultiPolygon", "coordinates": [ [ [ [ 1264249.034566706512123, 5542281.343784033320844 ], [ 1264349.034566706512123, 5542281.343784033320844 ], [ 1264349.034566706512123, 5542181.343784033320844 ], [ 1264249.034566706512123, 5542181.343784033320844 ], [ 1264249.034566706512123, 5542281.343784033320844 ] ] ] ] } },
{ "type": "Feature", "properties": { "id": 17112, "street_cells": 1469.3145066629629, "yard_cells": 0.0, "utility": 0.17660887086152779, "num_areas": 0.0 }, "geometry": { "type": "MultiPolygon", "coordinates": [ [ [ [ 1264249.034566706512123, 5541681.343784033320844 ], [ 1264349.034566706512123, 5541681.343784033320844 ], [ 1264349.034566706512123, 5541581.343784033320844 ], [ 1264249.034566706512123, 5541581.343784033320844 ], [ 1264249.034566706512123, 5541681.343784033320844 ] ] ] ] } },
{ "type": "Feature", "properties": { "id": 17117, "street_cells": 1070.077713370323, "yard_cells": 0.0, "utility": 0.10846652199383559, "num_areas": 3.0 }, "geometry": { "type": "MultiPolygon", "coordinates": [ [ [ [ 1264249.034566706512123, 5541181.343784033320844 ], [ 1264349.034566706512123, 5541181.343784033320844 ], [ 1264349.034566706512123, 5541081.343784033320844 ], [ 1264249.034566706512123, 5541081.343784033320844 ], [ 1264249.034566706512123, 5541181.343784033320844 ] ] ] ] } },
{ "type": "Feature", "properties": { "id": 17278, "street_cells": 1316.260655787587, "yard_cells": 0.0, "utility": 0.10292644549868089, "num_areas": 3.0 }, "geometry": { "type": "MultiPolygon", "coordinates": [ [ [ [ 1264349.034566706512123, 5540981.343784033320844 ], [ 1264449.034566706512123, 5540981.343784033320844 ], [ 1264449.034566706512123, 5540881.343784033320844 ], [ 1264349.034566706512123, 5540881.343784033320844 ], [ 1264349.034566706512123, 5540981.343784033320844 ] ] ] ] } },
{ "type": "Feature", "properties": { "id": 17562, "street_cells": 1231.0767390608789, "yard_cells": 0.0, "utility": 0.25940729744134428, "num_areas": 1.0 }, "geometry": { "type": "MultiPolygon", "coordinates": [ [ [ [ 1264549.034566706512123, 5544381.343784033320844 ], [ 1264649.034566706512123, 5544381.343784033320844 ], [ 1264649.034566706512123, 5544281.343784033320844 ], [ 1264549.034566706512123, 5544281.343784033320844 ], [ 1264549.034566706512123, 5544381.343784033320844 ] ] ] ] } },
{ "type": "Feature", "properties": { "id": 17723, "street_cells": 1224.263159445673, "yard_cells": 0.0, "utility": 0.16746214013487479, "num_areas": 1.0 }, "geometry": { "type": "MultiPolygon", "coordinates": [ [ [ [ 1264649.034566706512123, 5544181.343784033320844 ], [ 1264749.034566706512123, 5544181.343784033320844 ], [ 1264749.034566706512123, 5544081.343784033320844 ], [ 1264649.034566706512123, 5544081.343784033320844 ], [ 1264649.034566706512123, 5544181.343784033320844 ] ] ] ] } },
{ "type": "Feature", "properties": { "id": 17883, "street_cells": 1541.020094488561, "yard_cells": 0.0, "utility": 0.28383054878881131, "num_areas": 1.0 }, "geometry": { "type": "MultiPolygon", "coordinates": [ [ [ [ 1264749.034566706512123, 5544081.343784033320844 ], [ 1264849.034566706512123, 5544081.343784033320844 ], [ 1264849.034566706512123, 5543981.343784033320844 ], [ 1264749.034566706512123, 5543981.343784033320844 ], [ 1264749.034566706512123, 5544081.343784033320844 ] ] ] ] } },
{ "type": "Feature", "properties": { "id": 18044, "street_cells": 1103.4094686537981, "yard_cells": 0.0, "utility": 0.22423823908831739, "num_areas": 1.0 }, "geometry": { "type": "MultiPolygon", "coordinates": [ [ [ [ 1264849.034566706512123, 5543881.343784033320844 ], [ 1264949.034566706512123, 5543881.343784033320844 ], [ 1264949.034566706512123, 5543781.343784033320844 ], [ 1264849.034566706512123, 5543781.343784033320844 ], [ 1264849.034566706512123, 5543881.343784033320844 ] ] ] ] } },
{ "type": "Feature", "properties": { "id": 18204, "street_cells": 1162.1102952271699, "yard_cells": 0.0, "utility": 0.36347106114704381, "num_areas": 0.0 }, "geometry": { "type": "MultiPolygon", "coordinates": [ [ [ [ 1264949.034566706512123, 5543781.343784033320844 ], [ 1265049.034566706512123, 5543781.343784033320844 ], [ 1265049.034566706512123, 5543681.343784033320844 ], [ 1264949.034566706512123, 5543681.343784033320844 ], [ 1264949.034566706512123, 5543781.343784033320844 ] ] ] ] } },
{ "type": "Feature", "properties": { "id": 18401, "street_cells": 1105.40433781147, "yard_cells": 0.0, "utility": 0.24022882475078469, "num_areas": 0.0 }, "geometry": { "type": "MultiPolygon", "coordinates": [ [ [ [ 1265049.034566706512123, 5539981.343784033320844 ], [ 1265149.034566706512123, 5539981.343784033320844 ], [ 1265149.034566706512123, 5539881.343784033320844 ], [ 1265049.034566706512123, 5539881.343784033320844 ], [ 1265049.034566706512123, 5539981.343784033320844 ] ] ] ] } },
{ "type": "Feature", "properties": { "id": 18708, "street_cells": 1097.006580108404, "yard_cells": 0.0, "utility": 0.045143950489371809, "num_areas": 1.0 }, "geometry": { "type": "MultiPolygon", "coordinates": [ [ [ [ 1265249.034566706512123, 5541081.343784033320844 ], [ 1265349.034566706512123, 5541081.343784033320844 ], [ 1265349.034566706512123, 5540981.343784033320844 ], [ 1265249.034566706512123, 5540981.343784033320844 ], [ 1265249.034566706512123, 5541081.343784033320844 ] ] ] ] } },
{ "type": "Feature", "properties": { "id": 18867, "street_cells": 1046.3427747935059, "yard_cells": 0.0, "utility": 0.066762741843115161, "num_areas": 1.0 }, "geometry": { "type": "MultiPolygon", "coordinates": [ [ [ [ 1265349.034566706512123, 5541081.343784033320844 ], [ 1265449.034566706512123, 5541081.343784033320844 ], [ 1265449.034566706512123, 5540981.343784033320844 ], [ 1265349.034566706512123, 5540981.343784033320844 ], [ 1265349.034566706512123, 5541081.343784033320844 ] ] ] ] } },
{ "type": "Feature", "properties": { "id": 18873, "street_cells": 1126.7605779215689, "yard_cells": 0.0, "utility": -0.031902691362124161, "num_areas": 3.0 }, "geometry": { "type": "MultiPolygon", "coordinates": [ [ [ [ 1265349.034566706512123, 5540481.343784033320844 ], [ 1265449.034566706512123, 5540481.343784033320844 ], [ 1265449.034566706512123, 5540381.343784033320844 ], [ 1265349.034566706512123, 5540381.343784033320844 ], [ 1265349.034566706512123, 5540481.343784033320844 ] ] ] ] } },
{ "type": "Feature", "properties": { "id": 18999, "street_cells": 1226.1126291073861, "yard_cells": 0.0, "utility": 0.25569009442593382, "num_areas": 0.0 }, "geometry": { "type": "MultiPolygon", "coordinates": [ [ [ [ 1265449.034566706512123, 5543781.343784033320844 ], [ 1265549.034566706512123, 5543781.343784033320844 ], [ 1265549.034566706512123, 5543681.343784033320844 ], [ 1265449.034566706512123, 5543681.343784033320844 ], [ 1265449.034566706512123, 5543781.343784033320844 ] ] ] ] } },
{ "type": "Feature", "properties": { "id": 19029, "street_cells": 1029.402701184154, "yard_cells": 0.0, "utility": -0.26788138840653469, "num_areas": 1.0 }, "geometry": { "type": "MultiPolygon", "coordinates": [ [ [ [ 1265449.034566706512123, 5540781.343784033320844 ], [ 1265549.034566706512123, 5540781.343784033320844 ], [ 1265549.034566706512123, 5540681.343784033320844 ], [ 1265449.034566706512123, 5540681.343784033320844 ], [ 1265449.034566706512123, 5540781.343784033320844 ] ] ] ] } },
{ "type": "Feature", "properties": { "id": 19186, "street_cells": 1097.4377841770649, "yard_cells": 0.0, "utility": 0.20695035287396771, "num_areas": 0.0 }, "geometry": { "type": "MultiPolygon", "coordinates": [ [ [ [ 1265549.034566706512123, 5540981.343784033320844 ], [ 1265649.034566706512123, 5540981.343784033320844 ], [ 1265649.034566706512123, 5540881.343784033320844 ], [ 1265549.034566706512123, 5540881.343784033320844 ], [ 1265549.034566706512123, 5540981.343784033320844 ] ] ] ] } },
{ "type": "Feature", "properties": { "id": 19354, "street_cells": 1080.543157689134, "yard_cells": 0.0, "utility": 0.1832926428337984, "num_areas": 2.0 }, "geometry": { "type": "MultiPolygon", "coordinates": [ [ [ [ 1265649.034566706512123, 5540081.343784033320844 ], [ 1265749.034566706512123, 5540081.343784033320844 ], [ 1265749.034566706512123, 5539981.343784033320844 ], [ 1265649.034566706512123, 5539981.343784033320844 ], [ 1265649.034566706512123, 5540081.343784033320844 ] ] ] ] } },
{ "type": "Feature", "properties": { "id": 19481, "street_cells": 1172.123600655794, "yard_cells": 0.0, "utility": 0.1644618080298024, "num_areas": 5.0 }, "geometry": { "type": "MultiPolygon", "coordinates": [ [ [ [ 1265749.034566706512123, 5543281.343784033320844 ], [ 1265849.034566706512123, 5543281.343784033320844 ], [ 1265849.034566706512123, 5543181.343784033320844 ], [ 1265749.034566706512123, 5543181.343784033320844 ], [ 1265749.034566706512123, 5543281.343784033320844 ] ] ] ] } },
{ "type": "Feature", "properties": { "id": 19667, "street_cells": 1040.105147902854, "yard_cells": 0.0, "utility": 0.080286612379292521, "num_areas": 2.0 }, "geometry": { "type": "MultiPolygon", "coordinates": [ [ [ [ 1265849.034566706512123, 5540581.343784033320844 ], [ 1265949.034566706512123, 5540581.343784033320844 ], [ 1265949.034566706512123, 5540481.343784033320844 ], [ 1265849.034566706512123, 5540481.343784033320844 ], [ 1265849.034566706512123, 5540581.343784033320844 ] ] ] ] } },
{ "type": "Feature", "properties": { "id": 20298, "street_cells": 1437.3904853610791, "yard_cells": 0.0, "utility": 0.21000200271241781, "num_areas": 3.0 }, "geometry": { "type": "MultiPolygon", "coordinates": [ [ [ [ 1266249.034566706512123, 5541081.343784033320844 ], [ 1266349.034566706512123, 5541081.343784033320844 ], [ 1266349.034566706512123, 5540981.343784033320844 ], [ 1266249.034566706512123, 5540981.343784033320844 ], [ 1266249.034566706512123, 5541081.343784033320844 ] ] ] ] } },
{ "type": "Feature", "properties": { "id": 21108, "street_cells": 1109.9386662706729, "yard_cells": 0.0, "utility": 0.23192465000467891, "num_areas": 0.0 }, "geometry": { "type": "MultiPolygon", "coordinates": [ [ [ [ 1266749.034566706512123, 5539581.343784033320844 ], [ 1266849.034566706512123, 5539581.343784033320844 ], [ 1266849.034566706512123, 5539481.343784033320844 ], [ 1266749.034566706512123, 5539481.343784033320844 ], [ 1266749.034566706512123, 5539581.343784033320844 ] ] ] ] } },
{ "type": "Feature", "properties": { "id": 21268, "street_cells": 1142.041469082237, "yard_cells": 0.0, "utility": 0.34809791341418722, "num_areas": 1.0 }, "geometry": { "type": "MultiPolygon", "coordinates": [ [ [ [ 1266849.034566706512123, 5539481.343784033320844 ], [ 1266949.034566706512123, 5539481.343784033320844 ], [ 1266949.034566706512123, 5539381.343784033320844 ], [ 1266849.034566706512123, 5539381.343784033320844 ], [ 1266849.034566706512123, 5539481.343784033320844 ] ] ] ] } },
{ "type": "Feature", "properties": { "id": 21739, "street_cells": 984.20596314221643, "yard_cells": 0.0, "utility": 0.27251388413417588, "num_areas": 2.0 }, "geometry": { "type": "MultiPolygon", "coordinates": [ [ [ [ 1267149.034566706512123, 5540081.343784033320844 ], [ 1267249.034566706512123, 5540081.343784033320844 ], [ 1267249.034566706512123, 5539981.343784033320844 ], [ 1267149.034566706512123, 5539981.343784033320844 ], [ 1267149.034566706512123, 5540081.343784033320844 ] ] ] ] } },
{ "type": "Feature", "properties": { "id": 21744, "street_cells": 974.0111660475028, "yard_cells": 0.0, "utility": 0.25423889374491843, "num_areas": 1.0 }, "geometry": { "type": "MultiPolygon", "coordinates": [ [ [ [ 1267149.034566706512123, 5539581.343784033320844 ], [ 1267249.034566706512123, 5539581.343784033320844 ], [ 1267249.034566706512123, 5539481.343784033320844 ], [ 1267149.034566706512123, 5539481.343784033320844 ], [ 1267149.034566706512123, 5539581.343784033320844 ] ] ] ] } },
{ "type": "Feature", "properties": { "id": 21911, "street_cells": 1041.6080819241699, "yard_cells": 0.0, "utility": 0.31016788301698328, "num_areas": 0.0 }, "geometry": { "type": "MultiPolygon", "coordinates": [ [ [ [ 1267249.034566706512123, 5538781.343784033320844 ], [ 1267349.034566706512123, 5538781.343784033320844 ], [ 1267349.034566706512123, 5538681.343784033320844 ], [ 1267249.034566706512123, 5538681.343784033320844 ], [ 1267249.034566706512123, 5538781.343784033320844 ] ] ] ] } },
{ "type": "Feature", "properties": { "id": 22061, "street_cells": 1113.1353696942331, "yard_cells": 0.0, "utility": 0.22841458058842021, "num_areas": 1.0 }, "geometry": { "type": "MultiPolygon", "coordinates": [ [ [ [ 1267349.034566706512123, 5539681.343784033320844 ], [ 1267449.034566706512123, 5539681.343784033320844 ], [ 1267449.034566706512123, 5539581.343784033320844 ], [ 1267349.034566706512123, 5539581.343784033320844 ], [ 1267349.034566706512123, 5539681.343784033320844 ] ] ] ] } },
{ "type": "Feature", "properties": { "id": 22068, "street_cells": 1033.4481793001301, "yard_cells": 0.0, "utility": 0.27327860482472988, "num_areas": 4.0 }, "geometry": { "type": "MultiPolygon", "coordinates": [ [ [ [ 1267349.034566706512123, 5538981.343784033320844 ], [ 1267449.034566706512123, 5538981.343784033320844 ], [ 1267449.034566706512123, 5538881.343784033320844 ], [ 1267349.034566706512123, 5538881.343784033320844 ], [ 1267349.034566706512123, 5538981.343784033320844 ] ] ] ] } },
{ "type": "Feature", "properties": { "id": 22228, "street_cells": 894.60266293468885, "yard_cells": 0.0, "utility": 0.062349382995800423, "num_areas": 0.0 }, "geometry": { "type": "MultiPolygon", "coordinates": [ [ [ [ 1267449.034566706512123, 5538881.343784033320844 ], [ 1267549.034566706512123, 5538881.343784033320844 ], [ 1267549.034566706512123, 5538781.343784033320844 ], [ 1267449.034566706512123, 5538781.343784033320844 ], [ 1267449.034566706512123, 5538881.343784033320844 ] ] ] ] } },
{ "type": "Feature", "properties": { "id": 22701, "street_cells": 1053.8129619273359, "yard_cells": 0.0, "utility": 0.32666548749025132, "num_areas": 1.0 }, "geometry": { "type": "MultiPolygon", "coordinates": [ [ [ [ 1267749.034566706512123, 5539281.343784033320844 ], [ 1267849.034566706512123, 5539281.343784033320844 ], [ 1267849.034566706512123, 5539181.343784033320844 ], [ 1267749.034566706512123, 5539181.343784033320844 ], [ 1267749.034566706512123, 5539281.343784033320844 ] ] ] ] } }
]
}
