{
"type": "FeatureCollection",
"name": "delta_lst",
"crs": { "type": "name", "properties": { "name": "urn:ogc:def:crs:OGC:1.3:CRS84" } },
"features": [
{ "type": "Feature", "properties": { "value": "12.523446083068848" }, "geometry": { "type": "Polygon", "coordinates": [ [ [ 11.24690735717641, 44.547454939487075 ], [ 11.239836265128233, 44.547454939487075 ], [ 11.2398, 44.5476 ], [ 11.2451, 44.5556 ], [ 11.24690735717641, 44.555068424359881 ], [ 11.24690735717641, 44.547454939487075 ] ] ] } },
{ "type": "Feature", "properties": { "value": "13.013376235961914" }, "geometry": { "type": "Polygon", "coordinates": [ [ [ 11.24690735717641, 44.547454939487075 ], [ 11.24690735717641, 44.555068424359881 ], [ 11.2502, 44.5541 ], [ 11.2512, 44.5557 ], [ 11.25756149065437, 44.547454939487075 ], [ 11.24690735717641, 44.547454939487075 ] ] ] } },
{ "type": "Feature", "properties": { "value": "12.207430839538574" }, "geometry": { "type": "MultiPolygon", "coordinates": [ [ [ [ 11.277642461098834, 44.547454939487075 ], [ 11.2778, 44.5477 ], [ 11.278616868376425, 44.547454939487075 ], [ 11.277642461098834, 44.547454939487075 ] ] ], [ [ [ 11.28283996854119, 44.547454939487075 ], [ 11.280953528205055, 44.547454939487075 ], [ 11.2817, 44.5485 ], [ 11.28283996854119, 44.547645023594107 ], [ 11.28283996854119, 44.547454939487075 ] ] ] ] } },
{ "type": "Feature", "properties": { "value": "10.843765258789062" }, "geometry": { "type": "Polygon", "coordinates": [ [ [ 11.31146609304033, 44.547454939487075 ], [ 11.3112, 44.5482 ], [ 11.313589331989725, 44.547454939487075 ], [ 11.31146609304033, 44.547454939487075 ] ] ] } },
{ "type": "Feature", "properties": { "value": "11.520838737487793" }, "geometry": { "type": "Polygon", "coordinates": [ [ [ 11.345722038429557, 44.547454939487075 ], [ 11.337413734871769, 44.547454939487075 ], [ 11.3375, 44.5478 ], [ 11.3385, 44.5484 ], [ 11.3391, 44.5491 ], [ 11.3393, 44.5498 ], [ 11.3396, 44.5502 ], [ 11.3405, 44.5508 ], [ 11.3434, 44.5525 ], [ 11.3439, 44.5533 ], [ 11.345722038429557, 44.552798939431874 ], [ 11.345722038429557, 44.547454939487075 ] ] ] } },
{ "type": "Feature", "properties": { "value": "11.541122436523438" }, "geometry": { "type": "Polygon", "coordinates": [ [ [ 11.354705191270751, 44.547454939487075 ], [ 11.345722038429557, 44.547454939487075 ], [ 11.345722038429557, 44.552798939431874 ], [ 11.3479, 44.5522 ], [ 11.3504, 44.5522 ], [ 11.3518, 44.552 ], [ 11.3524, 44.5516 ], [ 11.3533, 44.5533 ], [ 11.354705191270751, 44.55275014254623 ], [ 11.354705191270751, 44.547454939487075 ] ] ] } },
{ "type": "Feature", "properties": { "value": "11.339077949523926" }, "geometry": { "type": "Polygon", "coordinates": [ [ [ 11.363688344111948, 44.547454939487075 ], [ 11.354705191270751, 44.547454939487075 ], [ 11.354705191270751, 44.55275014254623 ], [ 11.3556, 44.5524 ], [ 11.3574, 44.5519 ], [ 11.359, 44.5527 ], [ 11.3597, 44.5537 ], [ 11.3601, 44.554 ], [ 11.3611, 44.5544 ], [ 11.3619, 44.5554 ], [ 11.3632, 44.5556 ], [ 11.363688344111948, 44.555866369515606 ], [ 11.363688344111948, 44.547454939487075 ] ] ] } },
{ "type": "Feature", "properties": { "value": "12.230504989624023" }, "geometry": { "type": "Polygon", "coordinates": [ [ [ 11.381654649794337, 44.547454939487075 ], [ 11.363688344111948, 44.547454939487075 ], [ 11.363688344111948, 44.555866369515606 ], [ 11.3643, 44.5562 ], [ 11.3647, 44.5561 ], [ 11.366, 44.5556 ], [ 11.3646, 44.5527 ], [ 11.3707, 44.5517 ], [ 11.371, 44.552 ], [ 11.3713, 44.5528 ], [ 11.3743, 44.5521 ], [ 11.3769, 44.5513 ], [ 11.3761, 44.5499 ], [ 11.3809, 44.5485 ], [ 11.3811, 44.5483 ], [ 11.3811, 44.5482 ], [ 11.381654649794337, 44.548048731874275 ], [ 11.381654649794337, 44.547454939487075 ] ] ] } },
{ "type": "Feature", "properties": { "value": "12.633000373840332" }, "geometry": { "type": "Polygon", "coordinates": [ [ [ 11.237924204335213, 44.538471786645879 ], [ 11.234630962040088, 44.538471786645879 ], [ 11.2347, 44.5386 ], [ 11.2354, 44.5404 ], [ 11.2362, 44.5413 ], [ 11.2365, 44.5418 ], [ 11.2363, 44.5419 ], [ 11.2366, 44.542 ], [ 11.2369, 44.5429 ], [ 11.237924204335213, 44.544628344815671 ], [ 11.237924204335213, 44.538471786645879 ] ] ] } },
{ "type": "Feature", "properties": { "value": "12.275455474853516" }, "geometry": { "type": "Polygon", "coordinates": [ [ [ 11.24690735717641, 44.547454939487075 ], [ 11.24690735717641, 44.538471786645879 ], [ 11.237924204335213, 44.538471786645879 ], [ 11.237924204335213, 44.544628344815671 ], [ 11.2385, 44.5456 ], [ 11.2399, 44.5472 ], [ 11.239836265128233, 44.547454939487075 ], [ 11.24690735717641, 44.547454939487075 ] ] ] } },
{ "type": "Feature", "properties": { "value": "12.344733238220215" }, "geometry": { "type": "Polygon", "coordinates": [ [ [ 11.255890510017604, 44.547454939487075 ], [ 11.255890510017604, 44.538471786645879 ], [ 11.24690735717641, 44.538471786645879 ], [ 11.24690735717641, 44.547454939487075 ], [ 11.255890510017604, 44.547454939487075 ] ] ] } },
{ "type": "Feature", "properties": { "value": "11.931246757507324" }, "geometry": { "type": "MultiPolygon", "coordinates": [ [ [ [ 11.255890510017604, 44.538471786645879 ], [ 11.255890510017604, 44.547454939487075 ], [ 11.25756149065437, 44.547454939487075 ], [ 11.264492457717187, 44.538471786645879 ], [ 11.255890510017604, 44.538471786645879 ] ] ], [ [ [ 11.273856815699995, 44.538471786645879 ], [ 11.272608419032769, 44.538471786645879 ], [ 11.2727, 44.5386 ], [ 11.2732, 44.5392 ], [ 11.2736, 44.5391 ], [ 11.273856815699995, 44.539473550109079 ], [ 11.273856815699995, 44.538471786645879 ] ] ] ] } },
{ "type": "Feature", "properties": { "value": "11.847999572753906" }, "geometry": { "type": "Polygon", "coordinates": [ [ [ 11.28283996854119, 44.538471786645879 ], [ 11.273856815699995, 44.538471786645879 ], [ 11.273856815699995, 44.539473550109079 ], [ 11.2747, 44.5407 ], [ 11.2757, 44.5404 ], [ 11.2779, 44.5438 ], [ 11.277, 44.5441 ], [ 11.2781, 44.5459 ], [ 11.2769, 44.5463 ], [ 11.277642461098834, 44.547454939487075 ], [ 11.278616868376425, 44.547454939487075 ], [ 11.2788, 44.5474 ], [ 11.2786, 44.547 ], [ 11.2802, 44.5464 ], [ 11.280953528205055, 44.547454939487075 ], [ 11.28283996854119, 44.547454939487075 ], [ 11.28283996854119, 44.54717977978833 ], [ 11.2828, 44.5469 ], [ 11.28283996854119, 44.546877453643432 ], [ 11.28283996854119, 44.538471786645879 ] ] ] } },
{ "type": "Feature", "properties": { "value": "12.14930248260498" }, "geometry": { "type": "MultiPolygon", "coordinates": [ [ [ [ 11.28283996854119, 44.547454939487075 ], [ 11.282879277069581, 44.547454939487075 ], [ 11.28283996854119, 44.54717977978833 ], [ 11.28283996854119, 44.547454939487075 ] ] ], [ [ [ 11.291823121382386, 44.538471786645879 ], [ 11.28283996854119, 44.538471786645879 ], [ 11.28283996854119, 44.546877453643432 ], [ 11.2867, 44.5447 ], [ 11.2895, 44.5425 ], [ 11.291823121382386, 44.540108551518131 ], [ 11.291823121382386, 44.538471786645879 ] ] ] ] } },
{ "type": "Feature", "properties": { "value": "11.989999771118164" }, "geometry": { "type": "Polygon", "coordinates": [ [ [ 11.291823121382386, 44.538471786645879 ], [ 11.291823121382386, 44.540108551518131 ], [ 11.2929, 44.539 ], [ 11.292573750575395, 44.538471786645879 ], [ 11.291823121382386, 44.538471786645879 ] ] ] } },
{ "type": "Feature", "properties": { "value": "10.896232604980469" }, "geometry": { "type": "Polygon", "coordinates": [ [ [ 11.318772579905971, 44.538471786645879 ], [ 11.309909822204899, 44.538471786645879 ], [ 11.3106, 44.5393 ], [ 11.3114, 44.5397 ], [ 11.3127, 44.5413 ], [ 11.3131, 44.5421 ], [ 11.3133, 44.5429 ], [ 11.3132, 44.5449 ], [ 11.3125, 44.5456 ], [ 11.3117, 44.5468 ], [ 11.31146609304033, 44.547454939487075 ], [ 11.313589331989725, 44.547454939487075 ], [ 11.318772579905971, 44.545838657878782 ], [ 11.318772579905971, 44.538471786645879 ] ] ] } },
{ "type": "Feature", "properties": { "value": "10.430205345153809" }, "geometry": { "type": "Polygon", "coordinates": [ [ [ 11.327755732747166, 44.538471786645879 ], [ 11.318772579905971, 44.538471786645879 ], [ 11.318772579905971, 44.545838657878782 ], [ 11.3205, 44.5453 ], [ 11.3206, 44.5451 ], [ 11.3224, 44.5464 ], [ 11.3235, 44.5467 ], [ 11.324, 44.5472 ], [ 11.3242, 44.5473 ], [ 11.3267, 44.5468 ], [ 11.3277, 44.5472 ], [ 11.327755732747166, 44.547202933302479 ], [ 11.327755732747166, 44.538471786645879 ] ] ] } },
{ "type": "Feature", "properties": { "value": "10.691466331481934" }, "geometry": { "type": "Polygon", "coordinates": [ [ [ 11.345722038429557, 44.547454939487075 ], [ 11.345722038429557, 44.538471786645879 ], [ 11.327755732747166, 44.538471786645879 ], [ 11.327755732747166, 44.547202933302479 ], [ 11.3315, 44.5474 ], [ 11.335, 44.5464 ], [ 11.3331, 44.5442 ], [ 11.3359, 44.543 ], [ 11.3364, 44.5435 ], [ 11.3367, 44.5459 ], [ 11.3373, 44.547 ], [ 11.337413734871769, 44.547454939487075 ], [ 11.345722038429557, 44.547454939487075 ] ] ] } },
{ "type": "Feature", "properties": { "value": "10.627158164978027" }, "geometry": { "type": "Polygon", "coordinates": [ [ [ 11.354705191270751, 44.547454939487075 ], [ 11.354705191270751, 44.538471786645879 ], [ 11.345722038429557, 44.538471786645879 ], [ 11.345722038429557, 44.547454939487075 ], [ 11.354705191270751, 44.547454939487075 ] ] ] } },
{ "type": "Feature", "properties": { "value": "11.007884979248047" }, "geometry": { "type": "Polygon", "coordinates": [ [ [ 11.363688344111948, 44.547454939487075 ], [ 11.363688344111948, 44.538471786645879 ], [ 11.354705191270751, 44.538471786645879 ], [ 11.354705191270751, 44.547454939487075 ], [ 11.363688344111948, 44.547454939487075 ] ] ] } },
{ "type": "Feature", "properties": { "value": "11.943638801574707" }, "geometry": { "type": "Polygon", "coordinates": [ [ [ 11.372671496953142, 44.547454939487075 ], [ 11.372671496953142, 44.538471786645879 ], [ 11.363688344111948, 44.538471786645879 ], [ 11.363688344111948, 44.547454939487075 ], [ 11.372671496953142, 44.547454939487075 ] ] ] } },
{ "type": "Feature", "properties": { "value": "11.944624900817871" }, "geometry": { "type": "Polygon", "coordinates": [ [ [ 11.390637802635533, 44.538471786645879 ], [ 11.372671496953142, 44.538471786645879 ], [ 11.372671496953142, 44.547454939487075 ], [ 11.383831888547393, 44.547454939487075 ], [ 11.390637802635533, 44.5455987810994 ], [ 11.390637802635533, 44.544913585219433 ], [ 11.3889, 44.5421 ], [ 11.3887, 44.5416 ], [ 11.3889, 44.5415 ], [ 11.3898, 44.5413 ], [ 11.390637802635533, 44.542472923689751 ], [ 11.390637802635533, 44.538471786645879 ] ] ] } },
{ "type": "Feature", "properties": { "value": "12.316524505615234" }, "geometry": { "type": "MultiPolygon", "coordinates": [ [ [ [ 11.390637802635533, 44.5455987810994 ], [ 11.391, 44.5455 ], [ 11.390637802635533, 44.544913585219433 ], [ 11.390637802635533, 44.5455987810994 ] ] ], [ [ [ 11.399620955476728, 44.538471786645879 ], [ 11.390637802635533, 44.538471786645879 ], [ 11.390637802635533, 44.542472923689751 ], [ 11.3908, 44.5427 ], [ 11.3944, 44.5415 ], [ 11.3953, 44.543 ], [ 11.3993, 44.5417 ], [ 11.3988, 44.541 ], [ 11.399620955476728, 44.540635130899233 ], [ 11.399620955476728, 44.538471786645879 ] ] ] ] } },
{ "type": "Feature", "properties": { "value": "12.549500465393066" }, "geometry": { "type": "Polygon", "coordinates": [ [ [ 11.408604108317922, 44.538471786645879 ], [ 11.399620955476728, 44.538471786645879 ], [ 11.399620955476728, 44.540635130899233 ], [ 11.4006, 44.5402 ], [ 11.4013, 44.5412 ], [ 11.4044, 44.5404 ], [ 11.4061, 44.5428 ], [ 11.408604108317922, 44.542003238262481 ], [ 11.408604108317922, 44.538471786645879 ] ] ] } },
{ "type": "Feature", "properties": { "value": "12.682060241699219" }, "geometry": { "type": "Polygon", "coordinates": [ [ [ 11.408604108317922, 44.538471786645879 ], [ 11.408604108317922, 44.542003238262481 ], [ 11.4149, 44.54 ], [ 11.413959561012849, 44.538471786645879 ], [ 11.408604108317922, 44.538471786645879 ] ] ] } },
{ "type": "Feature", "properties": { "value": "12.433547973632812" }, "geometry": { "type": "Polygon", "coordinates": [ [ [ 11.237924204335213, 44.538471786645879 ], [ 11.237924204335213, 44.529488633804682 ], [ 11.229980935054256, 44.529488633804682 ], [ 11.2297, 44.5305 ], [ 11.2298, 44.531 ], [ 11.2305, 44.532 ], [ 11.231, 44.533 ], [ 11.2322, 44.5344 ], [ 11.2331, 44.536 ], [ 11.234, 44.5373 ], [ 11.234630962040088, 44.538471786645879 ], [ 11.237924204335213, 44.538471786645879 ] ] ] } },
{ "type": "Feature", "properties": { "value": "12.087735176086426" }, "geometry": { "type": "Polygon", "coordinates": [ [ [ 11.24690735717641, 44.538471786645879 ], [ 11.24690735717641, 44.529488633804682 ], [ 11.237924204335213, 44.529488633804682 ], [ 11.237924204335213, 44.538471786645879 ], [ 11.24690735717641, 44.538471786645879 ] ] ] } },
{ "type": "Feature", "properties": { "value": "11.49899959564209" }, "geometry": { "type": "Polygon", "coordinates": [ [ [ 11.255890510017604, 44.538471786645879 ], [ 11.255890510017604, 44.529488633804682 ], [ 11.24690735717641, 44.529488633804682 ], [ 11.24690735717641, 44.538471786645879 ], [ 11.255890510017604, 44.538471786645879 ] ] ] } },
{ "type": "Feature", "properties": { "value": "10.985091209411621" }, "geometry": { "type": "Polygon", "coordinates": [ [ [ 11.273856815699995, 44.538471786645879 ], [ 11.273856815699995, 44.529488633804682 ], [ 11.255890510017604, 44.529488633804682 ], [ 11.255890510017604, 44.538471786645879 ], [ 11.264492457717187, 44.538471786645879 ], [ 11.2691, 44.5325 ], [ 11.2706, 44.5349 ], [ 11.2702, 44.5351 ], [ 11.272608419032769, 44.538471786645879 ], [ 11.273856815699995, 44.538471786645879 ] ] ] } },
{ "type": "Feature", "properties": { "value": "11.473938941955566" }, "geometry": { "type": "Polygon", "coordinates": [ [ [ 11.28283996854119, 44.538471786645879 ], [ 11.28283996854119, 44.529488633804682 ], [ 11.273856815699995, 44.529488633804682 ], [ 11.273856815699995, 44.538471786645879 ], [ 11.28283996854119, 44.538471786645879 ] ] ] } },
{ "type": "Feature", "properties": { "value": "11.730042457580566" }, "geometry": { "type": "Polygon", "coordinates": [ [ [ 11.291823121382386, 44.529488633804682 ], [ 11.28283996854119, 44.529488633804682 ], [ 11.28283996854119, 44.538471786645879 ], [ 11.291823121382386, 44.538471786645879 ], [ 11.291823121382386, 44.537256482238149 ], [ 11.2908, 44.5356 ], [ 11.291823121382386, 44.535401639731987 ], [ 11.291823121382386, 44.529488633804682 ] ] ] } },
{ "type": "Feature", "properties": { "value": "11.819999694824219" }, "geometry": { "type": "MultiPolygon", "coordinates": [ [ [ [ 11.291823121382386, 44.538471786645879 ], [ 11.292573750575395, 44.538471786645879 ], [ 11.291823121382386, 44.537256482238149 ], [ 11.291823121382386, 44.538471786645879 ] ] ], [ [ [ 11.30080627422358, 44.529488633804682 ], [ 11.291823121382386, 44.529488633804682 ], [ 11.291823121382386, 44.535401639731987 ], [ 11.3006, 44.5337 ], [ 11.30080627422358, 44.533636153216513 ], [ 11.30080627422358, 44.529488633804682 ] ] ] ] } },
{ "type": "Feature", "properties": { "value": "11.302745819091797" }, "geometry": { "type": "MultiPolygon", "coordinates": [ [ [ [ 11.30080627422358, 44.529488633804682 ], [ 11.30080627422358, 44.533636153216513 ], [ 11.3048, 44.5324 ], [ 11.308152482285518, 44.529488633804682 ], [ 11.30080627422358, 44.529488633804682 ] ] ], [ [ [ 11.318772579905971, 44.538471786645879 ], [ 11.318772579905971, 44.529488633804682 ], [ 11.308933114689728, 44.529488633804682 ], [ 11.3092, 44.5298 ], [ 11.3096, 44.5312 ], [ 11.3085, 44.5324 ], [ 11.3076, 44.5348 ], [ 11.3075, 44.5354 ], [ 11.3079, 44.5359 ], [ 11.3085, 44.5363 ], [ 11.3096, 44.5381 ], [ 11.309909822204899, 44.538471786645879 ], [ 11.318772579905971, 44.538471786645879 ] ] ] ] } },
{ "type": "Feature", "properties": { "value": "10.596395492553711" }, "geometry": { "type": "Polygon", "coordinates": [ [ [ 11.327755732747166, 44.538471786645879 ], [ 11.327755732747166, 44.529488633804682 ], [ 11.318772579905971, 44.529488633804682 ], [ 11.318772579905971, 44.538471786645879 ], [ 11.327755732747166, 44.538471786645879 ] ] ] } },
{ "type": "Feature", "properties": { "value": "10.620043754577637" }, "geometry": { "type": "Polygon", "coordinates": [ [ [ 11.33673888558836, 44.538471786645879 ], [ 11.33673888558836, 44.529488633804682 ], [ 11.327755732747166, 44.529488633804682 ], [ 11.327755732747166, 44.538471786645879 ], [ 11.33673888558836, 44.538471786645879 ] ] ] } },
{ "type": "Feature", "properties": { "value": "10.233809471130371" }, "geometry": { "type": "Polygon", "coordinates": [ [ [ 11.354705191270751, 44.538471786645879 ], [ 11.354705191270751, 44.529488633804682 ], [ 11.33673888558836, 44.529488633804682 ], [ 11.33673888558836, 44.538471786645879 ], [ 11.354705191270751, 44.538471786645879 ] ] ] } },
{ "type": "Feature", "properties": { "value": "11.142542839050293" }, "geometry": { "type": "Polygon", "coordinates": [ [ [ 11.363688344111948, 44.538471786645879 ], [ 11.363688344111948, 44.529488633804682 ], [ 11.354705191270751, 44.529488633804682 ], [ 11.354705191270751, 44.538471786645879 ], [ 11.363688344111948, 44.538471786645879 ] ] ] } },
{ "type": "Feature", "properties": { "value": "12.294364929199219" }, "geometry": { "type": "Polygon", "coordinates": [ [ [ 11.372671496953142, 44.538471786645879 ], [ 11.372671496953142, 44.529488633804682 ], [ 11.363688344111948, 44.529488633804682 ], [ 11.363688344111948, 44.538471786645879 ], [ 11.372671496953142, 44.538471786645879 ] ] ] } },
{ "type": "Feature", "properties": { "value": "12.1856107711792" }, "geometry": { "type": "Polygon", "coordinates": [ [ [ 11.390637802635533, 44.538471786645879 ], [ 11.390637802635533, 44.529488633804682 ], [ 11.372671496953142, 44.529488633804682 ], [ 11.372671496953142, 44.538471786645879 ], [ 11.390637802635533, 44.538471786645879 ] ] ] } },
{ "type": "Feature", "properties": { "value": "12.04885196685791" }, "geometry": { "type": "Polygon", "coordinates": [ [ [ 11.399620955476728, 44.538471786645879 ], [ 11.399620955476728, 44.529488633804682 ], [ 11.390637802635533, 44.529488633804682 ], [ 11.390637802635533, 44.538471786645879 ], [ 11.399620955476728, 44.538471786645879 ] ] ] } },
{ "type": "Feature", "properties": { "value": "12.389474868774414" }, "geometry": { "type": "Polygon", "coordinates": [ [ [ 11.399620955476728, 44.529488633804682 ], [ 11.399620955476728, 44.538471786645879 ], [ 11.408604108317922, 44.538471786645879 ], [ 11.408604108317922, 44.530010805072898 ], [ 11.408195452542795, 44.529488633804682 ], [ 11.399620955476728, 44.529488633804682 ] ] ] } },
{ "type": "Feature", "properties": { "value": "12.703301429748535" }, "geometry": { "type": "Polygon", "coordinates": [ [ [ 11.408604108317922, 44.538471786645879 ], [ 11.413959561012849, 44.538471786645879 ], [ 11.4093, 44.5309 ], [ 11.408604108317922, 44.530010805072898 ], [ 11.408604108317922, 44.538471786645879 ] ] ] } },
{ "type": "Feature", "properties": { "value": "11.329848289489746" }, "geometry": { "type": "Polygon", "coordinates": [ [ [ 11.24690735717641, 44.529488633804682 ], [ 11.24690735717641, 44.520505480963493 ], [ 11.241207171991411, 44.520505480963493 ], [ 11.2413, 44.5209 ], [ 11.2413, 44.5217 ], [ 11.2409, 44.5224 ], [ 11.2404, 44.5231 ], [ 11.2398, 44.5235 ], [ 11.239, 44.5238 ], [ 11.237, 44.5242 ], [ 11.2329, 44.5242 ], [ 11.2321, 44.5244 ], [ 11.2304, 44.5264 ], [ 11.2299, 44.5271 ], [ 11.2302, 44.5287 ], [ 11.229980935054256, 44.529488633804682 ], [ 11.24690735717641, 44.529488633804682 ] ] ] } },
{ "type": "Feature", "properties": { "value": "11.216870307922363" }, "geometry": { "type": "Polygon", "coordinates": [ [ [ 11.255890510017604, 44.529488633804682 ], [ 11.255890510017604, 44.520505480963493 ], [ 11.24690735717641, 44.520505480963493 ], [ 11.24690735717641, 44.529488633804682 ], [ 11.255890510017604, 44.529488633804682 ] ] ] } },
{ "type": "Feature", "properties": { "value": "11.427192687988281" }, "geometry": { "type": "Polygon", "coordinates": [ [ [ 11.264873662858799, 44.529488633804682 ], [ 11.264873662858799, 44.520505480963493 ], [ 11.255890510017604, 44.520505480963493 ], [ 11.255890510017604, 44.529488633804682 ], [ 11.264873662858799, 44.529488633804682 ] ] ] } },
{ "type": "Feature", "properties": { "value": "10.898785591125488" }, "geometry": { "type": "Polygon", "coordinates": [ [ [ 11.28283996854119, 44.529488633804682 ], [ 11.28283996854119, 44.520505480963493 ], [ 11.264873662858799, 44.520505480963493 ], [ 11.264873662858799, 44.529488633804682 ], [ 11.28283996854119, 44.529488633804682 ] ] ] } },
{ "type": "Feature", "properties": { "value": "11.047966003417969" }, "geometry": { "type": "Polygon", "coordinates": [ [ [ 11.291823121382386, 44.529488633804682 ], [ 11.291823121382386, 44.520505480963493 ], [ 11.28283996854119, 44.520505480963493 ], [ 11.28283996854119, 44.529488633804682 ], [ 11.291823121382386, 44.529488633804682 ] ] ] } },
{ "type": "Feature", "properties": { "value": "11.116777420043945" }, "geometry": { "type": "Polygon", "coordinates": [ [ [ 11.30080627422358, 44.529488633804682 ], [ 11.30080627422358, 44.520505480963493 ], [ 11.291823121382386, 44.520505480963493 ], [ 11.291823121382386, 44.529488633804682 ], [ 11.30080627422358, 44.529488633804682 ] ] ] } },
{ "type": "Feature", "properties": { "value": "10.578079223632812" }, "geometry": { "type": "Polygon", "coordinates": [ [ [ 11.318772579905971, 44.529488633804682 ], [ 11.318772579905971, 44.520505480963493 ], [ 11.30080627422358, 44.520505480963493 ], [ 11.30080627422358, 44.529488633804682 ], [ 11.308152482285518, 44.529488633804682 ], [ 11.3086, 44.5291 ], [ 11.308933114689728, 44.529488633804682 ], [ 11.318772579905971, 44.529488633804682 ] ] ] } },
{ "type": "Feature", "properties": { "value": "10.2240571975708" }, "geometry": { "type": "Polygon", "coordinates": [ [ [ 11.327755732747166, 44.529488633804682 ], [ 11.327755732747166, 44.520505480963493 ], [ 11.318772579905971, 44.520505480963493 ], [ 11.318772579905971, 44.529488633804682 ], [ 11.327755732747166, 44.529488633804682 ] ] ] } },
{ "type": "Feature", "properties": { "value": "10.187434196472168" }, "geometry": { "type": "Polygon", "coordinates": [ [ [ 11.33673888558836, 44.529488633804682 ], [ 11.33673888558836, 44.520505480963493 ], [ 11.327755732747166, 44.520505480963493 ], [ 11.327755732747166, 44.529488633804682 ], [ 11.33673888558836, 44.529488633804682 ] ] ] } },
{ "type": "Feature", "properties": { "value": "10.505342483520508" }, "geometry": { "type": "Polygon", "coordinates": [ [ [ 11.345722038429557, 44.529488633804682 ], [ 11.345722038429557, 44.520505480963493 ], [ 11.33673888558836, 44.520505480963493 ], [ 11.33673888558836, 44.529488633804682 ], [ 11.345722038429557, 44.529488633804682 ] ] ] } },
{ "type": "Feature", "properties": { "value": "10.932726860046387" }, "geometry": { "type": "Polygon", "coordinates": [ [ [ 11.363688344111948, 44.529488633804682 ], [ 11.363688344111948, 44.520505480963493 ], [ 11.345722038429557, 44.520505480963493 ], [ 11.345722038429557, 44.529488633804682 ], [ 11.363688344111948, 44.529488633804682 ] ] ] } },
{ "type": "Feature", "properties": { "value": "11.83983039855957" }, "geometry": { "type": "Polygon", "coordinates": [ [ [ 11.372671496953142, 44.529488633804682 ], [ 11.372671496953142, 44.520505480963493 ], [ 11.363688344111948, 44.520505480963493 ], [ 11.363688344111948, 44.529488633804682 ], [ 11.372671496953142, 44.529488633804682 ] ] ] } },
{ "type": "Feature", "properties": { "value": "12.591423988342285" }, "geometry": { "type": "Polygon", "coordinates": [ [ [ 11.381654649794337, 44.529488633804682 ], [ 11.381654649794337, 44.520505480963493 ], [ 11.372671496953142, 44.520505480963493 ], [ 11.372671496953142, 44.529488633804682 ], [ 11.381654649794337, 44.529488633804682 ] ] ] } },
{ "type": "Feature", "properties": { "value": "12.396029472351074" }, "geometry": { "type": "Polygon", "coordinates": [ [ [ 11.399620955476728, 44.529488633804682 ], [ 11.399620955476728, 44.520505480963493 ], [ 11.381654649794337, 44.520505480963493 ], [ 11.381654649794337, 44.529488633804682 ], [ 11.399620955476728, 44.529488633804682 ] ] ] } },
{ "type": "Feature", "properties": { "value": "12.264581680297852" }, "geometry": { "type": "Polygon", "coordinates": [ [ [ 11.408604108317922, 44.520505480963493 ], [ 11.399620955476728, 44.520505480963493 ], [ 11.399620955476728, 44.529488633804682 ], [ 11.408195452542795, 44.529488633804682 ], [ 11.4075, 44.5286 ], [ 11.408604108317922, 44.528135954475076 ], [ 11.408604108317922, 44.520505480963493 ] ] ] } },
{ "type": "Feature", "properties": { "value": "12.102974891662598" }, "geometry": { "type": "Polygon", "coordinates": [ [ [ 11.417587261159118, 44.520505480963493 ], [ 11.408604108317922, 44.520505480963493 ], [ 11.408604108317922, 44.528135954475076 ], [ 11.4144, 44.5257 ], [ 11.4165, 44.5268 ], [ 11.417587261159118, 44.527460122846612 ], [ 11.417587261159118, 44.520505480963493 ] ] ] } },
{ "type": "Feature", "properties": { "value": "11.744956970214844" }, "geometry": { "type": "Polygon", "coordinates": [ [ [ 11.417587261159118, 44.520505480963493 ], [ 11.417587261159118, 44.527460122846612 ], [ 11.4193, 44.5285 ], [ 11.4199, 44.5293 ], [ 11.4203, 44.5287 ], [ 11.4209, 44.5283 ], [ 11.4204, 44.5277 ], [ 11.421, 44.5268 ], [ 11.421, 44.5261 ], [ 11.4216, 44.5252 ], [ 11.4217, 44.5248 ], [ 11.4213, 44.5241 ], [ 11.425, 44.523 ], [ 11.4254, 44.5228 ], [ 11.4245, 44.5217 ], [ 11.4243, 44.5212 ], [ 11.4243, 44.5207 ], [ 11.424370734195094, 44.520505480963493 ], [ 11.417587261159118, 44.520505480963493 ] ] ] } },
{ "type": "Feature", "properties": { "value": "11.8228120803833" }, "geometry": { "type": "Polygon", "coordinates": [ [ [ 11.24690735717641, 44.520505480963493 ], [ 11.24690735717641, 44.511522328122297 ], [ 11.234151095484409, 44.511522328122297 ], [ 11.2342, 44.5116 ], [ 11.235, 44.5121 ], [ 11.2358, 44.5121 ], [ 11.2373, 44.512 ], [ 11.2376, 44.512 ], [ 11.238, 44.5123 ], [ 11.2383, 44.5127 ], [ 11.2385, 44.5139 ], [ 11.2393, 44.5155 ], [ 11.2395, 44.5172 ], [ 11.2397, 44.5176 ], [ 11.2406, 44.5186 ], [ 11.2409, 44.5192 ], [ 11.241207171991411, 44.520505480963493 ], [ 11.24690735717641, 44.520505480963493 ] ] ] } },
{ "type": "Feature", "properties": { "value": "11.57986068725586" }, "geometry": { "type": "Polygon", "coordinates": [ [ [ 11.255890510017604, 44.520505480963493 ], [ 11.255890510017604, 44.511522328122297 ], [ 11.24690735717641, 44.511522328122297 ], [ 11.24690735717641, 44.520505480963493 ], [ 11.255890510017604, 44.520505480963493 ] ] ] } },
{ "type": "Feature", "properties": { "value": "11.747422218322754" }, "geometry": { "type": "Polygon", "coordinates": [ [ [ 11.264873662858799, 44.520505480963493 ], [ 11.264873662858799, 44.511522328122297 ], [ 11.255890510017604, 44.511522328122297 ], [ 11.255890510017604, 44.520505480963493 ], [ 11.264873662858799, 44.520505480963493 ] ] ] } },
{ "type": "Feature", "properties": { "value": "11.332708358764648" }, "geometry": { "type": "Polygon", "coordinates": [ [ [ 11.273856815699995, 44.520505480963493 ], [ 11.273856815699995, 44.511522328122297 ], [ 11.264873662858799, 44.511522328122297 ], [ 11.264873662858799, 44.520505480963493 ], [ 11.273856815699995, 44.520505480963493 ] ] ] } },
{ "type": "Feature", "properties": { "value": "10.927973747253418" }, "geometry": { "type": "Polygon", "coordinates": [ [ [ 11.291823121382386, 44.520505480963493 ], [ 11.291823121382386, 44.511522328122297 ], [ 11.273856815699995, 44.511522328122297 ], [ 11.273856815699995, 44.520505480963493 ], [ 11.291823121382386, 44.520505480963493 ] ] ] } },
{ "type": "Feature", "properties": { "value": "10.300763130187988" }, "geometry": { "type": "Polygon", "coordinates": [ [ [ 11.30080627422358, 44.520505480963493 ], [ 11.30080627422358, 44.511522328122297 ], [ 11.291823121382386, 44.511522328122297 ], [ 11.291823121382386, 44.520505480963493 ], [ 11.30080627422358, 44.520505480963493 ] ] ] } },
{ "type": "Feature", "properties": { "value": "10.292122840881348" }, "geometry": { "type": "Polygon", "coordinates": [ [ [ 11.309789427064775, 44.520505480963493 ], [ 11.309789427064775, 44.511522328122297 ], [ 11.30080627422358, 44.511522328122297 ], [ 11.30080627422358, 44.520505480963493 ], [ 11.309789427064775, 44.520505480963493 ] ] ] } },
{ "type": "Feature", "properties": { "value": "10.418426513671875" }, "geometry": { "type": "Polygon", "coordinates": [ [ [ 11.327755732747166, 44.520505480963493 ], [ 11.327755732747166, 44.511522328122297 ], [ 11.309789427064775, 44.511522328122297 ], [ 11.309789427064775, 44.520505480963493 ], [ 11.327755732747166, 44.520505480963493 ] ] ] } },
{ "type": "Feature", "properties": { "value": "10.79946517944336" }, "geometry": { "type": "Polygon", "coordinates": [ [ [ 11.33673888558836, 44.520505480963493 ], [ 11.33673888558836, 44.511522328122297 ], [ 11.327755732747166, 44.511522328122297 ], [ 11.327755732747166, 44.520505480963493 ], [ 11.33673888558836, 44.520505480963493 ] ] ] } },
{ "type": "Feature", "properties": { "value": "11.09194278717041" }, "geometry": { "type": "Polygon", "coordinates": [ [ [ 11.345722038429557, 44.520505480963493 ], [ 11.345722038429557, 44.511522328122297 ], [ 11.33673888558836, 44.511522328122297 ], [ 11.33673888558836, 44.520505480963493 ], [ 11.345722038429557, 44.520505480963493 ] ] ] } },
{ "type": "Feature", "properties": { "value": "11.1209716796875" }, "geometry": { "type": "Polygon", "coordinates": [ [ [ 11.363688344111948, 44.520505480963493 ], [ 11.363688344111948, 44.511522328122297 ], [ 11.345722038429557, 44.511522328122297 ], [ 11.345722038429557, 44.520505480963493 ], [ 11.363688344111948, 44.520505480963493 ] ] ] } },
{ "type": "Feature", "properties": { "value": "11.541555404663086" }, "geometry": { "type": "Polygon", "coordinates": [ [ [ 11.372671496953142, 44.520505480963493 ], [ 11.372671496953142, 44.511522328122297 ], [ 11.363688344111948, 44.511522328122297 ], [ 11.363688344111948, 44.520505480963493 ], [ 11.372671496953142, 44.520505480963493 ] ] ] } },
{ "type": "Feature", "properties": { "value": "11.99821662902832" }, "geometry": { "type": "Polygon", "coordinates": [ [ [ 11.381654649794337, 44.520505480963493 ], [ 11.381654649794337, 44.511522328122297 ], [ 11.372671496953142, 44.511522328122297 ], [ 11.372671496953142, 44.520505480963493 ], [ 11.381654649794337, 44.520505480963493 ] ] ] } },
{ "type": "Feature", "properties": { "value": "11.423914909362793" }, "geometry": { "type": "Polygon", "coordinates": [ [ [ 11.390637802635533, 44.520505480963493 ], [ 11.390637802635533, 44.511522328122297 ], [ 11.381654649794337, 44.511522328122297 ], [ 11.381654649794337, 44.520505480963493 ], [ 11.390637802635533, 44.520505480963493 ] ] ] } },
{ "type": "Feature", "properties": { "value": "11.271560668945312" }, "geometry": { "type": "Polygon", "coordinates": [ [ [ 11.408604108317922, 44.520505480963493 ], [ 11.408604108317922, 44.511522328122297 ], [ 11.390637802635533, 44.511522328122297 ], [ 11.390637802635533, 44.520505480963493 ], [ 11.408604108317922, 44.520505480963493 ] ] ] } },
{ "type": "Feature", "properties": { "value": "11.316097259521484" }, "geometry": { "type": "Polygon", "coordinates": [ [ [ 11.417587261159118, 44.520505480963493 ], [ 11.417587261159118, 44.511522328122297 ], [ 11.408604108317922, 44.511522328122297 ], [ 11.408604108317922, 44.520505480963493 ], [ 11.417587261159118, 44.520505480963493 ] ] ] } },
{ "type": "Feature", "properties": { "value": "12.192953109741211" }, "geometry": { "type": "Polygon", "coordinates": [ [ [ 11.426570414000313, 44.511522328122297 ], [ 11.417587261159118, 44.511522328122297 ], [ 11.417587261159118, 44.520505480963493 ], [ 11.424370734195094, 44.520505480963493 ], [ 11.4247, 44.5196 ], [ 11.4264, 44.5191 ], [ 11.426570414000313, 44.519341419833779 ], [ 11.426570414000313, 44.511522328122297 ] ] ] } },
{ "type": "Feature", "properties": { "value": "12.108762741088867" }, "geometry": { "type": "Polygon", "coordinates": [ [ [ 11.426570414000313, 44.511522328122297 ], [ 11.426570414000313, 44.519341419833779 ], [ 11.427392104209524, 44.520505480963493 ], [ 11.428349684820203, 44.520505480963493 ], [ 11.4304, 44.5197 ], [ 11.427, 44.5154 ], [ 11.4337, 44.5131 ], [ 11.432671083558018, 44.511522328122297 ], [ 11.426570414000313, 44.511522328122297 ] ] ] } },
{ "type": "Feature", "properties": { "value": "12.254157066345215" }, "geometry": { "type": "Polygon", "coordinates": [ [ [ 11.237924204335213, 44.511522328122297 ], [ 11.237924204335213, 44.502728199080408 ], [ 11.2357, 44.5032 ], [ 11.237, 44.5053 ], [ 11.2359, 44.5056 ], [ 11.237, 44.5073 ], [ 11.2325, 44.5089 ], [ 11.234151095484409, 44.511522328122297 ], [ 11.237924204335213, 44.511522328122297 ] ] ] } },
{ "type": "Feature", "properties": { "value": "12.5288667678833" }, "geometry": { "type": "Polygon", "coordinates": [ [ [ 11.237924204335213, 44.511522328122297 ], [ 11.255890510017604, 44.511522328122297 ], [ 11.255890510017604, 44.5025391752811 ], [ 11.238815316531946, 44.5025391752811 ], [ 11.237924204335213, 44.502728199080408 ], [ 11.237924204335213, 44.511522328122297 ] ] ] } },
{ "type": "Feature", "properties": { "value": "12.22288990020752" }, "geometry": { "type": "Polygon", "coordinates": [ [ [ 11.264873662858799, 44.511522328122297 ], [ 11.264873662858799, 44.5025391752811 ], [ 11.255890510017604, 44.5025391752811 ], [ 11.255890510017604, 44.511522328122297 ], [ 11.264873662858799, 44.511522328122297 ] ] ] } },
{ "type": "Feature", "properties": { "value": "11.768937110900879" }, "geometry": { "type": "Polygon", "coordinates": [ [ [ 11.273856815699995, 44.511522328122297 ], [ 11.273856815699995, 44.5025391752811 ], [ 11.264873662858799, 44.5025391752811 ], [ 11.264873662858799, 44.511522328122297 ], [ 11.273856815699995, 44.511522328122297 ] ] ] } },
{ "type": "Feature", "properties": { "value": "10.527524948120117" }, "geometry": { "type": "Polygon", "coordinates": [ [ [ 11.291823121382386, 44.511522328122297 ], [ 11.291823121382386, 44.5025391752811 ], [ 11.273856815699995, 44.5025391752811 ], [ 11.273856815699995, 44.511522328122297 ], [ 11.291823121382386, 44.511522328122297 ] ] ] } },
{ "type": "Feature", "properties": { "value": "9.977871894836426" }, "geometry": { "type": "Polygon", "coordinates": [ [ [ 11.30080627422358, 44.511522328122297 ], [ 11.30080627422358, 44.5025391752811 ], [ 11.291823121382386, 44.5025391752811 ], [ 11.291823121382386, 44.511522328122297 ], [ 11.30080627422358, 44.511522328122297 ] ] ] } },
{ "type": "Feature", "properties": { "value": "10.468767166137695" }, "geometry": { "type": "Polygon", "coordinates": [ [ [ 11.309789427064775, 44.511522328122297 ], [ 11.309789427064775, 44.5025391752811 ], [ 11.30080627422358, 44.5025391752811 ], [ 11.30080627422358, 44.511522328122297 ], [ 11.309789427064775, 44.511522328122297 ] ] ] } },
{ "type": "Feature", "properties": { "value": "10.901102066040039" }, "geometry": { "type": "Polygon", "coordinates": [ [ [ 11.318772579905971, 44.511522328122297 ], [ 11.318772579905971, 44.5025391752811 ], [ 11.309789427064775, 44.5025391752811 ], [ 11.309789427064775, 44.511522328122297 ], [ 11.318772579905971, 44.511522328122297 ] ] ] } },
{ "type": "Feature", "properties": { "value": "11.030792236328125" }, "geometry": { "type": "Polygon", "coordinates": [ [ [ 11.33673888558836, 44.511522328122297 ], [ 11.33673888558836, 44.5025391752811 ], [ 11.318772579905971, 44.5025391752811 ], [ 11.318772579905971, 44.511522328122297 ], [ 11.33673888558836, 44.511522328122297 ] ] ] } },
{ "type": "Feature", "properties": { "value": "11.198317527770996" }, "geometry": { "type": "Polygon", "coordinates": [ [ [ 11.345722038429557, 44.511522328122297 ], [ 11.345722038429557, 44.5025391752811 ], [ 11.33673888558836, 44.5025391752811 ], [ 11.33673888558836, 44.511522328122297 ], [ 11.345722038429557, 44.511522328122297 ] ] ] } },
{ "type": "Feature", "properties": { "value": "11.28837776184082" }, "geometry": { "type": "Polygon", "coordinates": [ [ [ 11.354705191270751, 44.511522328122297 ], [ 11.354705191270751, 44.5025391752811 ], [ 11.345722038429557, 44.5025391752811 ], [ 11.345722038429557, 44.511522328122297 ], [ 11.354705191270751, 44.511522328122297 ] ] ] } },
{ "type": "Feature", "properties": { "value": "11.038783073425293" }, "geometry": { "type": "Polygon", "coordinates": [ [ [ 11.372671496953142, 44.511522328122297 ], [ 11.372671496953142, 44.5025391752811 ], [ 11.354705191270751, 44.5025391752811 ], [ 11.354705191270751, 44.511522328122297 ], [ 11.372671496953142, 44.511522328122297 ] ] ] } },
{ "type": "Feature", "properties": { "value": "11.01313591003418" }, "geometry": { "type": "Polygon", "coordinates": [ [ [ 11.381654649794337, 44.511522328122297 ], [ 11.381654649794337, 44.5025391752811 ], [ 11.372671496953142, 44.5025391752811 ], [ 11.372671496953142, 44.511522328122297 ], [ 11.381654649794337, 44.511522328122297 ] ] ] } },
{ "type": "Feature", "properties": { "value": "10.755682945251465" }, "geometry": { "type": "Polygon", "coordinates": [ [ [ 11.390637802635533, 44.511522328122297 ], [ 11.390637802635533, 44.5025391752811 ], [ 11.381654649794337, 44.5025391752811 ], [ 11.381654649794337, 44.511522328122297 ], [ 11.390637802635533, 44.511522328122297 ] ] ] } },
{ "type": "Feature", "properties": { "value": "10.841717720031738" }, "geometry": { "type": "Polygon", "coordinates": [ [ [ 11.408604108317922, 44.511522328122297 ], [ 11.408604108317922, 44.5025391752811 ], [ 11.390637802635533, 44.5025391752811 ], [ 11.390637802635533, 44.511522328122297 ], [ 11.408604108317922, 44.511522328122297 ] ] ] } },
{ "type": "Feature", "properties": { "value": "11.558051109313965" }, "geometry": { "type": "Polygon", "coordinates": [ [ [ 11.417587261159118, 44.511522328122297 ], [ 11.417587261159118, 44.5025391752811 ], [ 11.408604108317922, 44.5025391752811 ], [ 11.408604108317922, 44.511522328122297 ], [ 11.417587261159118, 44.511522328122297 ] ] ] } },
{ "type": "Feature", "properties": { "value": "11.848175048828125" }, "geometry": { "type": "Polygon", "coordinates": [ [ [ 11.417587261159118, 44.5025391752811 ], [ 11.417587261159118, 44.511522328122297 ], [ 11.426570414000313, 44.511522328122297 ], [ 11.426570414000313, 44.503700497790248 ], [ 11.426100943198742, 44.5025391752811 ], [ 11.417587261159118, 44.5025391752811 ] ] ] } },
{ "type": "Feature", "properties": { "value": "12.419262886047363" }, "geometry": { "type": "Polygon", "coordinates": [ [ [ 11.426570414000313, 44.511522328122297 ], [ 11.432671083558018, 44.511522328122297 ], [ 11.4322, 44.5108 ], [ 11.4289, 44.5065 ], [ 11.4283, 44.5058 ], [ 11.4275, 44.506 ], [ 11.426570414000313, 44.503700497790248 ], [ 11.426570414000313, 44.511522328122297 ] ] ] } },
{ "type": "Feature", "properties": { "value": "12.39472770690918" }, "geometry": { "type": "Polygon", "coordinates": [ [ [ 11.24690735717641, 44.5025391752811 ], [ 11.24690735717641, 44.501248917300295 ], [ 11.2462, 44.5011 ], [ 11.2422, 44.5012 ], [ 11.2407, 44.5017 ], [ 11.239, 44.5025 ], [ 11.238815316531946, 44.5025391752811 ], [ 11.24690735717641, 44.5025391752811 ] ] ] } },
{ "type": "Feature", "properties": { "value": "12.538222312927246" }, "geometry": { "type": "Polygon", "coordinates": [ [ [ 11.24690735717641, 44.5025391752811 ], [ 11.264873662858799, 44.5025391752811 ], [ 11.264873662858799, 44.493556022439904 ], [ 11.25529751402494, 44.493556022439904 ], [ 11.2562, 44.495 ], [ 11.2569, 44.4974 ], [ 11.2516, 44.4971 ], [ 11.2476, 44.4964 ], [ 11.2486, 44.4987 ], [ 11.2501, 44.5011 ], [ 11.2481, 44.5015 ], [ 11.24690735717641, 44.501248917300295 ], [ 11.24690735717641, 44.5025391752811 ] ] ] } },
{ "type": "Feature", "properties": { "value": "11.717820167541504" }, "geometry": { "type": "Polygon", "coordinates": [ [ [ 11.273856815699995, 44.5025391752811 ], [ 11.273856815699995, 44.493556022439904 ], [ 11.264873662858799, 44.493556022439904 ], [ 11.264873662858799, 44.5025391752811 ], [ 11.273856815699995, 44.5025391752811 ] ] ] } },
{ "type": "Feature", "properties": { "value": "10.34911060333252" }, "geometry": { "type": "Polygon", "coordinates": [ [ [ 11.28283996854119, 44.5025391752811 ], [ 11.28283996854119, 44.493556022439904 ], [ 11.273856815699995, 44.493556022439904 ], [ 11.273856815699995, 44.5025391752811 ], [ 11.28283996854119, 44.5025391752811 ] ] ] } },
{ "type": "Feature", "properties": { "value": "9.545255661010742" }, "geometry": { "type": "Polygon", "coordinates": [ [ [ 11.30080627422358, 44.5025391752811 ], [ 11.30080627422358, 44.493556022439904 ], [ 11.28283996854119, 44.493556022439904 ], [ 11.28283996854119, 44.5025391752811 ], [ 11.30080627422358, 44.5025391752811 ] ] ] } },
{ "type": "Feature", "properties": { "value": "9.892895698547363" }, "geometry": { "type": "Polygon", "coordinates": [ [ [ 11.309789427064775, 44.5025391752811 ], [ 11.309789427064775, 44.493556022439904 ], [ 11.30080627422358, 44.493556022439904 ], [ 11.30080627422358, 44.5025391752811 ], [ 11.309789427064775, 44.5025391752811 ] ] ] } },
{ "type": "Feature", "properties": { "value": "10.282353401184082" }, "geometry": { "type": "Polygon", "coordinates": [ [ [ 11.318772579905971, 44.5025391752811 ], [ 11.318772579905971, 44.493556022439904 ], [ 11.309789427064775, 44.493556022439904 ], [ 11.309789427064775, 44.5025391752811 ], [ 11.318772579905971, 44.5025391752811 ] ] ] } },
{ "type": "Feature", "properties": { "value": "10.101635932922363" }, "geometry": { "type": "Polygon", "coordinates": [ [ [ 11.33673888558836, 44.5025391752811 ], [ 11.33673888558836, 44.493556022439904 ], [ 11.318772579905971, 44.493556022439904 ], [ 11.318772579905971, 44.5025391752811 ], [ 11.33673888558836, 44.5025391752811 ] ] ] } },
{ "type": "Feature", "properties": { "value": "10.672577857971191" }, "geometry": { "type": "Polygon", "coordinates": [ [ [ 11.345722038429557, 44.5025391752811 ], [ 11.345722038429557, 44.493556022439904 ], [ 11.33673888558836, 44.493556022439904 ], [ 11.33673888558836, 44.5025391752811 ], [ 11.345722038429557, 44.5025391752811 ] ] ] } },
{ "type": "Feature", "properties": { "value": "11.332438468933105" }, "geometry": { "type": "Polygon", "coordinates": [ [ [ 11.354705191270751, 44.5025391752811 ], [ 11.354705191270751, 44.493556022439904 ], [ 11.345722038429557, 44.493556022439904 ], [ 11.345722038429557, 44.5025391752811 ], [ 11.354705191270751, 44.5025391752811 ] ] ] } },
{ "type": "Feature", "properties": { "value": "11.241827964782715" }, "geometry": { "type": "Polygon", "coordinates": [ [ [ 11.363688344111948, 44.5025391752811 ], [ 11.363688344111948, 44.493556022439904 ], [ 11.354705191270751, 44.493556022439904 ], [ 11.354705191270751, 44.5025391752811 ], [ 11.363688344111948, 44.5025391752811 ] ] ] } },
{ "type": "Feature", "properties": { "value": "10.871492385864258" }, "geometry": { "type": "Polygon", "coordinates": [ [ [ 11.381654649794337, 44.5025391752811 ], [ 11.381654649794337, 44.493556022439904 ], [ 11.363688344111948, 44.493556022439904 ], [ 11.363688344111948, 44.5025391752811 ], [ 11.381654649794337, 44.5025391752811 ] ] ] } },
{ "type": "Feature", "properties": { "value": "10.50426959991455" }, "geometry": { "type": "Polygon", "coordinates": [ [ [ 11.390637802635533, 44.5025391752811 ], [ 11.390637802635533, 44.493556022439904 ], [ 11.381654649794337, 44.493556022439904 ], [ 11.381654649794337, 44.5025391752811 ], [ 11.390637802635533, 44.5025391752811 ] ] ] } },
{ "type": "Feature", "properties": { "value": "10.97319507598877" }, "geometry": { "type": "Polygon", "coordinates": [ [ [ 11.399620955476728, 44.5025391752811 ], [ 11.399620955476728, 44.493556022439904 ], [ 11.390637802635533, 44.493556022439904 ], [ 11.390637802635533, 44.5025391752811 ], [ 11.399620955476728, 44.5025391752811 ] ] ] } },
{ "type": "Feature", "properties": { "value": "11.447023391723633" }, "geometry": { "type": "Polygon", "coordinates": [ [ [ 11.417587261159118, 44.5025391752811 ], [ 11.417587261159118, 44.493556022439904 ], [ 11.399620955476728, 44.493556022439904 ], [ 11.399620955476728, 44.5025391752811 ], [ 11.417587261159118, 44.5025391752811 ] ] ] } },
{ "type": "Feature", "properties": { "value": "12.123679161071777" }, "geometry": { "type": "Polygon", "coordinates": [ [ [ 11.417587261159118, 44.493556022439904 ], [ 11.417587261159118, 44.5025391752811 ], [ 11.426100943198742, 44.5025391752811 ], [ 11.4256, 44.5013 ], [ 11.4251, 44.5006 ], [ 11.4231, 44.5012 ], [ 11.4225, 44.4984 ], [ 11.4205, 44.4984 ], [ 11.4196, 44.4971 ], [ 11.4193, 44.4967 ], [ 11.4216, 44.4962 ], [ 11.419384775557758, 44.493556022439904 ], [ 11.417587261159118, 44.493556022439904 ] ] ] } },
{ "type": "Feature", "properties": { "value": "11.598512649536133" }, "geometry": { "type": "Polygon", "coordinates": [ [ [ 11.255890510017604, 44.493556022439904 ], [ 11.264873662858799, 44.493556022439904 ], [ 11.264873662858799, 44.490716441845798 ], [ 11.2617, 44.4914 ], [ 11.255890510017604, 44.493187535379199 ], [ 11.255890510017604, 44.493556022439904 ] ] ] } },
{ "type": "Feature", "properties": { "value": "11.176390647888184" }, "geometry": { "type": "Polygon", "coordinates": [ [ [ 11.264873662858799, 44.493556022439904 ], [ 11.273856815699995, 44.493556022439904 ], [ 11.273856815699995, 44.490321113729031 ], [ 11.273, 44.4901 ], [ 11.2722, 44.4907 ], [ 11.2688, 44.4911 ], [ 11.2682, 44.49 ], [ 11.264873662858799, 44.490716441845798 ], [ 11.264873662858799, 44.493556022439904 ] ] ] } },
{ "type": "Feature", "properties": { "value": "10.353531837463379" }, "geometry": { "type": "Polygon", "coordinates": [ [ [ 11.273856815699995, 44.493556022439904 ], [ 11.28283996854119, 44.493556022439904 ], [ 11.28283996854119, 44.489639968541191 ], [ 11.2824, 44.4892 ], [ 11.2815, 44.4887 ], [ 11.2784, 44.4912 ], [ 11.2761, 44.4909 ], [ 11.273856815699995, 44.490321113729031 ], [ 11.273856815699995, 44.493556022439904 ] ] ] } },
{ "type": "Feature", "properties": { "value": "9.012591361999512" }, "geometry": { "type": "Polygon", "coordinates": [ [ [ 11.28283996854119, 44.493556022439904 ], [ 11.291823121382386, 44.493556022439904 ], [ 11.291823121382386, 44.489182915862756 ], [ 11.2892, 44.4886 ], [ 11.2882, 44.4881 ], [ 11.2872, 44.4882 ], [ 11.2861, 44.4883 ], [ 11.2859, 44.4882 ], [ 11.2847, 44.4896 ], [ 11.283, 44.4898 ], [ 11.28283996854119, 44.489639968541191 ], [ 11.28283996854119, 44.493556022439904 ] ] ] } },
{ "type": "Feature", "properties": { "value": "8.564473152160645" }, "geometry": { "type": "Polygon", "coordinates": [ [ [ 11.291823121382386, 44.493556022439904 ], [ 11.309789427064775, 44.493556022439904 ], [ 11.309789427064775, 44.484572869598708 ], [ 11.296751233200059, 44.484572869598708 ], [ 11.2967, 44.4857 ], [ 11.2948, 44.4877 ], [ 11.295, 44.4878 ], [ 11.2946, 44.4898 ], [ 11.291823121382386, 44.489182915862756 ], [ 11.291823121382386, 44.493556022439904 ] ] ] } },
{ "type": "Feature", "properties": { "value": "8.574300765991211" }, "geometry": { "type": "Polygon", "coordinates": [ [ [ 11.318772579905971, 44.493556022439904 ], [ 11.318772579905971, 44.484572869598708 ], [ 11.309789427064775, 44.484572869598708 ], [ 11.309789427064775, 44.493556022439904 ], [ 11.318772579905971, 44.493556022439904 ] ] ] } },
{ "type": "Feature", "properties": { "value": "8.49361515045166" }, "geometry": { "type": "Polygon", "coordinates": [ [ [ 11.327755732747166, 44.493556022439904 ], [ 11.327755732747166, 44.484572869598708 ], [ 11.318772579905971, 44.484572869598708 ], [ 11.318772579905971, 44.493556022439904 ], [ 11.327755732747166, 44.493556022439904 ] ] ] } },
{ "type": "Feature", "properties": { "value": "8.967439651489258" }, "geometry": { "type": "Polygon", "coordinates": [ [ [ 11.345722038429557, 44.493556022439904 ], [ 11.345722038429557, 44.484572869598708 ], [ 11.327755732747166, 44.484572869598708 ], [ 11.327755732747166, 44.493556022439904 ], [ 11.345722038429557, 44.493556022439904 ] ] ] } },
{ "type": "Feature", "properties": { "value": "9.78591251373291" }, "geometry": { "type": "Polygon", "coordinates": [ [ [ 11.354705191270751, 44.493556022439904 ], [ 11.354705191270751, 44.484572869598708 ], [ 11.345722038429557, 44.484572869598708 ], [ 11.345722038429557, 44.493556022439904 ], [ 11.354705191270751, 44.493556022439904 ] ] ] } },
{ "type": "Feature", "properties": { "value": "10.344743728637695" }, "geometry": { "type": "Polygon", "coordinates": [ [ [ 11.363688344111948, 44.493556022439904 ], [ 11.363688344111948, 44.484572869598708 ], [ 11.354705191270751, 44.484572869598708 ], [ 11.354705191270751, 44.493556022439904 ], [ 11.363688344111948, 44.493556022439904 ] ] ] } },
{ "type": "Feature", "properties": { "value": "10.322793960571289" }, "geometry": { "type": "Polygon", "coordinates": [ [ [ 11.381654649794337, 44.493556022439904 ], [ 11.381654649794337, 44.484572869598708 ], [ 11.363688344111948, 44.484572869598708 ], [ 11.363688344111948, 44.493556022439904 ], [ 11.381654649794337, 44.493556022439904 ] ] ] } },
{ "type": "Feature", "properties": { "value": "10.48410701751709" }, "geometry": { "type": "Polygon", "coordinates": [ [ [ 11.390637802635533, 44.493556022439904 ], [ 11.390637802635533, 44.484572869598708 ], [ 11.381654649794337, 44.484572869598708 ], [ 11.381654649794337, 44.493556022439904 ], [ 11.390637802635533, 44.493556022439904 ] ] ] } },
{ "type": "Feature", "properties": { "value": "10.722356796264648" }, "geometry": { "type": "Polygon", "coordinates": [ [ [ 11.399620955476728, 44.493556022439904 ], [ 11.399620955476728, 44.484572869598708 ], [ 11.390637802635533, 44.484572869598708 ], [ 11.390637802635533, 44.493556022439904 ], [ 11.399620955476728, 44.493556022439904 ] ] ] } },
{ "type": "Feature", "properties": { "value": "11.157743453979492" }, "geometry": { "type": "Polygon", "coordinates": [ [ [ 11.408604108317922, 44.493556022439904 ], [ 11.408604108317922, 44.484572869598708 ], [ 11.399620955476728, 44.484572869598708 ], [ 11.399620955476728, 44.493556022439904 ], [ 11.408604108317922, 44.493556022439904 ] ] ] } },
{ "type": "Feature", "properties": { "value": "11.27751350402832" }, "geometry": { "type": "Polygon", "coordinates": [ [ [ 11.408604108317922, 44.484572869598708 ], [ 11.408604108317922, 44.493556022439904 ], [ 11.419384775557758, 44.493556022439904 ], [ 11.4185, 44.4925 ], [ 11.4173, 44.4906 ], [ 11.42, 44.4897 ], [ 11.4241, 44.489 ], [ 11.4246, 44.4902 ], [ 11.426570414000313, 44.489543195333226 ], [ 11.426570414000313, 44.488144822167165 ], [ 11.4261, 44.4874 ], [ 11.425, 44.4871 ], [ 11.424, 44.4858 ], [ 11.4243, 44.4855 ], [ 11.4257, 44.4847 ], [ 11.425547443518452, 44.484572869598708 ], [ 11.408604108317922, 44.484572869598708 ] ] ] } },
{ "type": "Feature", "properties": { "value": "8.856679916381836" }, "geometry": { "type": "Polygon", "coordinates": [ [ [ 11.291823121382386, 44.475589716757511 ], [ 11.288035886703005, 44.475589716757511 ], [ 11.2884, 44.4765 ], [ 11.2903, 44.4764 ], [ 11.2915, 44.4759 ], [ 11.2918, 44.4762 ], [ 11.2911, 44.4771 ], [ 11.2901, 44.4775 ], [ 11.2902, 44.4776 ], [ 11.2913, 44.4787 ], [ 11.2917, 44.4792 ], [ 11.2909, 44.4792 ], [ 11.2903, 44.4797 ], [ 11.2907, 44.48 ], [ 11.2894, 44.4811 ], [ 11.2905, 44.4814 ], [ 11.2909, 44.482 ], [ 11.2909, 44.4825 ], [ 11.291, 44.4827 ], [ 11.2915, 44.4826 ], [ 11.291823121382386, 44.482398049136009 ], [ 11.291823121382386, 44.475589716757511 ] ] ] } },
{ "type": "Feature", "properties": { "value": "7.714458465576172" }, "geometry": { "type": "Polygon", "coordinates": [ [ [ 11.309789427064775, 44.484572869598708 ], [ 11.309789427064775, 44.475589716757511 ], [ 11.291823121382386, 44.475589716757511 ], [ 11.291823121382386, 44.482398049136009 ], [ 11.2923, 44.4821 ], [ 11.2934, 44.4818 ], [ 11.2945, 44.482 ], [ 11.2948, 44.4826 ], [ 11.2949, 44.4827 ], [ 11.2967, 44.4831 ], [ 11.2968, 44.4835 ], [ 11.296751233200059, 44.484572869598708 ], [ 11.309789427064775, 44.484572869598708 ] ] ] } },
{ "type": "Feature", "properties": { "value": "7.323750019073486" }, "geometry": { "type": "Polygon", "coordinates": [ [ [ 11.318772579905971, 44.484572869598708 ], [ 11.318772579905971, 44.475589716757511 ], [ 11.309789427064775, 44.475589716757511 ], [ 11.309789427064775, 44.484572869598708 ], [ 11.318772579905971, 44.484572869598708 ] ] ] } },
{ "type": "Feature", "properties": { "value": "7.274602890014648" }, "geometry": { "type": "Polygon", "coordinates": [ [ [ 11.327755732747166, 44.484572869598708 ], [ 11.327755732747166, 44.475589716757511 ], [ 11.318772579905971, 44.475589716757511 ], [ 11.318772579905971, 44.484572869598708 ], [ 11.327755732747166, 44.484572869598708 ] ] ] } },
{ "type": "Feature", "properties": { "value": "7.538214206695557" }, "geometry": { "type": "Polygon", "coordinates": [ [ [ 11.33673888558836, 44.484572869598708 ], [ 11.33673888558836, 44.475589716757511 ], [ 11.327755732747166, 44.475589716757511 ], [ 11.327755732747166, 44.484572869598708 ], [ 11.33673888558836, 44.484572869598708 ] ] ] } },
{ "type": "Feature", "properties": { "value": "8.114744186401367" }, "geometry": { "type": "Polygon", "coordinates": [ [ [ 11.354705191270751, 44.484572869598708 ], [ 11.354705191270751, 44.475589716757511 ], [ 11.33673888558836, 44.475589716757511 ], [ 11.33673888558836, 44.484572869598708 ], [ 11.354705191270751, 44.484572869598708 ] ] ] } },
{ "type": "Feature", "properties": { "value": "8.495498657226562" }, "geometry": { "type": "Polygon", "coordinates": [ [ [ 11.363688344111948, 44.484572869598708 ], [ 11.363688344111948, 44.475589716757511 ], [ 11.354705191270751, 44.475589716757511 ], [ 11.354705191270751, 44.484572869598708 ], [ 11.363688344111948, 44.484572869598708 ] ] ] } },
{ "type": "Feature", "properties": { "value": "9.202107429504395" }, "geometry": { "type": "Polygon", "coordinates": [ [ [ 11.372671496953142, 44.484572869598708 ], [ 11.372671496953142, 44.475589716757511 ], [ 11.363688344111948, 44.475589716757511 ], [ 11.363688344111948, 44.484572869598708 ], [ 11.372671496953142, 44.484572869598708 ] ] ] } },
{ "type": "Feature", "properties": { "value": "9.958353042602539" }, "geometry": { "type": "Polygon", "coordinates": [ [ [ 11.390637802635533, 44.484572869598708 ], [ 11.390637802635533, 44.475589716757511 ], [ 11.372671496953142, 44.475589716757511 ], [ 11.372671496953142, 44.484572869598708 ], [ 11.390637802635533, 44.484572869598708 ] ] ] } },
{ "type": "Feature", "properties": { "value": "10.569305419921875" }, "geometry": { "type": "Polygon", "coordinates": [ [ [ 11.399620955476728, 44.484572869598708 ], [ 11.399620955476728, 44.475589716757511 ], [ 11.390637802635533, 44.475589716757511 ], [ 11.390637802635533, 44.484572869598708 ], [ 11.399620955476728, 44.484572869598708 ] ] ] } },
{ "type": "Feature", "properties": { "value": "11.025227546691895" }, "geometry": { "type": "Polygon", "coordinates": [ [ [ 11.399620955476728, 44.475589716757511 ], [ 11.399620955476728, 44.484572869598708 ], [ 11.408604108317922, 44.484572869598708 ], [ 11.408604108317922, 44.478033761748385 ], [ 11.4081, 44.4775 ], [ 11.4056, 44.4766 ], [ 11.404168765406475, 44.475589716757511 ], [ 11.399620955476728, 44.475589716757511 ] ] ] } },
{ "type": "Feature", "properties": { "value": "11.026684761047363" }, "geometry": { "type": "Polygon", "coordinates": [ [ [ 11.408604108317922, 44.484572869598708 ], [ 11.425547443518452, 44.484572869598708 ], [ 11.4251, 44.4842 ], [ 11.4228, 44.4839 ], [ 11.4169, 44.4841 ], [ 11.416, 44.4838 ], [ 11.415, 44.4825 ], [ 11.4151, 44.482 ], [ 11.4147, 44.4817 ], [ 11.4124, 44.481 ], [ 11.4098, 44.4793 ], [ 11.408604108317922, 44.478033761748385 ], [ 11.408604108317922, 44.484572869598708 ] ] ] } },
{ "type": "Feature", "properties": { "value": "8.827927589416504" }, "geometry": { "type": "MultiPolygon", "coordinates": [ [ [ [ 11.291823121382386, 44.466606563916322 ], [ 11.290470745519151, 44.466606563916322 ], [ 11.2907, 44.4676 ], [ 11.2916, 44.4679 ], [ 11.2906, 44.4683 ], [ 11.2908, 44.4685 ], [ 11.2912, 44.4688 ], [ 11.291823121382386, 44.4688 ], [ 11.291823121382386, 44.466606563916322 ] ] ], [ [ [ 11.291823121382386, 44.475589716757511 ], [ 11.291823121382386, 44.470545004134415 ], [ 11.2916, 44.4708 ], [ 11.2911, 44.4708 ], [ 11.2915, 44.4702 ], [ 11.2903, 44.4697 ], [ 11.2896, 44.4706 ], [ 11.2895, 44.4708 ], [ 11.2896, 44.4721 ], [ 11.2907, 44.4721 ], [ 11.2901, 44.4735 ], [ 11.2906, 44.4735 ], [ 11.291, 44.4738 ], [ 11.2897, 44.4746 ], [ 11.2887, 44.4749 ], [ 11.288, 44.4754 ], [ 11.288, 44.4755 ], [ 11.288035886703005, 44.475589716757511 ], [ 11.291823121382386, 44.475589716757511 ] ] ] ] } },
{ "type": "Feature", "properties": { "value": "8.11992073059082" }, "geometry": { "type": "Polygon", "coordinates": [ [ [ 11.291823121382386, 44.475589716757511 ], [ 11.30080627422358, 44.475589716757511 ], [ 11.30080627422358, 44.466606563916322 ], [ 11.291823121382386, 44.466606563916322 ], [ 11.291823121382386, 44.4688 ], [ 11.2927, 44.4688 ], [ 11.2927, 44.4694 ], [ 11.2923, 44.47 ], [ 11.291823121382386, 44.470545004134415 ], [ 11.291823121382386, 44.475589716757511 ] ] ] } },
{ "type": "Feature", "properties": { "value": "7.900277614593506" }, "geometry": { "type": "Polygon", "coordinates": [ [ [ 11.318772579905971, 44.475589716757511 ], [ 11.318772579905971, 44.466606563916322 ], [ 11.30080627422358, 44.466606563916322 ], [ 11.30080627422358, 44.475589716757511 ], [ 11.318772579905971, 44.475589716757511 ] ] ] } },
{ "type": "Feature", "properties": { "value": "7.324479103088379" }, "geometry": { "type": "Polygon", "coordinates": [ [ [ 11.327755732747166, 44.475589716757511 ], [ 11.327755732747166, 44.466606563916322 ], [ 11.318772579905971, 44.466606563916322 ], [ 11.318772579905971, 44.475589716757511 ], [ 11.327755732747166, 44.475589716757511 ] ] ] } },
{ "type": "Feature", "properties": { "value": "7.406591415405273" }, "geometry": { "type": "Polygon", "coordinates": [ [ [ 11.33673888558836, 44.475589716757511 ], [ 11.33673888558836, 44.466606563916322 ], [ 11.327755732747166, 44.466606563916322 ], [ 11.327755732747166, 44.475589716757511 ], [ 11.33673888558836, 44.475589716757511 ] ] ] } },
{ "type": "Feature", "properties": { "value": "7.916839122772217" }, "geometry": { "type": "Polygon", "coordinates": [ [ [ 11.354705191270751, 44.475589716757511 ], [ 11.354705191270751, 44.466606563916322 ], [ 11.33673888558836, 44.466606563916322 ], [ 11.33673888558836, 44.475589716757511 ], [ 11.354705191270751, 44.475589716757511 ] ] ] } },
{ "type": "Feature", "properties": { "value": "8.58011245727539" }, "geometry": { "type": "Polygon", "coordinates": [ [ [ 11.363688344111948, 44.475589716757511 ], [ 11.363688344111948, 44.466606563916322 ], [ 11.354705191270751, 44.466606563916322 ], [ 11.354705191270751, 44.475589716757511 ], [ 11.363688344111948, 44.475589716757511 ] ] ] } },
{ "type": "Feature", "properties": { "value": "8.897128105163574" }, "geometry": { "type": "Polygon", "coordinates": [ [ [ 11.372671496953142, 44.475589716757511 ], [ 11.372671496953142, 44.466606563916322 ], [ 11.363688344111948, 44.466606563916322 ], [ 11.363688344111948, 44.475589716757511 ], [ 11.372671496953142, 44.475589716757511 ] ] ] } },
{ "type": "Feature", "properties": { "value": "9.659299850463867" }, "geometry": { "type": "Polygon", "coordinates": [ [ [ 11.381654649794337, 44.475589716757511 ], [ 11.381654649794337, 44.466606563916322 ], [ 11.372671496953142, 44.466606563916322 ], [ 11.372671496953142, 44.475589716757511 ], [ 11.381654649794337, 44.475589716757511 ] ] ] } },
{ "type": "Feature", "properties": { "value": "10.158164024353027" }, "geometry": { "type": "Polygon", "coordinates": [ [ [ 11.381654649794337, 44.466606563916322 ], [ 11.381654649794337, 44.475589716757511 ], [ 11.399620955476728, 44.475589716757511 ], [ 11.399620955476728, 44.470739368433122 ], [ 11.3994, 44.4705 ], [ 11.3989, 44.4699 ], [ 11.3987, 44.4691 ], [ 11.3983, 44.4688 ], [ 11.3974, 44.4683 ], [ 11.396, 44.4682 ], [ 11.3953, 44.4683 ], [ 11.3945, 44.468 ], [ 11.3954, 44.4673 ], [ 11.396455228822992, 44.466606563916322 ], [ 11.381654649794337, 44.466606563916322 ] ] ] } },
{ "type": "Feature", "properties": { "value": "10.158459663391113" }, "geometry": { "type": "Polygon", "coordinates": [ [ [ 11.399620955476728, 44.475589716757511 ], [ 11.404168765406475, 44.475589716757511 ], [ 11.4039, 44.4754 ], [ 11.4026, 44.4742 ], [ 11.4006, 44.4718 ], [ 11.399620955476728, 44.470739368433122 ], [ 11.399620955476728, 44.475589716757511 ] ] ] } },
{ "type": "Feature", "properties": { "value": "9.475456237792969" }, "geometry": { "type": "MultiPolygon", "coordinates": [ [ [ [ 11.291823121382386, 44.457623411075126 ], [ 11.2863, 44.457623411075126 ], [ 11.2863, 44.4585 ], [ 11.2866, 44.4591 ], [ 11.2881, 44.4593 ], [ 11.2886, 44.4595 ], [ 11.291823121382386, 44.460484842644618 ], [ 11.291823121382386, 44.457623411075126 ] ] ], [ [ [ 11.291823121382386, 44.466606563916322 ], [ 11.291823121382386, 44.462206127170568 ], [ 11.291, 44.4627 ], [ 11.2896, 44.4642 ], [ 11.2893, 44.4651 ], [ 11.2891, 44.4662 ], [ 11.2893, 44.4665 ], [ 11.2904, 44.4663 ], [ 11.290470745519151, 44.466606563916322 ], [ 11.291823121382386, 44.466606563916322 ] ] ] ] } },
{ "type": "Feature", "properties": { "value": "8.562565803527832" }, "geometry": { "type": "Polygon", "coordinates": [ [ [ 11.291823121382386, 44.466606563916322 ], [ 11.30080627422358, 44.466606563916322 ], [ 11.30080627422358, 44.457623411075126 ], [ 11.291823121382386, 44.457623411075126 ], [ 11.291823121382386, 44.460484842644618 ], [ 11.2922, 44.4606 ], [ 11.2919, 44.461 ], [ 11.292, 44.4621 ], [ 11.291823121382386, 44.462206127170568 ], [ 11.291823121382386, 44.466606563916322 ] ] ] } },
{ "type": "Feature", "properties": { "value": "8.50736141204834" }, "geometry": { "type": "Polygon", "coordinates": [ [ [ 11.309789427064775, 44.466606563916322 ], [ 11.309789427064775, 44.457623411075126 ], [ 11.30080627422358, 44.457623411075126 ], [ 11.30080627422358, 44.466606563916322 ], [ 11.309789427064775, 44.466606563916322 ] ] ] } },
{ "type": "Feature", "properties": { "value": "8.031937599182129" }, "geometry": { "type": "Polygon", "coordinates": [ [ [ 11.327755732747166, 44.466606563916322 ], [ 11.327755732747166, 44.457623411075126 ], [ 11.309789427064775, 44.457623411075126 ], [ 11.309789427064775, 44.466606563916322 ], [ 11.327755732747166, 44.466606563916322 ] ] ] } },
{ "type": "Feature", "properties": { "value": "7.866031646728516" }, "geometry": { "type": "Polygon", "coordinates": [ [ [ 11.33673888558836, 44.466606563916322 ], [ 11.33673888558836, 44.457623411075126 ], [ 11.327755732747166, 44.457623411075126 ], [ 11.327755732747166, 44.466606563916322 ], [ 11.33673888558836, 44.466606563916322 ] ] ] } },
{ "type": "Feature", "properties": { "value": "8.136922836303711" }, "geometry": { "type": "Polygon", "coordinates": [ [ [ 11.345722038429557, 44.466606563916322 ], [ 11.345722038429557, 44.457623411075126 ], [ 11.33673888558836, 44.457623411075126 ], [ 11.33673888558836, 44.466606563916322 ], [ 11.345722038429557, 44.466606563916322 ] ] ] } },
{ "type": "Feature", "properties": { "value": "8.72713565826416" }, "geometry": { "type": "Polygon", "coordinates": [ [ [ 11.363688344111948, 44.466606563916322 ], [ 11.363688344111948, 44.457623411075126 ], [ 11.345722038429557, 44.457623411075126 ], [ 11.345722038429557, 44.466606563916322 ], [ 11.363688344111948, 44.466606563916322 ] ] ] } },
{ "type": "Feature", "properties": { "value": "8.604904174804688" }, "geometry": { "type": "Polygon", "coordinates": [ [ [ 11.372671496953142, 44.466606563916322 ], [ 11.372671496953142, 44.457623411075126 ], [ 11.363688344111948, 44.457623411075126 ], [ 11.363688344111948, 44.466606563916322 ], [ 11.372671496953142, 44.466606563916322 ] ] ] } },
{ "type": "Feature", "properties": { "value": "9.204753875732422" }, "geometry": { "type": "Polygon", "coordinates": [ [ [ 11.372671496953142, 44.457623411075126 ], [ 11.372671496953142, 44.466606563916322 ], [ 11.381654649794337, 44.466606563916322 ], [ 11.381654649794337, 44.459127907483584 ], [ 11.3793, 44.46 ], [ 11.3784, 44.4598 ], [ 11.3775, 44.4594 ], [ 11.3751, 44.459 ], [ 11.3746, 44.4588 ], [ 11.3742, 44.4581 ], [ 11.374279431487478, 44.457623411075126 ], [ 11.372671496953142, 44.457623411075126 ] ] ] } },
{ "type": "Feature", "properties": { "value": "9.720398902893066" }, "geometry": { "type": "Polygon", "coordinates": [ [ [ 11.381654649794337, 44.466606563916322 ], [ 11.396455228822992, 44.466606563916322 ], [ 11.3989, 44.465 ], [ 11.399620955476728, 44.464567426713963 ], [ 11.399620955476728, 44.461066767491282 ], [ 11.3975, 44.4619 ], [ 11.3951, 44.4637 ], [ 11.3937, 44.4629 ], [ 11.3931, 44.4618 ], [ 11.3929, 44.4617 ], [ 11.3914, 44.4619 ], [ 11.3895, 44.4606 ], [ 11.388, 44.4603 ], [ 11.3866, 44.4606 ], [ 11.3871, 44.4619 ], [ 11.3863, 44.4621 ], [ 11.3853, 44.4607 ], [ 11.3836, 44.4602 ], [ 11.382, 44.459 ], [ 11.381654649794337, 44.459127907483584 ], [ 11.381654649794337, 44.466606563916322 ] ] ] } },
{ "type": "Feature", "properties": { "value": "9.977667808532715" }, "geometry": { "type": "Polygon", "coordinates": [ [ [ 11.399620955476728, 44.464567426713963 ], [ 11.4024, 44.4629 ], [ 11.401, 44.4612 ], [ 11.4003, 44.4608 ], [ 11.399620955476728, 44.461066767491282 ], [ 11.399620955476728, 44.464567426713963 ] ] ] } },
{ "type": "Feature", "properties": { "value": "9.07433795928955" }, "geometry": { "type": "Polygon", "coordinates": [ [ [ 11.291823121382386, 44.457623411075126 ], [ 11.291823121382386, 44.44864025823393 ], [ 11.283130802426987, 44.44864025823393 ], [ 11.2838, 44.4504 ], [ 11.2836, 44.4509 ], [ 11.2838, 44.4517 ], [ 11.2848, 44.4537 ], [ 11.2856, 44.455 ], [ 11.2859, 44.4557 ], [ 11.2863, 44.4573 ], [ 11.2863, 44.457623411075126 ], [ 11.291823121382386, 44.457623411075126 ] ] ] } },
{ "type": "Feature", "properties": { "value": "8.604598999023438" }, "geometry": { "type": "Polygon", "coordinates": [ [ [ 11.30080627422358, 44.457623411075126 ], [ 11.30080627422358, 44.44864025823393 ], [ 11.291823121382386, 44.44864025823393 ], [ 11.291823121382386, 44.457623411075126 ], [ 11.30080627422358, 44.457623411075126 ] ] ] } },
{ "type": "Feature", "properties": { "value": "8.577862739562988" }, "geometry": { "type": "Polygon", "coordinates": [ [ [ 11.309789427064775, 44.457623411075126 ], [ 11.309789427064775, 44.44864025823393 ], [ 11.30080627422358, 44.44864025823393 ], [ 11.30080627422358, 44.457623411075126 ], [ 11.309789427064775, 44.457623411075126 ] ] ] } },
{ "type": "Feature", "properties": { "value": "8.236419677734375" }, "geometry": { "type": "Polygon", "coordinates": [ [ [ 11.327755732747166, 44.457623411075126 ], [ 11.327755732747166, 44.44864025823393 ], [ 11.309789427064775, 44.44864025823393 ], [ 11.309789427064775, 44.457623411075126 ], [ 11.327755732747166, 44.457623411075126 ] ] ] } },
{ "type": "Feature", "properties": { "value": "8.176631927490234" }, "geometry": { "type": "Polygon", "coordinates": [ [ [ 11.33673888558836, 44.457623411075126 ], [ 11.33673888558836, 44.44864025823393 ], [ 11.327755732747166, 44.44864025823393 ], [ 11.327755732747166, 44.457623411075126 ], [ 11.33673888558836, 44.457623411075126 ] ] ] } },
{ "type": "Feature", "properties": { "value": "8.305000305175781" }, "geometry": { "type": "Polygon", "coordinates": [ [ [ 11.345722038429557, 44.457623411075126 ], [ 11.345722038429557, 44.44864025823393 ], [ 11.33673888558836, 44.44864025823393 ], [ 11.33673888558836, 44.457623411075126 ], [ 11.345722038429557, 44.457623411075126 ] ] ] } },
{ "type": "Feature", "properties": { "value": "8.393065452575684" }, "geometry": { "type": "Polygon", "coordinates": [ [ [ 11.354705191270751, 44.457623411075126 ], [ 11.354705191270751, 44.44864025823393 ], [ 11.345722038429557, 44.44864025823393 ], [ 11.345722038429557, 44.457623411075126 ], [ 11.354705191270751, 44.457623411075126 ] ] ] } },
{ "type": "Feature", "properties": { "value": "8.295401573181152" }, "geometry": { "type": "Polygon", "coordinates": [ [ [ 11.354705191270751, 44.44864025823393 ], [ 11.354705191270751, 44.457623411075126 ], [ 11.372671496953142, 44.457623411075126 ], [ 11.372671496953142, 44.449111916158856 ], [ 11.3726, 44.4491 ], [ 11.3714834842824, 44.44864025823393 ], [ 11.367659741766072, 44.44864025823393 ], [ 11.3671, 44.4492 ], [ 11.3649, 44.4498 ], [ 11.3623, 44.451 ], [ 11.35971903244336, 44.44864025823393 ], [ 11.354705191270751, 44.44864025823393 ] ] ] } },
{ "type": "Feature", "properties": { "value": "8.860025405883789" }, "geometry": { "type": "Polygon", "coordinates": [ [ [ 11.372671496953142, 44.457623411075126 ], [ 11.374279431487478, 44.457623411075126 ], [ 11.3744, 44.4569 ], [ 11.3739, 44.4562 ], [ 11.3746, 44.4538 ], [ 11.3745, 44.4534 ], [ 11.3739, 44.4527 ], [ 11.3727, 44.4525 ], [ 11.3727, 44.4518 ], [ 11.3732, 44.4514 ], [ 11.3734, 44.4507 ], [ 11.3732, 44.4492 ], [ 11.372671496953142, 44.449111916158856 ], [ 11.372671496953142, 44.457623411075126 ] ] ] } },
{ "type": "Feature", "properties": { "value": "8.66649341583252" }, "geometry": { "type": "Polygon", "coordinates": [ [ [ 11.28283996854119, 44.439657105392733 ], [ 11.282286058709344, 44.439657105392733 ], [ 11.2811, 44.4433 ], [ 11.28283996854119, 44.447875472830539 ], [ 11.28283996854119, 44.439657105392733 ] ] ] } },
{ "type": "Feature", "properties": { "value": "8.032915115356445" }, "geometry": { "type": "Polygon", "coordinates": [ [ [ 11.30080627422358, 44.44864025823393 ], [ 11.30080627422358, 44.439657105392733 ], [ 11.28283996854119, 44.439657105392733 ], [ 11.28283996854119, 44.447875472830539 ], [ 11.283130802426987, 44.44864025823393 ], [ 11.30080627422358, 44.44864025823393 ] ] ] } },
{ "type": "Feature", "properties": { "value": "8.377193450927734" }, "geometry": { "type": "Polygon", "coordinates": [ [ [ 11.309789427064775, 44.44864025823393 ], [ 11.309789427064775, 44.439657105392733 ], [ 11.30080627422358, 44.439657105392733 ], [ 11.30080627422358, 44.44864025823393 ], [ 11.309789427064775, 44.44864025823393 ] ] ] } },
{ "type": "Feature", "properties": { "value": "8.635443687438965" }, "geometry": { "type": "Polygon", "coordinates": [ [ [ 11.318772579905971, 44.44864025823393 ], [ 11.318772579905971, 44.439657105392733 ], [ 11.309789427064775, 44.439657105392733 ], [ 11.309789427064775, 44.44864025823393 ], [ 11.318772579905971, 44.44864025823393 ] ] ] } },
{ "type": "Feature", "properties": { "value": "9.354262351989746" }, "geometry": { "type": "Polygon", "coordinates": [ [ [ 11.33673888558836, 44.44864025823393 ], [ 11.33673888558836, 44.439657105392733 ], [ 11.318772579905971, 44.439657105392733 ], [ 11.318772579905971, 44.44864025823393 ], [ 11.33673888558836, 44.44864025823393 ] ] ] } },
{ "type": "Feature", "properties": { "value": "9.41376781463623" }, "geometry": { "type": "Polygon", "coordinates": [ [ [ 11.345722038429557, 44.439657105392733 ], [ 11.33673888558836, 44.439657105392733 ], [ 11.33673888558836, 44.44864025823393 ], [ 11.345722038429557, 44.44864025823393 ], [ 11.345722038429557, 44.441043503202465 ], [ 11.3452, 44.441 ], [ 11.345, 44.4409 ], [ 11.3448, 44.4407 ], [ 11.345722038429557, 44.439701125034645 ], [ 11.345722038429557, 44.439657105392733 ] ] ] } },
{ "type": "Feature", "properties": { "value": "9.263272285461426" }, "geometry": { "type": "MultiPolygon", "coordinates": [ [ [ [ 11.345722038429557, 44.44864025823393 ], [ 11.354705191270751, 44.44864025823393 ], [ 11.354705191270751, 44.443341557381224 ], [ 11.3539, 44.4431 ], [ 11.3527, 44.443 ], [ 11.3524, 44.4421 ], [ 11.3511, 44.4421 ], [ 11.3493, 44.4424 ], [ 11.3476, 44.4425 ], [ 11.3464, 44.4411 ], [ 11.345722038429557, 44.441043503202465 ], [ 11.345722038429557, 44.44864025823393 ] ] ], [ [ [ 11.345722038429557, 44.439657105392733 ], [ 11.345722038429557, 44.439701125034645 ], [ 11.345762671945169, 44.439657105392733 ], [ 11.345722038429557, 44.439657105392733 ] ] ] ] } },
{ "type": "Feature", "properties": { "value": "8.71849250793457" }, "geometry": { "type": "MultiPolygon", "coordinates": [ [ [ [ 11.354705191270751, 44.44864025823393 ], [ 11.35971903244336, 44.44864025823393 ], [ 11.3588, 44.4478 ], [ 11.3582, 44.4468 ], [ 11.3578, 44.4467 ], [ 11.3577, 44.4453 ], [ 11.3575, 44.4451 ], [ 11.3567, 44.4451 ], [ 11.3561, 44.4449 ], [ 11.3555, 44.4438 ], [ 11.3549, 44.4434 ], [ 11.354705191270751, 44.443341557381224 ], [ 11.354705191270751, 44.44864025823393 ] ] ], [ [ [ 11.3714834842824, 44.44864025823393 ], [ 11.3692, 44.4477 ], [ 11.368, 44.4483 ], [ 11.367659741766072, 44.44864025823393 ], [ 11.3714834842824, 44.44864025823393 ] ] ] ] } },
{ "type": "Feature", "properties": { "value": "8.347675323486328" }, "geometry": { "type": "Polygon", "coordinates": [ [ [ 11.28283996854119, 44.439657105392733 ], [ 11.28283996854119, 44.439 ], [ 11.2825, 44.439 ], [ 11.282286058709344, 44.439657105392733 ], [ 11.28283996854119, 44.439657105392733 ] ] ] } },
{ "type": "Feature", "properties": { "value": "8.359624862670898" }, "geometry": { "type": "Polygon", "coordinates": [ [ [ 11.28283996854119, 44.439657105392733 ], [ 11.30080627422358, 44.439657105392733 ], [ 11.30080627422358, 44.430673952551537 ], [ 11.300063722023209, 44.430673952551537 ], [ 11.2998, 44.4309 ], [ 11.2991, 44.431 ], [ 11.2982, 44.4314 ], [ 11.297, 44.4323 ], [ 11.2966, 44.4327 ], [ 11.2963, 44.433 ], [ 11.2957, 44.4332 ], [ 11.2948, 44.4334 ], [ 11.2944, 44.4331 ], [ 11.2937, 44.4332 ], [ 11.2935, 44.4334 ], [ 11.2926, 44.4336 ], [ 11.2924, 44.4336 ], [ 11.2921, 44.433 ], [ 11.2927, 44.4323 ], [ 11.293603359693591, 44.430673952551537 ], [ 11.283290052271365, 44.430673952551537 ], [ 11.2834, 44.4311 ], [ 11.2839, 44.4321 ], [ 11.2841, 44.4377 ], [ 11.2831, 44.439 ], [ 11.28283996854119, 44.439 ], [ 11.28283996854119, 44.439657105392733 ] ] ] } },
{ "type": "Feature", "properties": { "value": "8.21315860748291" }, "geometry": { "type": "Polygon", "coordinates": [ [ [ 11.309789427064775, 44.439657105392733 ], [ 11.309789427064775, 44.430673952551537 ], [ 11.30080627422358, 44.430673952551537 ], [ 11.30080627422358, 44.439657105392733 ], [ 11.309789427064775, 44.439657105392733 ] ] ] } },
{ "type": "Feature", "properties": { "value": "9.052560806274414" }, "geometry": { "type": "Polygon", "coordinates": [ [ [ 11.318772579905971, 44.439657105392733 ], [ 11.318772579905971, 44.430673952551537 ], [ 11.309789427064775, 44.430673952551537 ], [ 11.309789427064775, 44.439657105392733 ], [ 11.318772579905971, 44.439657105392733 ] ] ] } },
{ "type": "Feature", "properties": { "value": "9.973947525024414" }, "geometry": { "type": "Polygon", "coordinates": [ [ [ 11.327755732747166, 44.439657105392733 ], [ 11.327755732747166, 44.430673952551537 ], [ 11.318772579905971, 44.430673952551537 ], [ 11.318772579905971, 44.439657105392733 ], [ 11.327755732747166, 44.439657105392733 ] ] ] } },
{ "type": "Feature", "properties": { "value": "10.110713958740234" }, "geometry": { "type": "Polygon", "coordinates": [ [ [ 11.327755732747166, 44.430673952551537 ], [ 11.327755732747166, 44.439657105392733 ], [ 11.345722038429557, 44.439657105392733 ], [ 11.345722038429557, 44.43628753845401 ], [ 11.3445, 44.436 ], [ 11.3426, 44.436 ], [ 11.3418, 44.4361 ], [ 11.3406, 44.4355 ], [ 11.3393, 44.436 ], [ 11.3392, 44.4364 ], [ 11.3383, 44.4371 ], [ 11.3357, 44.4381 ], [ 11.3354, 44.4385 ], [ 11.3345, 44.4386 ], [ 11.3342, 44.4376 ], [ 11.3339, 44.4373 ], [ 11.3334, 44.4372 ], [ 11.3329, 44.4366 ], [ 11.3325, 44.4361 ], [ 11.3314, 44.4343 ], [ 11.3314, 44.4339 ], [ 11.3316, 44.4327 ], [ 11.3321, 44.4323 ], [ 11.3337, 44.4324 ], [ 11.3343, 44.4321 ], [ 11.3376, 44.4316 ], [ 11.337263255473285, 44.430673952551537 ], [ 11.327755732747166, 44.430673952551537 ] ] ] } },
{ "type": "Feature", "properties": { "value": "9.812207221984863" }, "geometry": { "type": "Polygon", "coordinates": [ [ [ 11.345722038429557, 44.439657105392733 ], [ 11.345762671945169, 44.439657105392733 ], [ 11.346, 44.4394 ], [ 11.3464, 44.4395 ], [ 11.3458, 44.4383 ], [ 11.3461, 44.4375 ], [ 11.3462, 44.4364 ], [ 11.345722038429557, 44.43628753845401 ], [ 11.345722038429557, 44.439657105392733 ] ] ] } },
{ "type": "Feature", "properties": { "value": "9.792154312133789" }, "geometry": { "type": "Polygon", "coordinates": [ [ [ 11.28283996854119, 44.425887091700197 ], [ 11.2823, 44.4258 ], [ 11.2826, 44.4264 ], [ 11.2826, 44.428 ], [ 11.28283996854119, 44.428929878097108 ], [ 11.28283996854119, 44.425887091700197 ] ] ] } },
{ "type": "Feature", "properties": { "value": "9.0625638961792" }, "geometry": { "type": "Polygon", "coordinates": [ [ [ 11.28283996854119, 44.428929878097108 ], [ 11.283290052271365, 44.430673952551537 ], [ 11.291823121382386, 44.430673952551537 ], [ 11.291823121382386, 44.426910027645782 ], [ 11.2896, 44.4272 ], [ 11.2885, 44.4268 ], [ 11.28283996854119, 44.425887091700197 ], [ 11.28283996854119, 44.428929878097108 ] ] ] } },
{ "type": "Feature", "properties": { "value": "8.568145751953125" }, "geometry": { "type": "MultiPolygon", "coordinates": [ [ [ [ 11.291823121382386, 44.430673952551537 ], [ 11.293603359693591, 44.430673952551537 ], [ 11.2937, 44.4305 ], [ 11.2937, 44.4296 ], [ 11.2937, 44.4288 ], [ 11.2934, 44.4276 ], [ 11.2924, 44.427 ], [ 11.2919, 44.4269 ], [ 11.291823121382386, 44.426910027645782 ], [ 11.291823121382386, 44.430673952551537 ] ] ], [ [ [ 11.309789427064775, 44.430673952551537 ], [ 11.309789427064775, 44.423460759226877 ], [ 11.3082, 44.4245 ], [ 11.3064, 44.4256 ], [ 11.3056, 44.4262 ], [ 11.3051, 44.4264 ], [ 11.3044, 44.4264 ], [ 11.3036, 44.4269 ], [ 11.3019, 44.4275 ], [ 11.3004, 44.4283 ], [ 11.3003, 44.4288 ], [ 11.3006, 44.4291 ], [ 11.3009, 44.4297 ], [ 11.3005, 44.4303 ], [ 11.300063722023209, 44.430673952551537 ], [ 11.309789427064775, 44.430673952551537 ] ] ] ] } },
{ "type": "Feature", "properties": { "value": "8.830677032470703" }, "geometry": { "type": "Polygon", "coordinates": [ [ [ 11.309789427064775, 44.430673952551537 ], [ 11.318772579905971, 44.430673952551537 ], [ 11.318772579905971, 44.421690799710341 ], [ 11.312496423972425, 44.421690799710341 ], [ 11.309789427064775, 44.423460759226877 ], [ 11.309789427064775, 44.430673952551537 ] ] ] } },
{ "type": "Feature", "properties": { "value": "9.581473350524902" }, "geometry": { "type": "Polygon", "coordinates": [ [ [ 11.318772579905971, 44.421690799710341 ], [ 11.318772579905971, 44.430673952551537 ], [ 11.327755732747166, 44.430673952551537 ], [ 11.327755732747166, 44.423851563476497 ], [ 11.3261, 44.4234 ], [ 11.3248, 44.4227 ], [ 11.3234, 44.4228 ], [ 11.3223, 44.4227 ], [ 11.3194, 44.4219 ], [ 11.319148959652409, 44.421690799710341 ], [ 11.318772579905971, 44.421690799710341 ] ] ] } },
{ "type": "Feature", "properties": { "value": "9.811720848083496" }, "geometry": { "type": "Polygon", "coordinates": [ [ [ 11.327755732747166, 44.430673952551537 ], [ 11.337263255473285, 44.430673952551537 ], [ 11.3372, 44.4305 ], [ 11.3374, 44.4299 ], [ 11.3374, 44.4287 ], [ 11.337, 44.4277 ], [ 11.3337, 44.4262 ], [ 11.333, 44.4257 ], [ 11.3298, 44.4248 ], [ 11.3283, 44.424 ], [ 11.327755732747166, 44.423851563476497 ], [ 11.327755732747166, 44.430673952551537 ] ] ] } }
]
}
