{
"type": "FeatureCollection",
"name": "higher_density_center",
"crs": { "type": "name", "properties": { "name": "urn:ogc:def:crs:EPSG::3857" } },
"features": [
{ "type": "Feature", "properties": { "id": 86, "street_cells": 406.90815207660199, "yard_cells": 2633.947555605409, "utility": 2.3815379617360728, "num_areas": 1.0 }, "geometry": { "type": "MultiPolygon", "coordinates": [ [ [ [ 1261093.896874761208892, 5542669.404702704399824 ], [ 1261193.896874761208892, 5542669.404702704399824 ], [ 1261193.896874761208892, 5542569.404702704399824 ], [ 1261093.896874761208892, 5542569.404702704399824 ], [ 1261093.896874761208892, 5542669.404702704399824 ] ] ] ] } },
{ "type": "Feature", "properties": { "id": 129, "street_cells": 341.46844240450298, "yard_cells": 1003.6693306732921, "utility": 1.7948738913700899, "num_areas": 0.0 }, "geometry": { "type": "MultiPolygon", "coordinates": [ [ [ [ 1261193.896874761208892, 5541869.404702704399824 ], [ 1261293.896874761208892, 5541869.404702704399824 ], [ 1261293.896874761208892, 5541769.404702704399824 ], [ 1261193.896874761208892, 5541769.404702704399824 ], [ 1261193.896874761208892, 5541869.404702704399824 ] ] ] ] } },
{ "type": "Feature", "properties": { "id": 153, "street_cells": 0.0, "yard_cells": 3996.2954116422502, "utility": 16.20960728322477, "num_areas": 0.0 }, "geometry": { "type": "MultiPolygon", "coordinates": [ [ [ [ 1261293.896874761208892, 5542969.404702704399824 ], [ 1261393.896874761208892, 5542969.404702704399824 ], [ 1261393.896874761208892, 5542869.404702704399824 ], [ 1261293.896874761208892, 5542869.404702704399824 ], [ 1261293.896874761208892, 5542969.404702704399824 ] ] ] ] } },
{ "type": "Feature", "properties": { "id": 188, "street_cells": 650.44459340795879, "yard_cells": 1861.0597625309199, "utility": 2.2246101555584521, "num_areas": 1.0 }, "geometry": { "type": "MultiPolygon", "coordinates": [ [ [ [ 1261393.896874761208892, 5542969.404702704399824 ], [ 1261493.896874761208892, 5542969.404702704399824 ], [ 1261493.896874761208892, 5542869.404702704399824 ], [ 1261393.896874761208892, 5542869.404702704399824 ], [ 1261393.896874761208892, 5542969.404702704399824 ] ] ] ] } },
{ "type": "Feature", "properties": { "id": 219, "street_cells": 409.62493776921178, "yard_cells": 4351.6500350309771, "utility": 5.5685745333948073, "num_areas": 0.0 }, "geometry": { "type": "MultiPolygon", "coordinates": [ [ [ [ 1261493.896874761208892, 5543369.404702704399824 ], [ 1261593.896874761208892, 5543369.404702704399824 ], [ 1261593.896874761208892, 5543269.404702704399824 ], [ 1261493.896874761208892, 5543269.404702704399824 ], [ 1261493.896874761208892, 5543369.404702704399824 ] ] ] ] } },
{ "type": "Feature", "properties": { "id": 328, "street_cells": 1103.6427692551169, "yard_cells": 816.00571147352457, "utility": 2.8534949185023839, "num_areas": 0.0 }, "geometry": { "type": "MultiPolygon", "coordinates": [ [ [ [ 1261793.896874761208892, 5542969.404702704399824 ], [ 1261893.896874761208892, 5542969.404702704399824 ], [ 1261893.896874761208892, 5542869.404702704399824 ], [ 1261793.896874761208892, 5542869.404702704399824 ], [ 1261793.896874761208892, 5542969.404702704399824 ] ] ] ] } },
{ "type": "Feature", "properties": { "id": 355, "street_cells": 236.59886161684989, "yard_cells": 1492.9414071534311, "utility": 1.8066671755101491, "num_areas": 0.0 }, "geometry": { "type": "MultiPolygon", "coordinates": [ [ [ [ 1261925.063009248580784, 5543769.404702704399824 ], [ 1261993.896874761208892, 5543769.404702704399824 ], [ 1261993.896874761208892, 5543669.404702704399824 ], [ 1261893.896874761208892, 5543669.404702704399824 ], [ 1261893.896874761208892, 5543746.960106708109379 ], [ 1261925.063009248580784, 5543769.404702704399824 ] ] ] ] } },
{ "type": "Feature", "properties": { "id": 366, "street_cells": 94.939614415355038, "yard_cells": 1925.641901831556, "utility": 1.7161137276180729, "num_areas": 1.0 }, "geometry": { "type": "MultiPolygon", "coordinates": [ [ [ [ 1261893.896874761208892, 5542669.404702704399824 ], [ 1261993.896874761208892, 5542669.404702704399824 ], [ 1261993.896874761208892, 5542569.404702704399824 ], [ 1261893.896874761208892, 5542569.404702704399824 ], [ 1261893.896874761208892, 5542669.404702704399824 ] ] ] ] } },
{ "type": "Feature", "properties": { "id": 402, "street_cells": 1015.673298883811, "yard_cells": 220.21701678743179, "utility": 1.900855374502177, "num_areas": 0.0 }, "geometry": { "type": "MultiPolygon", "coordinates": [ [ [ [ 1261993.896874761208892, 5542569.404702704399824 ], [ 1262093.896874761208892, 5542569.404702704399824 ], [ 1262093.896874761208892, 5542469.404702704399824 ], [ 1261993.896874761208892, 5542469.404702704399824 ], [ 1261993.896874761208892, 5542569.404702704399824 ] ] ] ] } },
{ "type": "Feature", "properties": { "id": 428, "street_cells": 382.53967172801498, "yard_cells": 3348.4963877926839, "utility": 3.5026824783464101, "num_areas": 0.0 }, "geometry": { "type": "MultiPolygon", "coordinates": [ [ [ [ 1262093.896874761208892, 5543469.404702704399824 ], [ 1262193.896874761208892, 5543469.404702704399824 ], [ 1262193.896874761208892, 5543369.404702704399824 ], [ 1262093.896874761208892, 5543369.404702704399824 ], [ 1262093.896874761208892, 5543469.404702704399824 ] ] ] ] } },
{ "type": "Feature", "properties": { "id": 462, "street_cells": 668.47667943462739, "yard_cells": 1127.8267574304109, "utility": 2.6196730940371529, "num_areas": 0.0 }, "geometry": { "type": "MultiPolygon", "coordinates": [ [ [ [ 1262193.896874761208892, 5543569.404702704399824 ], [ 1262293.896874761208892, 5543569.404702704399824 ], [ 1262293.896874761208892, 5543469.404702704399824 ], [ 1262193.896874761208892, 5543469.404702704399824 ], [ 1262193.896874761208892, 5543569.404702704399824 ] ] ] ] } },
{ "type": "Feature", "properties": { "id": 463, "street_cells": 515.98185009025042, "yard_cells": 4106.7519610091249, "utility": 3.5067940122235011, "num_areas": 0.0 }, "geometry": { "type": "MultiPolygon", "coordinates": [ [ [ [ 1262193.896874761208892, 5543469.404702704399824 ], [ 1262293.896874761208892, 5543469.404702704399824 ], [ 1262293.896874761208892, 5543369.404702704399824 ], [ 1262193.896874761208892, 5543369.404702704399824 ], [ 1262193.896874761208892, 5543469.404702704399824 ] ] ] ] } },
{ "type": "Feature", "properties": { "id": 496, "street_cells": 503.90220869630582, "yard_cells": 1925.435383333072, "utility": 2.1302918626093912, "num_areas": 1.0 }, "geometry": { "type": "MultiPolygon", "coordinates": [ [ [ [ 1262293.896874761208892, 5543669.404702704399824 ], [ 1262393.896874761208892, 5543669.404702704399824 ], [ 1262393.896874761208892, 5543569.404702704399824 ], [ 1262293.896874761208892, 5543569.404702704399824 ], [ 1262293.896874761208892, 5543669.404702704399824 ] ] ] ] } },
{ "type": "Feature", "properties": { "id": 533, "street_cells": 598.91345896422865, "yard_cells": 3175.197675154438, "utility": 2.988028700906098, "num_areas": 1.0 }, "geometry": { "type": "MultiPolygon", "coordinates": [ [ [ [ 1262393.896874761208892, 5543469.404702704399824 ], [ 1262493.896874761208892, 5543469.404702704399824 ], [ 1262493.896874761208892, 5543369.404702704399824 ], [ 1262393.896874761208892, 5543369.404702704399824 ], [ 1262393.896874761208892, 5543469.404702704399824 ] ] ] ] } },
{ "type": "Feature", "properties": { "id": 564, "street_cells": 571.41899223290386, "yard_cells": 1631.720023478058, "utility": 1.951613874824059, "num_areas": 1.0 }, "geometry": { "type": "MultiPolygon", "coordinates": [ [ [ [ 1262493.896874761208892, 5543869.404702704399824 ], [ 1262593.896874761208892, 5543869.404702704399824 ], [ 1262593.896874761208892, 5543769.404702704399824 ], [ 1262493.896874761208892, 5543769.404702704399824 ], [ 1262493.896874761208892, 5543869.404702704399824 ] ] ] ] } },
{ "type": "Feature", "properties": { "id": 565, "street_cells": 87.38143724799157, "yard_cells": 1986.3737630331891, "utility": 2.9146086556849902, "num_areas": 0.0 }, "geometry": { "type": "MultiPolygon", "coordinates": [ [ [ [ 1262493.896874761208892, 5543769.404702704399824 ], [ 1262593.896874761208892, 5543769.404702704399824 ], [ 1262593.896874761208892, 5543669.404702704399824 ], [ 1262493.896874761208892, 5543669.404702704399824 ], [ 1262493.896874761208892, 5543769.404702704399824 ] ] ] ] } },
{ "type": "Feature", "properties": { "id": 672, "street_cells": 521.3674372501672, "yard_cells": 2470.3223419402639, "utility": 2.1460178519080788, "num_areas": 1.0 }, "geometry": { "type": "MultiPolygon", "coordinates": [ [ [ [ 1262793.896874761208892, 5543569.404702704399824 ], [ 1262893.896874761208892, 5543569.404702704399824 ], [ 1262893.896874761208892, 5543469.404702704399824 ], [ 1262793.896874761208892, 5543469.404702704399824 ], [ 1262793.896874761208892, 5543569.404702704399824 ] ] ] ] } },
{ "type": "Feature", "properties": { "id": 757, "street_cells": 453.57597830537708, "yard_cells": 1555.135700156912, "utility": 1.8799118530183321, "num_areas": 0.0 }, "geometry": { "type": "MultiPolygon", "coordinates": [ [ [ [ 1262993.896874761208892, 5542069.404702704399824 ], [ 1263093.896874761208892, 5542069.404702704399824 ], [ 1263093.896874761208892, 5541969.404702704399824 ], [ 1262993.896874761208892, 5541969.404702704399824 ], [ 1262993.896874761208892, 5542069.404702704399824 ] ] ] ] } },
{ "type": "Feature", "properties": { "id": 950, "street_cells": 0.0, "yard_cells": 7500.8928665458216, "utility": 9.7849691352219281, "num_areas": 0.0 }, "geometry": { "type": "MultiPolygon", "coordinates": [ [ [ [ 1263593.896874761208892, 5543769.404702704399824 ], [ 1263693.896874761208892, 5543769.404702704399824 ], [ 1263693.896874761208892, 5543669.404702704399824 ], [ 1263593.896874761208892, 5543669.404702704399824 ], [ 1263593.896874761208892, 5543769.404702704399824 ] ] ] ] } },
{ "type": "Feature", "properties": { "id": 989, "street_cells": 36.542759791016579, "yard_cells": 4359.5719441011097, "utility": 3.9374935153280801, "num_areas": 0.0 }, "geometry": { "type": "MultiPolygon", "coordinates": [ [ [ [ 1263693.896874761208892, 5543369.404702704399824 ], [ 1263793.896874761208892, 5543369.404702704399824 ], [ 1263793.896874761208892, 5543269.404702704399824 ], [ 1263693.896874761208892, 5543269.404702704399824 ], [ 1263693.896874761208892, 5543369.404702704399824 ] ] ] ] } }
]
}
