{
"type": "FeatureCollection",
"name": "higher_green_center",
"crs": { "type": "name", "properties": { "name": "urn:ogc:def:crs:EPSG::3857" } },
"features": [
{ "type": "Feature", "properties": { "id": 86, "street_cells": 406.90815207660199, "yard_cells": 2633.947555605409, "utility": 2.7732024392554622, "num_areas": 1.0 }, "geometry": { "type": "MultiPolygon", "coordinates": [ [ [ [ 1261093.896874761208892, 5542669.404702704399824 ], [ 1261193.896874761208892, 5542669.404702704399824 ], [ 1261193.896874761208892, 5542569.404702704399824 ], [ 1261093.896874761208892, 5542569.404702704399824 ], [ 1261093.896874761208892, 5542669.404702704399824 ] ] ] ] } },
{ "type": "Feature", "properties": { "id": 129, "street_cells": 341.46844240450298, "yard_cells": 1003.6693306732921, "utility": 2.0900563978728202, "num_areas": 0.0 }, "geometry": { "type": "MultiPolygon", "coordinates": [ [ [ [ 1261193.896874761208892, 5541869.404702704399824 ], [ 1261293.896874761208892, 5541869.404702704399824 ], [ 1261293.896874761208892, 5541769.404702704399824 ], [ 1261193.896874761208892, 5541769.404702704399824 ], [ 1261193.896874761208892, 5541869.404702704399824 ] ] ] ] } },
{ "type": "Feature", "properties": { "id": 153, "street_cells": 0.0, "yard_cells": 3996.2954116422502, "utility": 17.565227166246292, "num_areas": 0.0 }, "geometry": { "type": "MultiPolygon", "coordinates": [ [ [ [ 1261293.896874761208892, 5542969.404702704399824 ], [ 1261393.896874761208892, 5542969.404702704399824 ], [ 1261393.896874761208892, 5542869.404702704399824 ], [ 1261293.896874761208892, 5542869.404702704399824 ], [ 1261293.896874761208892, 5542969.404702704399824 ] ] ] ] } },
{ "type": "Feature", "properties": { "id": 188, "street_cells": 650.44459340795879, "yard_cells": 1861.0597625309199, "utility": 2.410655733724159, "num_areas": 1.0 }, "geometry": { "type": "MultiPolygon", "coordinates": [ [ [ [ 1261393.896874761208892, 5542969.404702704399824 ], [ 1261493.896874761208892, 5542969.404702704399824 ], [ 1261493.896874761208892, 5542869.404702704399824 ], [ 1261393.896874761208892, 5542869.404702704399824 ], [ 1261393.896874761208892, 5542969.404702704399824 ] ] ] ] } },
{ "type": "Feature", "properties": { "id": 219, "street_cells": 409.62493776921178, "yard_cells": 4351.6500350309771, "utility": 6.0342780032974694, "num_areas": 0.0 }, "geometry": { "type": "MultiPolygon", "coordinates": [ [ [ [ 1261493.896874761208892, 5543369.404702704399824 ], [ 1261593.896874761208892, 5543369.404702704399824 ], [ 1261593.896874761208892, 5543269.404702704399824 ], [ 1261493.896874761208892, 5543269.404702704399824 ], [ 1261493.896874761208892, 5543369.404702704399824 ] ] ] ] } },
{ "type": "Feature", "properties": { "id": 355, "street_cells": 236.59886161684989, "yard_cells": 1492.9414071534311, "utility": 1.9577599134359149, "num_areas": 0.0 }, "geometry": { "type": "MultiPolygon", "coordinates": [ [ [ [ 1261925.063009248580784, 5543769.404702704399824 ], [ 1261993.896874761208892, 5543769.404702704399824 ], [ 1261993.896874761208892, 5543669.404702704399824 ], [ 1261893.896874761208892, 5543669.404702704399824 ], [ 1261893.896874761208892, 5543746.960106708109379 ], [ 1261925.063009248580784, 5543769.404702704399824 ] ] ] ] } },
{ "type": "Feature", "properties": { "id": 428, "street_cells": 382.53967172801498, "yard_cells": 3348.4963877926839, "utility": 3.795614066915582, "num_areas": 0.0 }, "geometry": { "type": "MultiPolygon", "coordinates": [ [ [ [ 1262093.896874761208892, 5543469.404702704399824 ], [ 1262193.896874761208892, 5543469.404702704399824 ], [ 1262193.896874761208892, 5543369.404702704399824 ], [ 1262093.896874761208892, 5543369.404702704399824 ], [ 1262093.896874761208892, 5543469.404702704399824 ] ] ] ] } },
{ "type": "Feature", "properties": { "id": 462, "street_cells": 668.47667943462739, "yard_cells": 1127.8267574304109, "utility": 2.838758039850025, "num_areas": 0.0 }, "geometry": { "type": "MultiPolygon", "coordinates": [ [ [ [ 1262193.896874761208892, 5543569.404702704399824 ], [ 1262293.896874761208892, 5543569.404702704399824 ], [ 1262293.896874761208892, 5543469.404702704399824 ], [ 1262193.896874761208892, 5543469.404702704399824 ], [ 1262193.896874761208892, 5543569.404702704399824 ] ] ] ] } },
{ "type": "Feature", "properties": { "id": 463, "street_cells": 515.98185009025042, "yard_cells": 4106.7519610091249, "utility": 3.8000694510153301, "num_areas": 0.0 }, "geometry": { "type": "MultiPolygon", "coordinates": [ [ [ [ 1262193.896874761208892, 5543469.404702704399824 ], [ 1262293.896874761208892, 5543469.404702704399824 ], [ 1262293.896874761208892, 5543369.404702704399824 ], [ 1262193.896874761208892, 5543369.404702704399824 ], [ 1262193.896874761208892, 5543469.404702704399824 ] ] ] ] } },
{ "type": "Feature", "properties": { "id": 496, "street_cells": 503.90220869630582, "yard_cells": 1925.435383333072, "utility": 2.3084495412707891, "num_areas": 1.0 }, "geometry": { "type": "MultiPolygon", "coordinates": [ [ [ [ 1262293.896874761208892, 5543669.404702704399824 ], [ 1262393.896874761208892, 5543669.404702704399824 ], [ 1262393.896874761208892, 5543569.404702704399824 ], [ 1262293.896874761208892, 5543569.404702704399824 ], [ 1262293.896874761208892, 5543669.404702704399824 ] ] ] ] } },
{ "type": "Feature", "properties": { "id": 533, "street_cells": 598.91345896422865, "yard_cells": 3175.197675154438, "utility": 3.237919463045611, "num_areas": 1.0 }, "geometry": { "type": "MultiPolygon", "coordinates": [ [ [ [ 1262393.896874761208892, 5543469.404702704399824 ], [ 1262493.896874761208892, 5543469.404702704399824 ], [ 1262493.896874761208892, 5543369.404702704399824 ], [ 1262393.896874761208892, 5543369.404702704399824 ], [ 1262393.896874761208892, 5543469.404702704399824 ] ] ] ] } },
{ "type": "Feature", "properties": { "id": 564, "street_cells": 571.41899223290386, "yard_cells": 1631.720023478058, "utility": 2.1148285984423238, "num_areas": 1.0 }, "geometry": { "type": "MultiPolygon", "coordinates": [ [ [ [ 1262493.896874761208892, 5543869.404702704399824 ], [ 1262593.896874761208892, 5543869.404702704399824 ], [ 1262593.896874761208892, 5543769.404702704399824 ], [ 1262493.896874761208892, 5543769.404702704399824 ], [ 1262493.896874761208892, 5543869.404702704399824 ] ] ] ] } },
{ "type": "Feature", "properties": { "id": 565, "street_cells": 87.38143724799157, "yard_cells": 1986.3737630331891, "utility": 3.1583592522193138, "num_areas": 0.0 }, "geometry": { "type": "MultiPolygon", "coordinates": [ [ [ [ 1262493.896874761208892, 5543769.404702704399824 ], [ 1262593.896874761208892, 5543769.404702704399824 ], [ 1262593.896874761208892, 5543669.404702704399824 ], [ 1262493.896874761208892, 5543669.404702704399824 ], [ 1262493.896874761208892, 5543769.404702704399824 ] ] ] ] } },
{ "type": "Feature", "properties": { "id": 672, "street_cells": 521.3674372501672, "yard_cells": 2470.3223419402639, "utility": 2.3401566236064602, "num_areas": 1.0 }, "geometry": { "type": "MultiPolygon", "coordinates": [ [ [ [ 1262793.896874761208892, 5543569.404702704399824 ], [ 1262893.896874761208892, 5543569.404702704399824 ], [ 1262893.896874761208892, 5543469.404702704399824 ], [ 1262793.896874761208892, 5543469.404702704399824 ], [ 1262793.896874761208892, 5543569.404702704399824 ] ] ] ] } },
{ "type": "Feature", "properties": { "id": 757, "street_cells": 453.57597830537708, "yard_cells": 1555.135700156912, "utility": 3.400212397047047, "num_areas": 0.0 }, "geometry": { "type": "MultiPolygon", "coordinates": [ [ [ [ 1262993.896874761208892, 5542069.404702704399824 ], [ 1263093.896874761208892, 5542069.404702704399824 ], [ 1263093.896874761208892, 5541969.404702704399824 ], [ 1262993.896874761208892, 5541969.404702704399824 ], [ 1262993.896874761208892, 5542069.404702704399824 ] ] ] ] } },
{ "type": "Feature", "properties": { "id": 758, "street_cells": 877.12093206569557, "yard_cells": 327.51892106700689, "utility": 2.2392507908460639, "num_areas": 0.0 }, "geometry": { "type": "MultiPolygon", "coordinates": [ [ [ [ 1262993.896874761208892, 5541969.404702704399824 ], [ 1263093.896874761208892, 5541969.404702704399824 ], [ 1263093.896874761208892, 5541869.404702704399824 ], [ 1262993.896874761208892, 5541869.404702704399824 ], [ 1262993.896874761208892, 5541969.404702704399824 ] ] ] ] } },
{ "type": "Feature", "properties": { "id": 849, "street_cells": 370.7683851759881, "yard_cells": 1508.356225177718, "utility": 2.3700950279172179, "num_areas": 0.0 }, "geometry": { "type": "MultiPolygon", "coordinates": [ [ [ [ 1263293.896874761208892, 5543369.404702704399824 ], [ 1263393.896874761208892, 5543369.404702704399824 ], [ 1263393.896874761208892, 5543269.404702704399824 ], [ 1263293.896874761208892, 5543269.404702704399824 ], [ 1263293.896874761208892, 5543369.404702704399824 ] ] ] ] } },
{ "type": "Feature", "properties": { "id": 941, "street_cells": 210.53439470678569, "yard_cells": 2900.3655351489929, "utility": 1.9770104564023669, "num_areas": 2.0 }, "geometry": { "type": "MultiPolygon", "coordinates": [ [ [ [ 1263493.896874761208892, 5541169.404702704399824 ], [ 1263593.896874761208892, 5541169.404702704399824 ], [ 1263593.896874761208892, 5541069.404702704399824 ], [ 1263493.896874761208892, 5541069.404702704399824 ], [ 1263493.896874761208892, 5541169.404702704399824 ] ] ] ] } },
{ "type": "Feature", "properties": { "id": 988, "street_cells": 754.79034989364447, "yard_cells": 1329.0926884092851, "utility": 1.860043875435079, "num_areas": 1.0 }, "geometry": { "type": "MultiPolygon", "coordinates": [ [ [ [ 1263693.896874761208892, 5543469.404702704399824 ], [ 1263793.896874761208892, 5543469.404702704399824 ], [ 1263793.896874761208892, 5543369.404702704399824 ], [ 1263693.896874761208892, 5543369.404702704399824 ], [ 1263693.896874761208892, 5543469.404702704399824 ] ] ] ] } },
{ "type": "Feature", "properties": { "id": 989, "street_cells": 36.542759791016579, "yard_cells": 4359.5719441011097, "utility": 5.5960012850149647, "num_areas": 0.0 }, "geometry": { "type": "MultiPolygon", "coordinates": [ [ [ [ 1263693.896874761208892, 5543369.404702704399824 ], [ 1263793.896874761208892, 5543369.404702704399824 ], [ 1263793.896874761208892, 5543269.404702704399824 ], [ 1263693.896874761208892, 5543269.404702704399824 ], [ 1263693.896874761208892, 5543369.404702704399824 ] ] ] ] } }
]
}
