{
"type": "FeatureCollection",
"name": "no_yard_center",
"crs": { "type": "name", "properties": { "name": "urn:ogc:def:crs:EPSG::3857" } },
"features": [
{ "type": "Feature", "properties": { "id": 188, "street_cells": 650.44459340795879, "yard_cells": 0.0, "utility": 0.68657306302614829, "num_areas": 1.0 }, "geometry": { "type": "MultiPolygon", "coordinates": [ [ [ [ 1261393.896874761208892, 5542969.404702704399824 ], [ 1261493.896874761208892, 5542969.404702704399824 ], [ 1261493.896874761208892, 5542869.404702704399824 ], [ 1261393.896874761208892, 5542869.404702704399824 ], [ 1261393.896874761208892, 5542969.404702704399824 ] ] ] ] } },
{ "type": "Feature", "properties": { "id": 363, "street_cells": 864.61206184327602, "yard_cells": 0.0, "utility": 0.75330941299926657, "num_areas": 1.0 }, "geometry": { "type": "MultiPolygon", "coordinates": [ [ [ [ 1261893.896874761208892, 5542969.404702704399824 ], [ 1261993.896874761208892, 5542969.404702704399824 ], [ 1261993.896874761208892, 5542869.404702704399824 ], [ 1261893.896874761208892, 5542869.404702704399824 ], [ 1261893.896874761208892, 5542969.404702704399824 ] ] ] ] } },
{ "type": "Feature", "properties": { "id": 437, "street_cells": 367.89760093595828, "yard_cells": 0.0, "utility": 0.67022775384083777, "num_areas": 0.0 }, "geometry": { "type": "MultiPolygon", "coordinates": [ [ [ [ 1262093.896874761208892, 5542569.404702704399824 ], [ 1262193.896874761208892, 5542569.404702704399824 ], [ 1262193.896874761208892, 5542469.404702704399824 ], [ 1262093.896874761208892, 5542469.404702704399824 ], [ 1262093.896874761208892, 5542569.404702704399824 ] ] ] ] } },
{ "type": "Feature", "properties": { "id": 462, "street_cells": 668.4766794346275, "yard_cells": 0.0, "utility": 1.1367741624780481, "num_areas": 0.0 }, "geometry": { "type": "MultiPolygon", "coordinates": [ [ [ [ 1262193.896874761208892, 5543569.404702704399824 ], [ 1262293.896874761208892, 5543569.404702704399824 ], [ 1262293.896874761208892, 5543469.404702704399824 ], [ 1262193.896874761208892, 5543469.404702704399824 ], [ 1262193.896874761208892, 5543569.404702704399824 ] ] ] ] } },
{ "type": "Feature", "properties": { "id": 467, "street_cells": 887.42400011122231, "yard_cells": 0.0, "utility": 0.94438010362362235, "num_areas": 1.0 }, "geometry": { "type": "MultiPolygon", "coordinates": [ [ [ [ 1262193.896874761208892, 5543069.404702704399824 ], [ 1262293.896874761208892, 5543069.404702704399824 ], [ 1262293.896874761208892, 5542969.404702704399824 ], [ 1262193.896874761208892, 5542969.404702704399824 ], [ 1262193.896874761208892, 5543069.404702704399824 ] ] ] ] } },
{ "type": "Feature", "properties": { "id": 468, "street_cells": 371.58363353833562, "yard_cells": 0.0, "utility": 0.67723266445610197, "num_areas": 0.0 }, "geometry": { "type": "MultiPolygon", "coordinates": [ [ [ [ 1262193.896874761208892, 5542969.404702704399824 ], [ 1262293.896874761208892, 5542969.404702704399824 ], [ 1262293.896874761208892, 5542869.404702704399824 ], [ 1262193.896874761208892, 5542869.404702704399824 ], [ 1262193.896874761208892, 5542969.404702704399824 ] ] ] ] } },
{ "type": "Feature", "properties": { "id": 475, "street_cells": 784.00893636657861, "yard_cells": 0.0, "utility": 1.2532669368584619, "num_areas": 0.0 }, "geometry": { "type": "MultiPolygon", "coordinates": [ [ [ [ 1262193.896874761208892, 5542269.404702704399824 ], [ 1262293.896874761208892, 5542269.404702704399824 ], [ 1262293.896874761208892, 5542169.404702704399824 ], [ 1262193.896874761208892, 5542169.404702704399824 ], [ 1262193.896874761208892, 5542269.404702704399824 ] ] ] ] } },
{ "type": "Feature", "properties": { "id": 527, "street_cells": 737.00134105384359, "yard_cells": 0.0, "utility": 1.1522581627844719, "num_areas": 0.0 }, "geometry": { "type": "MultiPolygon", "coordinates": [ [ [ [ 1262393.896874761208892, 5544069.404702704399824 ], [ 1262493.896874761208892, 5544069.404702704399824 ], [ 1262493.896874761208892, 5543969.404702704399824 ], [ 1262393.896874761208892, 5543969.404702704399824 ], [ 1262393.896874761208892, 5544069.404702704399824 ] ] ] ] } },
{ "type": "Feature", "properties": { "id": 529, "street_cells": 894.45189480781573, "yard_cells": 0.0, "utility": 0.67616758169507485, "num_areas": 2.0 }, "geometry": { "type": "MultiPolygon", "coordinates": [ [ [ [ 1262393.896874761208892, 5543869.404702704399824 ], [ 1262493.896874761208892, 5543869.404702704399824 ], [ 1262493.896874761208892, 5543769.404702704399824 ], [ 1262393.896874761208892, 5543769.404702704399824 ], [ 1262393.896874761208892, 5543869.404702704399824 ] ] ] ] } },
{ "type": "Feature", "properties": { "id": 562, "street_cells": 730.96188900247216, "yard_cells": 0.0, "utility": 1.278058807806179, "num_areas": 0.0 }, "geometry": { "type": "MultiPolygon", "coordinates": [ [ [ [ 1262493.896874761208892, 5544069.404702704399824 ], [ 1262593.896874761208892, 5544069.404702704399824 ], [ 1262593.896874761208892, 5543969.404702704399824 ], [ 1262493.896874761208892, 5543969.404702704399824 ], [ 1262493.896874761208892, 5544069.404702704399824 ] ] ] ] } },
{ "type": "Feature", "properties": { "id": 597, "street_cells": 954.91566948741684, "yard_cells": 0.0, "utility": 1.669633397393717, "num_areas": 0.0 }, "geometry": { "type": "MultiPolygon", "coordinates": [ [ [ [ 1262593.896874761208892, 5544069.404702704399824 ], [ 1262693.896874761208892, 5544069.404702704399824 ], [ 1262693.896874761208892, 5543969.404702704399824 ], [ 1262593.896874761208892, 5543969.404702704399824 ], [ 1262593.896874761208892, 5544069.404702704399824 ] ] ] ] } },
{ "type": "Feature", "properties": { "id": 755, "street_cells": 915.64400969147687, "yard_cells": 0.0, "utility": 0.60890208512051847, "num_areas": 2.0 }, "geometry": { "type": "MultiPolygon", "coordinates": [ [ [ [ 1262993.896874761208892, 5542269.404702704399824 ], [ 1263093.896874761208892, 5542269.404702704399824 ], [ 1263093.896874761208892, 5542169.404702704399824 ], [ 1262993.896874761208892, 5542169.404702704399824 ], [ 1262993.896874761208892, 5542269.404702704399824 ] ] ] ] } },
{ "type": "Feature", "properties": { "id": 757, "street_cells": 453.57597830537702, "yard_cells": 0.0, "utility": 0.68630737702211364, "num_areas": 0.0 }, "geometry": { "type": "MultiPolygon", "coordinates": [ [ [ [ 1262993.896874761208892, 5542069.404702704399824 ], [ 1263093.896874761208892, 5542069.404702704399824 ], [ 1263093.896874761208892, 5541969.404702704399824 ], [ 1262993.896874761208892, 5541969.404702704399824 ], [ 1262993.896874761208892, 5542069.404702704399824 ] ] ] ] } },
{ "type": "Feature", "properties": { "id": 758, "street_cells": 877.12093206569557, "yard_cells": 0.0, "utility": 1.3271747072370541, "num_areas": 0.0 }, "geometry": { "type": "MultiPolygon", "coordinates": [ [ [ [ 1262993.896874761208892, 5541969.404702704399824 ], [ 1263093.896874761208892, 5541969.404702704399824 ], [ 1263093.896874761208892, 5541869.404702704399824 ], [ 1262993.896874761208892, 5541869.404702704399824 ], [ 1262993.896874761208892, 5541969.404702704399824 ] ] ] ] } },
{ "type": "Feature", "properties": { "id": 815, "street_cells": 830.52535773254931, "yard_cells": 0.0, "utility": 0.66817365253381922, "num_areas": 1.0 }, "geometry": { "type": "MultiPolygon", "coordinates": [ [ [ [ 1263193.896874761208892, 5543269.404702704399824 ], [ 1263293.896874761208892, 5543269.404702704399824 ], [ 1263293.896874761208892, 5543169.404702704399824 ], [ 1263193.896874761208892, 5543169.404702704399824 ], [ 1263193.896874761208892, 5543269.404702704399824 ] ] ] ] } },
{ "type": "Feature", "properties": { "id": 879, "street_cells": 755.98341311216359, "yard_cells": 0.0, "utility": 0.99377340031575445, "num_areas": 0.0 }, "geometry": { "type": "MultiPolygon", "coordinates": [ [ [ [ 1263393.896874761208892, 5543869.404702704399824 ], [ 1263493.896874761208892, 5543869.404702704399824 ], [ 1263493.896874761208892, 5543769.404702704399824 ], [ 1263393.896874761208892, 5543769.404702704399824 ], [ 1263393.896874761208892, 5543869.404702704399824 ] ] ] ] } },
{ "type": "Feature", "properties": { "id": 884, "street_cells": 527.90984816551213, "yard_cells": 0.0, "utility": 0.62282947914806241, "num_areas": 0.0 }, "geometry": { "type": "MultiPolygon", "coordinates": [ [ [ [ 1263393.896874761208892, 5543369.404702704399824 ], [ 1263493.896874761208892, 5543369.404702704399824 ], [ 1263493.896874761208892, 5543269.404702704399824 ], [ 1263393.896874761208892, 5543269.404702704399824 ], [ 1263393.896874761208892, 5543369.404702704399824 ] ] ] ] } },
{ "type": "Feature", "properties": { "id": 917, "street_cells": 876.21390236914158, "yard_cells": 0.0, "utility": 0.74705839305230726, "num_areas": 1.0 }, "geometry": { "type": "MultiPolygon", "coordinates": [ [ [ [ 1263493.896874761208892, 5543569.404702704399824 ], [ 1263593.896874761208892, 5543569.404702704399824 ], [ 1263593.896874761208892, 5543469.404702704399824 ], [ 1263493.896874761208892, 5543469.404702704399824 ], [ 1263493.896874761208892, 5543569.404702704399824 ] ] ] ] } },
{ "type": "Feature", "properties": { "id": 961, "street_cells": 428.22439356110988, "yard_cells": 0.0, "utility": 0.60477727512680368, "num_areas": 0.0 }, "geometry": { "type": "MultiPolygon", "coordinates": [ [ [ [ 1263593.896874761208892, 5542669.404702704399824 ], [ 1263693.896874761208892, 5542669.404702704399824 ], [ 1263693.896874761208892, 5542569.404702704399824 ], [ 1263593.896874761208892, 5542569.404702704399824 ], [ 1263593.896874761208892, 5542669.404702704399824 ] ] ] ] } },
{ "type": "Feature", "properties": { "id": 988, "street_cells": 754.79034989364447, "yard_cells": 0.0, "utility": 0.6435328911790994, "num_areas": 1.0 }, "geometry": { "type": "MultiPolygon", "coordinates": [ [ [ [ 1263693.896874761208892, 5543469.404702704399824 ], [ 1263793.896874761208892, 5543469.404702704399824 ], [ 1263793.896874761208892, 5543369.404702704399824 ], [ 1263693.896874761208892, 5543369.404702704399824 ], [ 1263693.896874761208892, 5543469.404702704399824 ] ] ] ] } }
]
}
