{
"type": "FeatureCollection",
"name": "result_density_enhanced_center",
"crs": { "type": "name", "properties": { "name": "urn:ogc:def:crs:EPSG::3857" } },
"features": [
{ "type": "Feature", "properties": { "id": 129, "street_cells": 682.93688480900607, "yard_cells": 3545.8750704056738, "num_areas": 4.0 }, "geometry": { "type": "MultiPolygon", "coordinates": [ [ [ [ 1261193.896874761208892, 5541869.404702704399824 ], [ 1261293.896874761208892, 5541869.404702704399824 ], [ 1261293.896874761208892, 5541769.404702704399824 ], [ 1261193.896874761208892, 5541769.404702704399824 ], [ 1261193.896874761208892, 5541869.404702704399824 ] ] ] ] } },
{ "type": "Feature", "properties": { "id": 188, "street_cells": 1300.889186815918, "yard_cells": 1861.5745095879929, "num_areas": 4.0 }, "geometry": { "type": "MultiPolygon", "coordinates": [ [ [ [ 1261393.896874761208892, 5542969.404702704399824 ], [ 1261493.896874761208892, 5542969.404702704399824 ], [ 1261493.896874761208892, 5542869.404702704399824 ], [ 1261393.896874761208892, 5542869.404702704399824 ], [ 1261393.896874761208892, 5542969.404702704399824 ] ] ] ] } },
{ "type": "Feature", "properties": { "id": 291, "street_cells": 1344.6025712162259, "yard_cells": 1307.0429838166881, "num_areas": 5.0 }, "geometry": { "type": "MultiPolygon", "coordinates": [ [ [ [ 1261693.896874761208892, 5543169.404702704399824 ], [ 1261793.896874761208892, 5543169.404702704399824 ], [ 1261793.896874761208892, 5543069.404702704399824 ], [ 1261693.896874761208892, 5543069.404702704399824 ], [ 1261693.896874761208892, 5543169.404702704399824 ] ] ] ] } },
{ "type": "Feature", "properties": { "id": 292, "street_cells": 1842.0193740665909, "yard_cells": 1341.446151338361, "num_areas": 7.0 }, "geometry": { "type": "MultiPolygon", "coordinates": [ [ [ [ 1261693.896874761208892, 5543069.404702704399824 ], [ 1261793.896874761208892, 5543069.404702704399824 ], [ 1261793.896874761208892, 5542969.404702704399824 ], [ 1261693.896874761208892, 5542969.404702704399824 ], [ 1261693.896874761208892, 5543069.404702704399824 ] ] ] ] } },
{ "type": "Feature", "properties": { "id": 401, "street_cells": 1120.367797642946, "yard_cells": 144.71534810435031, "num_areas": 3.0 }, "geometry": { "type": "MultiPolygon", "coordinates": [ [ [ [ 1261993.896874761208892, 5542669.404702704399824 ], [ 1262093.896874761208892, 5542669.404702704399824 ], [ 1262093.896874761208892, 5542569.404702704399824 ], [ 1261993.896874761208892, 5542569.404702704399824 ], [ 1261993.896874761208892, 5542669.404702704399824 ] ] ] ] } },
{ "type": "Feature", "properties": { "id": 402, "street_cells": 1801.4038069657979, "yard_cells": 220.3007512390611, "num_areas": 6.0 }, "geometry": { "type": "MultiPolygon", "coordinates": [ [ [ [ 1261993.896874761208892, 5542569.404702704399824 ], [ 1262093.896874761208892, 5542569.404702704399824 ], [ 1262093.896874761208892, 5542469.404702704399824 ], [ 1261993.896874761208892, 5542469.404702704399824 ], [ 1261993.896874761208892, 5542569.404702704399824 ] ] ] ] } },
{ "type": "Feature", "properties": { "id": 403, "street_cells": 1362.58065762315, "yard_cells": 466.36907443590468, "num_areas": 4.0 }, "geometry": { "type": "MultiPolygon", "coordinates": [ [ [ [ 1261993.896874761208892, 5542469.404702704399824 ], [ 1262093.896874761208892, 5542469.404702704399824 ], [ 1262093.896874761208892, 5542369.404702704399824 ], [ 1261993.896874761208892, 5542369.404702704399824 ], [ 1261993.896874761208892, 5542469.404702704399824 ] ] ] ] } },
{ "type": "Feature", "properties": { "id": 427, "street_cells": 1327.3848839938639, "yard_cells": 1673.957117737737, "num_areas": 4.0 }, "geometry": { "type": "MultiPolygon", "coordinates": [ [ [ [ 1262093.896874761208892, 5543569.404702704399824 ], [ 1262193.896874761208892, 5543569.404702704399824 ], [ 1262193.896874761208892, 5543469.404702704399824 ], [ 1262093.896874761208892, 5543469.404702704399824 ], [ 1262093.896874761208892, 5543569.404702704399824 ] ] ] ] } },
{ "type": "Feature", "properties": { "id": 433, "street_cells": 1472.143210983277, "yard_cells": 1772.0539718892539, "num_areas": 3.0 }, "geometry": { "type": "MultiPolygon", "coordinates": [ [ [ [ 1262093.896874761208892, 5542969.404702704399824 ], [ 1262193.896874761208892, 5542969.404702704399824 ], [ 1262193.896874761208892, 5542869.404702704399824 ], [ 1262093.896874761208892, 5542869.404702704399824 ], [ 1262093.896874761208892, 5542969.404702704399824 ] ] ] ] } },
{ "type": "Feature", "properties": { "id": 436, "street_cells": 1229.3476963043211, "yard_cells": 335.50798985175788, "num_areas": 4.0 }, "geometry": { "type": "MultiPolygon", "coordinates": [ [ [ [ 1262093.896874761208892, 5542669.404702704399824 ], [ 1262193.896874761208892, 5542669.404702704399824 ], [ 1262193.896874761208892, 5542569.404702704399824 ], [ 1262093.896874761208892, 5542569.404702704399824 ], [ 1262093.896874761208892, 5542669.404702704399824 ] ] ] ] } },
{ "type": "Feature", "properties": { "id": 467, "street_cells": 1774.8480002224451, "yard_cells": 66.844944574802511, "num_areas": 3.0 }, "geometry": { "type": "MultiPolygon", "coordinates": [ [ [ [ 1262193.896874761208892, 5543069.404702704399824 ], [ 1262293.896874761208892, 5543069.404702704399824 ], [ 1262293.896874761208892, 5542969.404702704399824 ], [ 1262193.896874761208892, 5542969.404702704399824 ], [ 1262193.896874761208892, 5543069.404702704399824 ] ] ] ] } },
{ "type": "Feature", "properties": { "id": 468, "street_cells": 743.16726707667112, "yard_cells": 393.78520576749003, "num_areas": 2.0 }, "geometry": { "type": "MultiPolygon", "coordinates": [ [ [ [ 1262193.896874761208892, 5542969.404702704399824 ], [ 1262293.896874761208892, 5542969.404702704399824 ], [ 1262293.896874761208892, 5542869.404702704399824 ], [ 1262193.896874761208892, 5542869.404702704399824 ], [ 1262193.896874761208892, 5542969.404702704399824 ] ] ] ] } },
{ "type": "Feature", "properties": { "id": 495, "street_cells": 948.35470508560547, "yard_cells": 936.56153571675588, "num_areas": 5.0 }, "geometry": { "type": "MultiPolygon", "coordinates": [ [ [ [ 1262293.896874761208892, 5543769.404702704399824 ], [ 1262393.896874761208892, 5543769.404702704399824 ], [ 1262393.896874761208892, 5543669.404702704399824 ], [ 1262293.896874761208892, 5543669.404702704399824 ], [ 1262293.896874761208892, 5543769.404702704399824 ] ] ] ] } },
{ "type": "Feature", "properties": { "id": 496, "street_cells": 1007.804417392612, "yard_cells": 1925.4353833163079, "num_areas": 2.0 }, "geometry": { "type": "MultiPolygon", "coordinates": [ [ [ [ 1262293.896874761208892, 5543669.404702704399824 ], [ 1262393.896874761208892, 5543669.404702704399824 ], [ 1262393.896874761208892, 5543569.404702704399824 ], [ 1262293.896874761208892, 5543569.404702704399824 ], [ 1262293.896874761208892, 5543669.404702704399824 ] ] ] ] } },
{ "type": "Feature", "properties": { "id": 529, "street_cells": 1788.903789615631, "yard_cells": 751.94697707635362, "num_areas": 3.0 }, "geometry": { "type": "MultiPolygon", "coordinates": [ [ [ [ 1262393.896874761208892, 5543869.404702704399824 ], [ 1262493.896874761208892, 5543869.404702704399824 ], [ 1262493.896874761208892, 5543769.404702704399824 ], [ 1262393.896874761208892, 5543769.404702704399824 ], [ 1262393.896874761208892, 5543869.404702704399824 ] ] ] ] } },
{ "type": "Feature", "properties": { "id": 562, "street_cells": 1461.9237780049441, "yard_cells": 530.21418266022772, "num_areas": 4.0 }, "geometry": { "type": "MultiPolygon", "coordinates": [ [ [ [ 1262493.896874761208892, 5544069.404702704399824 ], [ 1262593.896874761208892, 5544069.404702704399824 ], [ 1262593.896874761208892, 5543969.404702704399824 ], [ 1262493.896874761208892, 5543969.404702704399824 ], [ 1262493.896874761208892, 5544069.404702704399824 ] ] ] ] } },
{ "type": "Feature", "properties": { "id": 564, "street_cells": 1142.8379844658079, "yard_cells": 1631.719970747457, "num_areas": 5.0 }, "geometry": { "type": "MultiPolygon", "coordinates": [ [ [ [ 1262493.896874761208892, 5543869.404702704399824 ], [ 1262593.896874761208892, 5543869.404702704399824 ], [ 1262593.896874761208892, 5543769.404702704399824 ], [ 1262493.896874761208892, 5543769.404702704399824 ], [ 1262493.896874761208892, 5543869.404702704399824 ] ] ] ] } },
{ "type": "Feature", "properties": { "id": 643, "street_cells": 1067.897906751931, "yard_cells": 688.95762302955336, "num_areas": 5.0 }, "geometry": { "type": "MultiPolygon", "coordinates": [ [ [ [ 1262693.896874761208892, 5542969.404702704399824 ], [ 1262793.896874761208892, 5542969.404702704399824 ], [ 1262793.896874761208892, 5542869.404702704399824 ], [ 1262693.896874761208892, 5542869.404702704399824 ], [ 1262693.896874761208892, 5542969.404702704399824 ] ] ] ] } },
{ "type": "Feature", "properties": { "id": 755, "street_cells": 1601.897489799373, "yard_cells": 1.574375309319868, "num_areas": 4.0 }, "geometry": { "type": "MultiPolygon", "coordinates": [ [ [ [ 1262993.896874761208892, 5542269.404702704399824 ], [ 1263093.896874761208892, 5542269.404702704399824 ], [ 1263093.896874761208892, 5542169.404702704399824 ], [ 1262993.896874761208892, 5542169.404702704399824 ], [ 1262993.896874761208892, 5542269.404702704399824 ] ] ] ] } },
{ "type": "Feature", "properties": { "id": 917, "street_cells": 1752.4278047382829, "yard_cells": 376.71738609604341, "num_areas": 5.0 }, "geometry": { "type": "MultiPolygon", "coordinates": [ [ [ [ 1263493.896874761208892, 5543569.404702704399824 ], [ 1263593.896874761208892, 5543569.404702704399824 ], [ 1263593.896874761208892, 5543469.404702704399824 ], [ 1263493.896874761208892, 5543469.404702704399824 ], [ 1263493.896874761208892, 5543569.404702704399824 ] ] ] ] } }
]
}
