{
"type": "FeatureCollection",
"name": "result",
"crs": { "type": "name", "properties": { "name": "urn:ogc:def:crs:EPSG::3857" } },
"features": [
{ "type": "Feature", "properties": { "id": 129, "street_cells": 682.93688480900607, "yard_cells": 3545.8750704056729, "num_areas": 4.0 }, "geometry": { "type": "Polygon", "coordinates": [ [ [ 1261193.896874761208892, 5541869.404702704399824 ], [ 1261293.896874761208892, 5541869.404702704399824 ], [ 1261293.896874761208892, 5541769.404702704399824 ], [ 1261193.896874761208892, 5541769.404702704399824 ], [ 1261193.896874761208892, 5541869.404702704399824 ] ] ] } },
{ "type": "Feature", "properties": { "id": 188, "street_cells": 1300.889186815918, "yard_cells": 1861.574509587994, "num_areas": 4.0 }, "geometry": { "type": "Polygon", "coordinates": [ [ [ 1261393.896874761208892, 5542969.404702704399824 ], [ 1261493.896874761208892, 5542969.404702704399824 ], [ 1261493.896874761208892, 5542869.404702704399824 ], [ 1261393.896874761208892, 5542869.404702704399824 ], [ 1261393.896874761208892, 5542969.404702704399824 ] ] ] } },
{ "type": "Feature", "properties": { "id": 291, "street_cells": 1344.6025712162259, "yard_cells": 1307.0429838166881, "num_areas": 5.0 }, "geometry": { "type": "Polygon", "coordinates": [ [ [ 1261693.896874761208892, 5543169.404702704399824 ], [ 1261793.896874761208892, 5543169.404702704399824 ], [ 1261793.896874761208892, 5543069.404702704399824 ], [ 1261693.896874761208892, 5543069.404702704399824 ], [ 1261693.896874761208892, 5543169.404702704399824 ] ] ] } },
{ "type": "Feature", "properties": { "id": 292, "street_cells": 1842.0193740665909, "yard_cells": 1341.4461513383601, "num_areas": 7.0 }, "geometry": { "type": "Polygon", "coordinates": [ [ [ 1261693.896874761208892, 5543069.404702704399824 ], [ 1261793.896874761208892, 5543069.404702704399824 ], [ 1261793.896874761208892, 5542969.404702704399824 ], [ 1261693.896874761208892, 5542969.404702704399824 ], [ 1261693.896874761208892, 5543069.404702704399824 ] ] ] } },
{ "type": "Feature", "properties": { "id": 427, "street_cells": 1327.3848839938639, "yard_cells": 1673.9571177377361, "num_areas": 4.0 }, "geometry": { "type": "Polygon", "coordinates": [ [ [ 1262093.896874761208892, 5543569.404702704399824 ], [ 1262193.896874761208892, 5543569.404702704399824 ], [ 1262193.896874761208892, 5543469.404702704399824 ], [ 1262093.896874761208892, 5543469.404702704399824 ], [ 1262093.896874761208892, 5543569.404702704399824 ] ] ] } },
{ "type": "Feature", "properties": { "id": 433, "street_cells": 1472.143210983277, "yard_cells": 1772.0539718892539, "num_areas": 3.0 }, "geometry": { "type": "Polygon", "coordinates": [ [ [ 1262093.896874761208892, 5542969.404702704399824 ], [ 1262193.896874761208892, 5542969.404702704399824 ], [ 1262193.896874761208892, 5542869.404702704399824 ], [ 1262093.896874761208892, 5542869.404702704399824 ], [ 1262093.896874761208892, 5542969.404702704399824 ] ] ] } },
{ "type": "Feature", "properties": { "id": 438, "street_cells": 1303.935504674911, "yard_cells": 1146.1529061928161, "num_areas": 7.0 }, "geometry": { "type": "Polygon", "coordinates": [ [ [ 1262093.896874761208892, 5542469.404702704399824 ], [ 1262193.896874761208892, 5542469.404702704399824 ], [ 1262193.896874761208892, 5542369.404702704399824 ], [ 1262093.896874761208892, 5542369.404702704399824 ], [ 1262093.896874761208892, 5542469.404702704399824 ] ] ] } },
{ "type": "Feature", "properties": { "id": 468, "street_cells": 743.16726707667112, "yard_cells": 393.78520576749048, "num_areas": 2.0 }, "geometry": { "type": "Polygon", "coordinates": [ [ [ 1262193.896874761208892, 5542969.404702704399824 ], [ 1262293.896874761208892, 5542969.404702704399824 ], [ 1262293.896874761208892, 5542869.404702704399824 ], [ 1262193.896874761208892, 5542869.404702704399824 ], [ 1262193.896874761208892, 5542969.404702704399824 ] ] ] } },
{ "type": "Feature", "properties": { "id": 495, "street_cells": 948.35470508560547, "yard_cells": 936.56153571675532, "num_areas": 5.0 }, "geometry": { "type": "Polygon", "coordinates": [ [ [ 1262293.896874761208892, 5543769.404702704399824 ], [ 1262393.896874761208892, 5543769.404702704399824 ], [ 1262393.896874761208892, 5543669.404702704399824 ], [ 1262293.896874761208892, 5543669.404702704399824 ], [ 1262293.896874761208892, 5543769.404702704399824 ] ] ] } },
{ "type": "Feature", "properties": { "id": 529, "street_cells": 1788.903789615631, "yard_cells": 751.94697707635351, "num_areas": 3.0 }, "geometry": { "type": "Polygon", "coordinates": [ [ [ 1262393.896874761208892, 5543869.404702704399824 ], [ 1262493.896874761208892, 5543869.404702704399824 ], [ 1262493.896874761208892, 5543769.404702704399824 ], [ 1262393.896874761208892, 5543769.404702704399824 ], [ 1262393.896874761208892, 5543869.404702704399824 ] ] ] } },
{ "type": "Feature", "properties": { "id": 562, "street_cells": 1461.9237780049441, "yard_cells": 713.45364580383375, "num_areas": 4.0 }, "geometry": { "type": "Polygon", "coordinates": [ [ [ 1262493.896874761208892, 5544069.404702704399824 ], [ 1262593.896874761208892, 5544069.404702704399824 ], [ 1262593.896874761208892, 5543969.404702704399824 ], [ 1262493.896874761208892, 5543969.404702704399824 ], [ 1262493.896874761208892, 5544069.404702704399824 ] ] ] } },
{ "type": "Feature", "properties": { "id": 564, "street_cells": 1142.837984465807, "yard_cells": 1631.719970747457, "num_areas": 5.0 }, "geometry": { "type": "Polygon", "coordinates": [ [ [ 1262493.896874761208892, 5543869.404702704399824 ], [ 1262593.896874761208892, 5543869.404702704399824 ], [ 1262593.896874761208892, 5543769.404702704399824 ], [ 1262493.896874761208892, 5543769.404702704399824 ], [ 1262493.896874761208892, 5543869.404702704399824 ] ] ] } },
{ "type": "Feature", "properties": { "id": 653, "street_cells": 1306.2633315727121, "yard_cells": 808.79728835164133, "num_areas": 4.0 }, "geometry": { "type": "Polygon", "coordinates": [ [ [ 1262693.896874761208892, 5541969.404702704399824 ], [ 1262793.896874761208892, 5541969.404702704399824 ], [ 1262793.896874761208892, 5541869.404702704399824 ], [ 1262693.896874761208892, 5541869.404702704399824 ], [ 1262693.896874761208892, 5541969.404702704399824 ] ] ] } },
{ "type": "Feature", "properties": { "id": 755, "street_cells": 1601.897489799373, "yard_cells": 1.5743753093207811, "num_areas": 4.0 }, "geometry": { "type": "Polygon", "coordinates": [ [ [ 1262993.896874761208892, 5542269.404702704399824 ], [ 1263093.896874761208892, 5542269.404702704399824 ], [ 1263093.896874761208892, 5542169.404702704399824 ], [ 1262993.896874761208892, 5542169.404702704399824 ], [ 1262993.896874761208892, 5542269.404702704399824 ] ] ] } },
{ "type": "Feature", "properties": { "id": 843, "street_cells": 648.06174334026878, "yard_cells": 1163.792074023434, "num_areas": 3.0 }, "geometry": { "type": "Polygon", "coordinates": [ [ [ 1263293.896874761208892, 5543969.404702704399824 ], [ 1263393.896874761208892, 5543969.404702704399824 ], [ 1263393.896874761208892, 5543869.404702704399824 ], [ 1263293.896874761208892, 5543869.404702704399824 ], [ 1263293.896874761208892, 5543969.404702704399824 ] ] ] } },
{ "type": "Feature", "properties": { "id": 917, "street_cells": 1752.4278047382829, "yard_cells": 376.71738609604319, "num_areas": 5.0 }, "geometry": { "type": "Polygon", "coordinates": [ [ [ 1263493.896874761208892, 5543569.404702704399824 ], [ 1263593.896874761208892, 5543569.404702704399824 ], [ 1263593.896874761208892, 5543469.404702704399824 ], [ 1263493.896874761208892, 5543469.404702704399824 ], [ 1263493.896874761208892, 5543569.404702704399824 ] ] ] } },
{ "type": "Feature", "properties": { "id": 921, "street_cells": 1733.3716074228289, "yard_cells": 381.52747506391921, "num_areas": 7.0 }, "geometry": { "type": "Polygon", "coordinates": [ [ [ 1263493.896874761208892, 5543169.404702704399824 ], [ 1263593.896874761208892, 5543169.404702704399824 ], [ 1263593.896874761208892, 5543069.404702704399824 ], [ 1263493.896874761208892, 5543069.404702704399824 ], [ 1263493.896874761208892, 5543169.404702704399824 ] ] ] } },
{ "type": "Feature", "properties": { "id": 1164, "street_cells": 1219.5395062983041, "yard_cells": 4069.9828095138068, "num_areas": 4.0 }, "geometry": { "type": "Polygon", "coordinates": [ [ [ 1264193.896874761208892, 5543369.404702704399824 ], [ 1264293.896874761208892, 5543369.404702704399824 ], [ 1264293.896874761208892, 5543269.404702704399824 ], [ 1264193.896874761208892, 5543269.404702704399824 ], [ 1264193.896874761208892, 5543369.404702704399824 ] ] ] } }
]
}
