{
"type": "FeatureCollection",
"name": "result_no_streets_center",
"crs": { "type": "name", "properties": { "name": "urn:ogc:def:crs:EPSG::3857" } },
"features": [
{ "type": "Feature", "properties": { "id": 87, "street_cells": 0.0, "yard_cells": 2121.273903910002, "num_areas": 6.0 }, "geometry": { "type": "MultiPolygon", "coordinates": [ [ [ [ 1261093.896874761208892, 5542569.404702704399824 ], [ 1261193.896874761208892, 5542569.404702704399824 ], [ 1261193.896874761208892, 5542469.404702704399824 ], [ 1261093.896874761208892, 5542469.404702704399824 ], [ 1261093.896874761208892, 5542569.404702704399824 ] ] ] ] } },
{ "type": "Feature", "properties": { "id": 129, "street_cells": 0.0, "yard_cells": 3545.8750704056729, "num_areas": 4.0 }, "geometry": { "type": "MultiPolygon", "coordinates": [ [ [ [ 1261193.896874761208892, 5541869.404702704399824 ], [ 1261293.896874761208892, 5541869.404702704399824 ], [ 1261293.896874761208892, 5541769.404702704399824 ], [ 1261193.896874761208892, 5541769.404702704399824 ], [ 1261193.896874761208892, 5541869.404702704399824 ] ] ] ] } },
{ "type": "Feature", "properties": { "id": 153, "street_cells": 0.0, "yard_cells": 3996.29541171955, "num_areas": 6.0 }, "geometry": { "type": "MultiPolygon", "coordinates": [ [ [ [ 1261293.896874761208892, 5542969.404702704399824 ], [ 1261393.896874761208892, 5542969.404702704399824 ], [ 1261393.896874761208892, 5542869.404702704399824 ], [ 1261293.896874761208892, 5542869.404702704399824 ], [ 1261293.896874761208892, 5542969.404702704399824 ] ] ] ] } },
{ "type": "Feature", "properties": { "id": 188, "street_cells": 0.0, "yard_cells": 1861.574509587994, "num_areas": 4.0 }, "geometry": { "type": "MultiPolygon", "coordinates": [ [ [ [ 1261393.896874761208892, 5542969.404702704399824 ], [ 1261493.896874761208892, 5542969.404702704399824 ], [ 1261493.896874761208892, 5542869.404702704399824 ], [ 1261393.896874761208892, 5542869.404702704399824 ], [ 1261393.896874761208892, 5542969.404702704399824 ] ] ] ] } },
{ "type": "Feature", "properties": { "id": 291, "street_cells": 0.0, "yard_cells": 1307.0429838166881, "num_areas": 5.0 }, "geometry": { "type": "MultiPolygon", "coordinates": [ [ [ [ 1261693.896874761208892, 5543169.404702704399824 ], [ 1261793.896874761208892, 5543169.404702704399824 ], [ 1261793.896874761208892, 5543069.404702704399824 ], [ 1261693.896874761208892, 5543069.404702704399824 ], [ 1261693.896874761208892, 5543169.404702704399824 ] ] ] ] } },
{ "type": "Feature", "properties": { "id": 366, "street_cells": 0.0, "yard_cells": 1925.641901847061, "num_areas": 7.0 }, "geometry": { "type": "MultiPolygon", "coordinates": [ [ [ [ 1261893.896874761208892, 5542669.404702704399824 ], [ 1261993.896874761208892, 5542669.404702704399824 ], [ 1261993.896874761208892, 5542569.404702704399824 ], [ 1261893.896874761208892, 5542569.404702704399824 ], [ 1261893.896874761208892, 5542669.404702704399824 ] ] ] ] } },
{ "type": "Feature", "properties": { "id": 427, "street_cells": 0.0, "yard_cells": 1673.957117737737, "num_areas": 4.0 }, "geometry": { "type": "MultiPolygon", "coordinates": [ [ [ [ 1262093.896874761208892, 5543569.404702704399824 ], [ 1262193.896874761208892, 5543569.404702704399824 ], [ 1262193.896874761208892, 5543469.404702704399824 ], [ 1262093.896874761208892, 5543469.404702704399824 ], [ 1262093.896874761208892, 5543569.404702704399824 ] ] ] ] } },
{ "type": "Feature", "properties": { "id": 433, "street_cells": 0.0, "yard_cells": 1772.0539718892539, "num_areas": 3.0 }, "geometry": { "type": "MultiPolygon", "coordinates": [ [ [ [ 1262093.896874761208892, 5542969.404702704399824 ], [ 1262193.896874761208892, 5542969.404702704399824 ], [ 1262193.896874761208892, 5542869.404702704399824 ], [ 1262093.896874761208892, 5542869.404702704399824 ], [ 1262093.896874761208892, 5542969.404702704399824 ] ] ] ] } },
{ "type": "Feature", "properties": { "id": 496, "street_cells": 0.0, "yard_cells": 1925.435383316307, "num_areas": 2.0 }, "geometry": { "type": "MultiPolygon", "coordinates": [ [ [ [ 1262293.896874761208892, 5543669.404702704399824 ], [ 1262393.896874761208892, 5543669.404702704399824 ], [ 1262393.896874761208892, 5543569.404702704399824 ], [ 1262293.896874761208892, 5543569.404702704399824 ], [ 1262293.896874761208892, 5543669.404702704399824 ] ] ] ] } },
{ "type": "Feature", "properties": { "id": 539, "street_cells": 0.0, "yard_cells": 2424.9296679372278, "num_areas": 12.0 }, "geometry": { "type": "MultiPolygon", "coordinates": [ [ [ [ 1262393.896874761208892, 5542869.404702704399824 ], [ 1262493.896874761208892, 5542869.404702704399824 ], [ 1262493.896874761208892, 5542769.404702704399824 ], [ 1262393.896874761208892, 5542769.404702704399824 ], [ 1262393.896874761208892, 5542869.404702704399824 ] ] ] ] } },
{ "type": "Feature", "properties": { "id": 564, "street_cells": 0.0, "yard_cells": 1631.719970747457, "num_areas": 5.0 }, "geometry": { "type": "MultiPolygon", "coordinates": [ [ [ [ 1262493.896874761208892, 5543869.404702704399824 ], [ 1262593.896874761208892, 5543869.404702704399824 ], [ 1262593.896874761208892, 5543769.404702704399824 ], [ 1262493.896874761208892, 5543769.404702704399824 ], [ 1262493.896874761208892, 5543869.404702704399824 ] ] ] ] } },
{ "type": "Feature", "properties": { "id": 565, "street_cells": 0.0, "yard_cells": 3279.6697940845038, "num_areas": 7.0 }, "geometry": { "type": "MultiPolygon", "coordinates": [ [ [ [ 1262493.896874761208892, 5543769.404702704399824 ], [ 1262593.896874761208892, 5543769.404702704399824 ], [ 1262593.896874761208892, 5543669.404702704399824 ], [ 1262493.896874761208892, 5543669.404702704399824 ], [ 1262493.896874761208892, 5543769.404702704399824 ] ] ] ] } },
{ "type": "Feature", "properties": { "id": 615, "street_cells": 0.0, "yard_cells": 900.18081773491588, "num_areas": 3.0 }, "geometry": { "type": "MultiPolygon", "coordinates": [ [ [ [ 1262593.896874761208892, 5542269.404702704399824 ], [ 1262693.896874761208892, 5542269.404702704399824 ], [ 1262693.896874761208892, 5542169.404702704399824 ], [ 1262593.896874761208892, 5542169.404702704399824 ], [ 1262593.896874761208892, 5542269.404702704399824 ] ] ] ] } },
{ "type": "Feature", "properties": { "id": 647, "street_cells": 0.0, "yard_cells": 1507.7828665039269, "num_areas": 4.0 }, "geometry": { "type": "MultiPolygon", "coordinates": [ [ [ [ 1262693.896874761208892, 5542569.404702704399824 ], [ 1262793.896874761208892, 5542569.404702704399824 ], [ 1262793.896874761208892, 5542469.404702704399824 ], [ 1262693.896874761208892, 5542469.404702704399824 ], [ 1262693.896874761208892, 5542569.404702704399824 ] ] ] ] } },
{ "type": "Feature", "properties": { "id": 761, "street_cells": 0.0, "yard_cells": 3187.0685250228271, "num_areas": 12.0 }, "geometry": { "type": "MultiPolygon", "coordinates": [ [ [ [ 1262993.896874761208892, 5541669.404702704399824 ], [ 1263093.896874761208892, 5541669.404702704399824 ], [ 1263093.896874761208892, 5541569.404702704399824 ], [ 1262993.896874761208892, 5541569.404702704399824 ], [ 1262993.896874761208892, 5541669.404702704399824 ] ] ] ] } },
{ "type": "Feature", "properties": { "id": 781, "street_cells": 0.0, "yard_cells": 2454.4011198105291, "num_areas": 7.0 }, "geometry": { "type": "MultiPolygon", "coordinates": [ [ [ [ 1263093.896874761208892, 5543169.404702704399824 ], [ 1263193.896874761208892, 5543169.404702704399824 ], [ 1263193.896874761208892, 5543069.404702704399824 ], [ 1263093.896874761208892, 5543069.404702704399824 ], [ 1263093.896874761208892, 5543169.404702704399824 ] ] ] ] } },
{ "type": "Feature", "properties": { "id": 859, "street_cells": 0.0, "yard_cells": 1643.7824449603129, "num_areas": 7.0 }, "geometry": { "type": "MultiPolygon", "coordinates": [ [ [ [ 1263293.896874761208892, 5542369.404702704399824 ], [ 1263393.896874761208892, 5542369.404702704399824 ], [ 1263393.896874761208892, 5542269.404702704399824 ], [ 1263293.896874761208892, 5542269.404702704399824 ], [ 1263293.896874761208892, 5542369.404702704399824 ] ] ] ] } },
{ "type": "Feature", "properties": { "id": 941, "street_cells": 0.0, "yard_cells": 2900.3655350772801, "num_areas": 11.0 }, "geometry": { "type": "MultiPolygon", "coordinates": [ [ [ [ 1263493.896874761208892, 5541169.404702704399824 ], [ 1263593.896874761208892, 5541169.404702704399824 ], [ 1263593.896874761208892, 5541069.404702704399824 ], [ 1263493.896874761208892, 5541069.404702704399824 ], [ 1263493.896874761208892, 5541169.404702704399824 ] ] ] ] } },
{ "type": "Feature", "properties": { "id": 995, "street_cells": 0.0, "yard_cells": 3876.0622308444908, "num_areas": 8.0 }, "geometry": { "type": "MultiPolygon", "coordinates": [ [ [ [ 1263693.896874761208892, 5542769.404702704399824 ], [ 1263793.896874761208892, 5542769.404702704399824 ], [ 1263793.896874761208892, 5542669.404702704399824 ], [ 1263693.896874761208892, 5542669.404702704399824 ], [ 1263693.896874761208892, 5542769.404702704399824 ] ] ] ] } },
{ "type": "Feature", "properties": { "id": 1028, "street_cells": 0.0, "yard_cells": 4783.3336649015546, "num_areas": 2.0 }, "geometry": { "type": "MultiPolygon", "coordinates": [ [ [ [ 1263793.896874761208892, 5542969.404702704399824 ], [ 1263893.896874761208892, 5542969.404702704399824 ], [ 1263893.896874761208892, 5542869.404702704399824 ], [ 1263793.896874761208892, 5542869.404702704399824 ], [ 1263793.896874761208892, 5542969.404702704399824 ] ] ] ] } }
]
}
