{
"type": "FeatureCollection",
"name": "result_stat",
"crs": { "type": "name", "properties": { "name": "urn:ogc:def:crs:EPSG::3857" } },
"features": [
{ "type": "Feature", "properties": { "id": 70, "row_index": 2, "col_index": 1, "street_cells": 1511.7247000247239, "yard_cells": 3302.402414595661, "num_areas": 6.0 }, "geometry": { "type": "Polygon", "coordinates": [ [ [ 1261111.083918832940981, 5543929.320480721071362 ], [ 1261211.083918832940981, 5543929.320480721071362 ], [ 1261211.083918832940981, 5543829.320480721071362 ], [ 1261111.083918832940981, 5543829.320480721071362 ], [ 1261111.083918832940981, 5543929.320480721071362 ] ] ] } },
{ "type": "Feature", "properties": { "id": 84, "row_index": 2, "col_index": 15, "street_cells": 973.58979856073859, "yard_cells": 814.5277473484166, "num_areas": 5.0 }, "geometry": { "type": "Polygon", "coordinates": [ [ [ 1261111.083918832940981, 5542529.320480721071362 ], [ 1261211.083918832940981, 5542529.320480721071362 ], [ 1261211.083918832940981, 5542429.320480721071362 ], [ 1261111.083918832940981, 5542429.320480721071362 ], [ 1261111.083918832940981, 5542529.320480721071362 ] ] ] } },
{ "type": "Feature", "properties": { "id": 139, "row_index": 4, "col_index": 2, "street_cells": 2169.421446269751, "yard_cells": 1883.574917636382, "num_areas": 6.0 }, "geometry": { "type": "Polygon", "coordinates": [ [ [ 1261311.083918832940981, 5543829.320480721071362 ], [ 1261411.083918832940981, 5543829.320480721071362 ], [ 1261411.083918832940981, 5543729.320480721071362 ], [ 1261311.083918832940981, 5543729.320480721071362 ], [ 1261311.083918832940981, 5543829.320480721071362 ] ] ] } },
{ "type": "Feature", "properties": { "id": 212, "row_index": 6, "col_index": 7, "street_cells": 985.78825381696231, "yard_cells": 2418.5313291773368, "num_areas": 6.0 }, "geometry": { "type": "Polygon", "coordinates": [ [ [ 1261511.083918832940981, 5543329.320480721071362 ], [ 1261611.083918832940981, 5543329.320480721071362 ], [ 1261611.083918832940981, 5543229.320480721071362 ], [ 1261511.083918832940981, 5543229.320480721071362 ], [ 1261511.083918832940981, 5543329.320480721071362 ] ] ] } },
{ "type": "Feature", "properties": { "id": 273, "row_index": 8, "col_index": 0, "street_cells": 1645.3258505284789, "yard_cells": 1827.3287864694871, "num_areas": 3.0 }, "geometry": { "type": "Polygon", "coordinates": [ [ [ 1261711.083918832940981, 5544029.320480721071362 ], [ 1261811.083918832940981, 5544029.320480721071362 ], [ 1261811.083918832940981, 5543929.320480721071362 ], [ 1261711.083918832940981, 5543929.320480721071362 ], [ 1261711.083918832940981, 5544029.320480721071362 ] ] ] } },
{ "type": "Feature", "properties": { "id": 274, "row_index": 8, "col_index": 1, "street_cells": 626.66866474878043, "yard_cells": 3009.4638279825449, "num_areas": 4.0 }, "geometry": { "type": "Polygon", "coordinates": [ [ [ 1261711.083918832940981, 5543929.320480721071362 ], [ 1261811.083918832940981, 5543929.320480721071362 ], [ 1261811.083918832940981, 5543829.320480721071362 ], [ 1261711.083918832940981, 5543829.320480721071362 ], [ 1261711.083918832940981, 5543929.320480721071362 ] ] ] } },
{ "type": "Feature", "properties": { "id": 282, "row_index": 8, "col_index": 9, "street_cells": 1772.5875988990069, "yard_cells": 1063.635848396367, "num_areas": 8.0 }, "geometry": { "type": "Polygon", "coordinates": [ [ [ 1261711.083918832940981, 5543129.320480721071362 ], [ 1261811.083918832940981, 5543129.320480721071362 ], [ 1261811.083918832940981, 5543029.320480721071362 ], [ 1261711.083918832940981, 5543029.320480721071362 ], [ 1261711.083918832940981, 5543129.320480721071362 ] ] ] } },
{ "type": "Feature", "properties": { "id": 283, "row_index": 8, "col_index": 10, "street_cells": 1209.4265106439591, "yard_cells": 1541.5709273535761, "num_areas": 5.0 }, "geometry": { "type": "Polygon", "coordinates": [ [ [ 1261711.083918832940981, 5543029.320480721071362 ], [ 1261811.083918832940981, 5543029.320480721071362 ], [ 1261811.083918832940981, 5542929.320480721071362 ], [ 1261711.083918832940981, 5542929.320480721071362 ], [ 1261711.083918832940981, 5543029.320480721071362 ] ] ] } },
{ "type": "Feature", "properties": { "id": 308, "row_index": 9, "col_index": 1, "street_cells": 18.241029843688011, "yard_cells": 5964.8591648200527, "num_areas": 2.0 }, "geometry": { "type": "Polygon", "coordinates": [ [ [ 1261811.083918832940981, 5543929.320480721071362 ], [ 1261911.083918832940981, 5543929.320480721071362 ], [ 1261911.083918832940981, 5543829.320480721071362 ], [ 1261811.083918832940981, 5543829.320480721071362 ], [ 1261811.083918832940981, 5543929.320480721071362 ] ] ] } },
{ "type": "Feature", "properties": { "id": 344, "row_index": 10, "col_index": 3, "street_cells": 58.709776908159263, "yard_cells": 3678.7305306745689, "num_areas": 4.0 }, "geometry": { "type": "Polygon", "coordinates": [ [ [ 1261911.083918832940981, 5543729.320480721071362 ], [ 1262011.083918832940981, 5543729.320480721071362 ], [ 1262011.083918832940981, 5543629.320480721071362 ], [ 1261911.083918832940981, 5543629.320480721071362 ], [ 1261911.083918832940981, 5543729.320480721071362 ] ] ] } },
{ "type": "Feature", "properties": { "id": 354, "row_index": 10, "col_index": 13, "street_cells": 1003.706352251768, "yard_cells": 1121.6464899068069, "num_areas": 5.0 }, "geometry": { "type": "Polygon", "coordinates": [ [ [ 1261911.083918832940981, 5542729.320480721071362 ], [ 1262011.083918832940981, 5542729.320480721071362 ], [ 1262011.083918832940981, 5542629.320480721071362 ], [ 1261911.083918832940981, 5542629.320480721071362 ], [ 1261911.083918832940981, 5542729.320480721071362 ] ] ] } },
{ "type": "Feature", "properties": { "id": 379, "row_index": 11, "col_index": 4, "street_cells": 1656.6745495833461, "yard_cells": 963.96462078695185, "num_areas": 4.0 }, "geometry": { "type": "Polygon", "coordinates": [ [ [ 1262011.083918832940981, 5543629.320480721071362 ], [ 1262111.083918832940981, 5543629.320480721071362 ], [ 1262111.083918832940981, 5543529.320480721071362 ], [ 1262011.083918832940981, 5543529.320480721071362 ], [ 1262011.083918832940981, 5543629.320480721071362 ] ] ] } },
{ "type": "Feature", "properties": { "id": 388, "row_index": 11, "col_index": 13, "street_cells": 1418.8865330129861, "yard_cells": 73.476723596821103, "num_areas": 3.0 }, "geometry": { "type": "Polygon", "coordinates": [ [ [ 1262011.083918832940981, 5542729.320480721071362 ], [ 1262111.083918832940981, 5542729.320480721071362 ], [ 1262111.083918832940981, 5542629.320480721071362 ], [ 1262011.083918832940981, 5542629.320480721071362 ], [ 1262011.083918832940981, 5542729.320480721071362 ] ] ] } },
{ "type": "Feature", "properties": { "id": 389, "row_index": 11, "col_index": 14, "street_cells": 2004.065699518472, "yard_cells": 302.52809919044381, "num_areas": 3.0 }, "geometry": { "type": "Polygon", "coordinates": [ [ [ 1262011.083918832940981, 5542629.320480721071362 ], [ 1262111.083918832940981, 5542629.320480721071362 ], [ 1262111.083918832940981, 5542529.320480721071362 ], [ 1262011.083918832940981, 5542529.320480721071362 ], [ 1262011.083918832940981, 5542629.320480721071362 ] ] ] } },
{ "type": "Feature", "properties": { "id": 390, "row_index": 11, "col_index": 15, "street_cells": 2310.4737372755999, "yard_cells": 56.322273502126343, "num_areas": 1.0 }, "geometry": { "type": "Polygon", "coordinates": [ [ [ 1262011.083918832940981, 5542529.320480721071362 ], [ 1262111.083918832940981, 5542529.320480721071362 ], [ 1262111.083918832940981, 5542429.320480721071362 ], [ 1262011.083918832940981, 5542429.320480721071362 ], [ 1262011.083918832940981, 5542529.320480721071362 ] ] ] } },
{ "type": "Feature", "properties": { "id": 414, "row_index": 12, "col_index": 5, "street_cells": 876.37043713354512, "yard_cells": 1965.9791169199871, "num_areas": 7.0 }, "geometry": { "type": "Polygon", "coordinates": [ [ [ 1262111.083918832940981, 5543529.320480721071362 ], [ 1262211.083918832940981, 5543529.320480721071362 ], [ 1262211.083918832940981, 5543429.320480721071362 ], [ 1262111.083918832940981, 5543429.320480721071362 ], [ 1262111.083918832940981, 5543529.320480721071362 ] ] ] } },
{ "type": "Feature", "properties": { "id": 420, "row_index": 12, "col_index": 11, "street_cells": 1393.18056332469, "yard_cells": 917.96516495384276, "num_areas": 5.0 }, "geometry": { "type": "Polygon", "coordinates": [ [ [ 1262111.083918832940981, 5542929.320480721071362 ], [ 1262211.083918832940981, 5542929.320480721071362 ], [ 1262211.083918832940981, 5542829.320480721071362 ], [ 1262111.083918832940981, 5542829.320480721071362 ], [ 1262111.083918832940981, 5542929.320480721071362 ] ] ] } },
{ "type": "Feature", "properties": { "id": 423, "row_index": 12, "col_index": 14, "street_cells": 1154.5753192365171, "yard_cells": 230.5531662595458, "num_areas": 6.0 }, "geometry": { "type": "Polygon", "coordinates": [ [ [ 1262111.083918832940981, 5542629.320480721071362 ], [ 1262211.083918832940981, 5542629.320480721071362 ], [ 1262211.083918832940981, 5542529.320480721071362 ], [ 1262111.083918832940981, 5542529.320480721071362 ], [ 1262111.083918832940981, 5542629.320480721071362 ] ] ] } },
{ "type": "Feature", "properties": { "id": 424, "row_index": 12, "col_index": 15, "street_cells": 1233.530400237441, "yard_cells": 29.1900271428749, "num_areas": 2.0 }, "geometry": { "type": "Polygon", "coordinates": [ [ [ 1262111.083918832940981, 5542529.320480721071362 ], [ 1262211.083918832940981, 5542529.320480721071362 ], [ 1262211.083918832940981, 5542429.320480721071362 ], [ 1262111.083918832940981, 5542429.320480721071362 ], [ 1262111.083918832940981, 5542529.320480721071362 ] ] ] } },
{ "type": "Feature", "properties": { "id": 446, "row_index": 13, "col_index": 3, "street_cells": 2511.8421060800561, "yard_cells": 273.94193175103959, "num_areas": 6.0 }, "geometry": { "type": "Polygon", "coordinates": [ [ [ 1262211.083918832940981, 5543729.320480721071362 ], [ 1262311.083918832940981, 5543729.320480721071362 ], [ 1262311.083918832940981, 5543629.320480721071362 ], [ 1262211.083918832940981, 5543629.320480721071362 ], [ 1262211.083918832940981, 5543729.320480721071362 ] ] ] } },
{ "type": "Feature", "properties": { "id": 447, "row_index": 13, "col_index": 4, "street_cells": 1153.432849541306, "yard_cells": 1557.581618531324, "num_areas": 5.0 }, "geometry": { "type": "Polygon", "coordinates": [ [ [ 1262211.083918832940981, 5543629.320480721071362 ], [ 1262311.083918832940981, 5543629.320480721071362 ], [ 1262311.083918832940981, 5543529.320480721071362 ], [ 1262211.083918832940981, 5543529.320480721071362 ], [ 1262211.083918832940981, 5543629.320480721071362 ] ] ] } },
{ "type": "Feature", "properties": { "id": 452, "row_index": 13, "col_index": 9, "street_cells": 1671.0307904079559, "yard_cells": 162.60191772849649, "num_areas": 5.0 }, "geometry": { "type": "Polygon", "coordinates": [ [ [ 1262211.083918832940981, 5543129.320480721071362 ], [ 1262311.083918832940981, 5543129.320480721071362 ], [ 1262311.083918832940981, 5543029.320480721071362 ], [ 1262211.083918832940981, 5543029.320480721071362 ], [ 1262211.083918832940981, 5543129.320480721071362 ] ] ] } },
{ "type": "Feature", "properties": { "id": 453, "row_index": 13, "col_index": 10, "street_cells": 1489.177886344492, "yard_cells": 308.96894625661298, "num_areas": 5.0 }, "geometry": { "type": "Polygon", "coordinates": [ [ [ 1262211.083918832940981, 5543029.320480721071362 ], [ 1262311.083918832940981, 5543029.320480721071362 ], [ 1262311.083918832940981, 5542929.320480721071362 ], [ 1262211.083918832940981, 5542929.320480721071362 ], [ 1262211.083918832940981, 5543029.320480721071362 ] ] ] } },
{ "type": "Feature", "properties": { "id": 454, "row_index": 13, "col_index": 11, "street_cells": 788.75554745495322, "yard_cells": 1205.876173148079, "num_areas": 6.0 }, "geometry": { "type": "Polygon", "coordinates": [ [ [ 1262211.083918832940981, 5542929.320480721071362 ], [ 1262311.083918832940981, 5542929.320480721071362 ], [ 1262311.083918832940981, 5542829.320480721071362 ], [ 1262211.083918832940981, 5542829.320480721071362 ], [ 1262211.083918832940981, 5542929.320480721071362 ] ] ] } },
{ "type": "Feature", "properties": { "id": 480, "row_index": 14, "col_index": 3, "street_cells": 1211.10654180646, "yard_cells": 1254.3080742541581, "num_areas": 6.0 }, "geometry": { "type": "Polygon", "coordinates": [ [ [ 1262311.083918832940981, 5543729.320480721071362 ], [ 1262411.083918832940981, 5543729.320480721071362 ], [ 1262411.083918832940981, 5543629.320480721071362 ], [ 1262311.083918832940981, 5543629.320480721071362 ], [ 1262311.083918832940981, 5543729.320480721071362 ] ] ] } },
{ "type": "Feature", "properties": { "id": 493, "row_index": 14, "col_index": 16, "street_cells": 1760.0682718694211, "yard_cells": 269.50874095613841, "num_areas": 6.0 }, "geometry": { "type": "Polygon", "coordinates": [ [ [ 1262311.083918832940981, 5542429.320480721071362 ], [ 1262411.083918832940981, 5542429.320480721071362 ], [ 1262411.083918832940981, 5542329.320480721071362 ], [ 1262311.083918832940981, 5542329.320480721071362 ], [ 1262311.083918832940981, 5542429.320480721071362 ] ] ] } },
{ "type": "Feature", "properties": { "id": 494, "row_index": 14, "col_index": 17, "street_cells": 1782.678675054538, "yard_cells": 905.04230325006711, "num_areas": 6.0 }, "geometry": { "type": "Polygon", "coordinates": [ [ [ 1262311.083918832940981, 5542329.320480721071362 ], [ 1262411.083918832940981, 5542329.320480721071362 ], [ 1262411.083918832940981, 5542229.320480721071362 ], [ 1262311.083918832940981, 5542229.320480721071362 ], [ 1262311.083918832940981, 5542329.320480721071362 ] ] ] } },
{ "type": "Feature", "properties": { "id": 503, "row_index": 14, "col_index": 26, "street_cells": 2320.297164027766, "yard_cells": 251.24396414324579, "num_areas": 12.0 }, "geometry": { "type": "Polygon", "coordinates": [ [ [ 1262311.083918832940981, 5541429.320480721071362 ], [ 1262411.083918832940981, 5541429.320480721071362 ], [ 1262411.083918832940981, 5541329.320480721071362 ], [ 1262311.083918832940981, 5541329.320480721071362 ], [ 1262311.083918832940981, 5541429.320480721071362 ] ] ] } },
{ "type": "Feature", "properties": { "id": 513, "row_index": 15, "col_index": 2, "street_cells": 1279.3930267751221, "yard_cells": 1785.7361099403349, "num_areas": 3.0 }, "geometry": { "type": "Polygon", "coordinates": [ [ [ 1262411.083918832940981, 5543829.320480721071362 ], [ 1262511.083918832940981, 5543829.320480721071362 ], [ 1262511.083918832940981, 5543729.320480721071362 ], [ 1262411.083918832940981, 5543729.320480721071362 ], [ 1262411.083918832940981, 5543829.320480721071362 ] ] ] } },
{ "type": "Feature", "properties": { "id": 515, "row_index": 15, "col_index": 4, "street_cells": 1459.6864181175829, "yard_cells": 1266.5021600478849, "num_areas": 10.0 }, "geometry": { "type": "Polygon", "coordinates": [ [ [ 1262411.083918832940981, 5543629.320480721071362 ], [ 1262511.083918832940981, 5543629.320480721071362 ], [ 1262511.083918832940981, 5543529.320480721071362 ], [ 1262411.083918832940981, 5543529.320480721071362 ], [ 1262411.083918832940981, 5543629.320480721071362 ] ] ] } },
{ "type": "Feature", "properties": { "id": 545, "row_index": 16, "col_index": 0, "street_cells": 1746.7899696677921, "yard_cells": 201.74833176135141, "num_areas": 5.0 }, "geometry": { "type": "Polygon", "coordinates": [ [ [ 1262511.083918832940981, 5544029.320480721071362 ], [ 1262611.083918832940981, 5544029.320480721071362 ], [ 1262611.083918832940981, 5543929.320480721071362 ], [ 1262511.083918832940981, 5543929.320480721071362 ], [ 1262511.083918832940981, 5544029.320480721071362 ] ] ] } },
{ "type": "Feature", "properties": { "id": 555, "row_index": 16, "col_index": 10, "street_cells": 1616.893698471785, "yard_cells": 669.6889520580587, "num_areas": 9.0 }, "geometry": { "type": "Polygon", "coordinates": [ [ [ 1262511.083918832940981, 5543029.320480721071362 ], [ 1262611.083918832940981, 5543029.320480721071362 ], [ 1262611.083918832940981, 5542929.320480721071362 ], [ 1262511.083918832940981, 5542929.320480721071362 ], [ 1262511.083918832940981, 5543029.320480721071362 ] ] ] } },
{ "type": "Feature", "properties": { "id": 561, "row_index": 16, "col_index": 16, "street_cells": 936.57767456844454, "yard_cells": 615.22831733943895, "num_areas": 5.0 }, "geometry": { "type": "Polygon", "coordinates": [ [ [ 1262511.083918832940981, 5542429.320480721071362 ], [ 1262611.083918832940981, 5542429.320480721071362 ], [ 1262611.083918832940981, 5542329.320480721071362 ], [ 1262511.083918832940981, 5542329.320480721071362 ], [ 1262511.083918832940981, 5542429.320480721071362 ] ] ] } },
{ "type": "Feature", "properties": { "id": 585, "row_index": 17, "col_index": 6, "street_cells": 1277.0292077511549, "yard_cells": 1043.9169931526501, "num_areas": 6.0 }, "geometry": { "type": "Polygon", "coordinates": [ [ [ 1262611.083918832940981, 5543429.320480721071362 ], [ 1262711.083918832940981, 5543429.320480721071362 ], [ 1262711.083918832940981, 5543329.320480721071362 ], [ 1262611.083918832940981, 5543329.320480721071362 ], [ 1262611.083918832940981, 5543429.320480721071362 ] ] ] } },
{ "type": "Feature", "properties": { "id": 593, "row_index": 17, "col_index": 14, "street_cells": 1229.8179204069079, "yard_cells": 971.76701488422259, "num_areas": 8.0 }, "geometry": { "type": "Polygon", "coordinates": [ [ [ 1262611.083918832940981, 5542629.320480721071362 ], [ 1262711.083918832940981, 5542629.320480721071362 ], [ 1262711.083918832940981, 5542529.320480721071362 ], [ 1262611.083918832940981, 5542529.320480721071362 ], [ 1262611.083918832940981, 5542629.320480721071362 ] ] ] } },
{ "type": "Feature", "properties": { "id": 594, "row_index": 17, "col_index": 15, "street_cells": 1160.8462806969881, "yard_cells": 257.93536515254527, "num_areas": 2.0 }, "geometry": { "type": "Polygon", "coordinates": [ [ [ 1262611.083918832940981, 5542529.320480721071362 ], [ 1262711.083918832940981, 5542529.320480721071362 ], [ 1262711.083918832940981, 5542429.320480721071362 ], [ 1262611.083918832940981, 5542429.320480721071362 ], [ 1262611.083918832940981, 5542529.320480721071362 ] ] ] } },
{ "type": "Feature", "properties": { "id": 619, "row_index": 18, "col_index": 6, "street_cells": 1714.7401024252181, "yard_cells": 733.38728750425196, "num_areas": 7.0 }, "geometry": { "type": "Polygon", "coordinates": [ [ [ 1262711.083918832940981, 5543429.320480721071362 ], [ 1262811.083918832940981, 5543429.320480721071362 ], [ 1262811.083918832940981, 5543329.320480721071362 ], [ 1262711.083918832940981, 5543329.320480721071362 ], [ 1262711.083918832940981, 5543429.320480721071362 ] ] ] } },
{ "type": "Feature", "properties": { "id": 624, "row_index": 18, "col_index": 11, "street_cells": 1533.454297918081, "yard_cells": 112.8241269482196, "num_areas": 6.0 }, "geometry": { "type": "Polygon", "coordinates": [ [ [ 1262711.083918832940981, 5542929.320480721071362 ], [ 1262811.083918832940981, 5542929.320480721071362 ], [ 1262811.083918832940981, 5542829.320480721071362 ], [ 1262711.083918832940981, 5542829.320480721071362 ], [ 1262711.083918832940981, 5542929.320480721071362 ] ] ] } },
{ "type": "Feature", "properties": { "id": 633, "row_index": 18, "col_index": 20, "street_cells": 892.13144579939546, "yard_cells": 60.94385446049273, "num_areas": 2.0 }, "geometry": { "type": "Polygon", "coordinates": [ [ [ 1262711.083918832940981, 5542029.320480721071362 ], [ 1262811.083918832940981, 5542029.320480721071362 ], [ 1262811.083918832940981, 5541929.320480721071362 ], [ 1262711.083918832940981, 5541929.320480721071362 ], [ 1262711.083918832940981, 5542029.320480721071362 ] ] ] } },
{ "type": "Feature", "properties": { "id": 664, "row_index": 19, "col_index": 17, "street_cells": 1415.843776400387, "yard_cells": 163.3772012288641, "num_areas": 5.0 }, "geometry": { "type": "Polygon", "coordinates": [ [ [ 1262811.083918832940981, 5542329.320480721071362 ], [ 1262911.083918832940981, 5542329.320480721071362 ], [ 1262911.083918832940981, 5542229.320480721071362 ], [ 1262811.083918832940981, 5542229.320480721071362 ], [ 1262811.083918832940981, 5542329.320480721071362 ] ] ] } },
{ "type": "Feature", "properties": { "id": 728, "row_index": 21, "col_index": 13, "street_cells": 1634.413230182603, "yard_cells": 1013.022975159693, "num_areas": 6.0 }, "geometry": { "type": "Polygon", "coordinates": [ [ [ 1263011.083918832940981, 5542729.320480721071362 ], [ 1263111.083918832940981, 5542729.320480721071362 ], [ 1263111.083918832940981, 5542629.320480721071362 ], [ 1263011.083918832940981, 5542629.320480721071362 ], [ 1263011.083918832940981, 5542729.320480721071362 ] ] ] } },
{ "type": "Feature", "properties": { "id": 732, "row_index": 21, "col_index": 17, "street_cells": 1661.36740539074, "yard_cells": 273.07017326688498, "num_areas": 7.0 }, "geometry": { "type": "Polygon", "coordinates": [ [ [ 1263011.083918832940981, 5542329.320480721071362 ], [ 1263111.083918832940981, 5542329.320480721071362 ], [ 1263111.083918832940981, 5542229.320480721071362 ], [ 1263011.083918832940981, 5542229.320480721071362 ], [ 1263011.083918832940981, 5542329.320480721071362 ] ] ] } },
{ "type": "Feature", "properties": { "id": 736, "row_index": 21, "col_index": 21, "street_cells": 1365.277293129265, "yard_cells": 80.949658212717623, "num_areas": 3.0 }, "geometry": { "type": "Polygon", "coordinates": [ [ [ 1263011.083918832940981, 5541929.320480721071362 ], [ 1263111.083918832940981, 5541929.320480721071362 ], [ 1263111.083918832940981, 5541829.320480721071362 ], [ 1263011.083918832940981, 5541829.320480721071362 ], [ 1263011.083918832940981, 5541929.320480721071362 ] ] ] } },
{ "type": "Feature", "properties": { "id": 825, "row_index": 24, "col_index": 8, "street_cells": 1729.916119673848, "yard_cells": 295.93110762420201, "num_areas": 6.0 }, "geometry": { "type": "Polygon", "coordinates": [ [ [ 1263311.083918832940981, 5543229.320480721071362 ], [ 1263411.083918832940981, 5543229.320480721071362 ], [ 1263411.083918832940981, 5543129.320480721071362 ], [ 1263311.083918832940981, 5543129.320480721071362 ], [ 1263311.083918832940981, 5543229.320480721071362 ] ] ] } },
{ "type": "Feature", "properties": { "id": 899, "row_index": 26, "col_index": 14, "street_cells": 1577.759677994251, "yard_cells": 283.86344130694562, "num_areas": 4.0 }, "geometry": { "type": "Polygon", "coordinates": [ [ [ 1263511.083918832940981, 5542629.320480721071362 ], [ 1263611.083918832940981, 5542629.320480721071362 ], [ 1263611.083918832940981, 5542529.320480721071362 ], [ 1263511.083918832940981, 5542529.320480721071362 ], [ 1263511.083918832940981, 5542629.320480721071362 ] ] ] } },
{ "type": "Feature", "properties": { "id": 937, "row_index": 27, "col_index": 18, "street_cells": 1995.0772975265979, "yard_cells": 448.40745893949469, "num_areas": 7.0 }, "geometry": { "type": "Polygon", "coordinates": [ [ [ 1263611.083918832940981, 5542229.320480721071362 ], [ 1263711.083918832940981, 5542229.320480721071362 ], [ 1263711.083918832940981, 5542129.320480721071362 ], [ 1263611.083918832940981, 5542129.320480721071362 ], [ 1263611.083918832940981, 5542229.320480721071362 ] ] ] } },
{ "type": "Feature", "properties": { "id": 959, "row_index": 28, "col_index": 6, "street_cells": 552.61757143437865, "yard_cells": 2893.2372215632349, "num_areas": 2.0 }, "geometry": { "type": "Polygon", "coordinates": [ [ [ 1263711.083918832940981, 5543429.320480721071362 ], [ 1263811.083918832940981, 5543429.320480721071362 ], [ 1263811.083918832940981, 5543329.320480721071362 ], [ 1263711.083918832940981, 5543329.320480721071362 ], [ 1263711.083918832940981, 5543429.320480721071362 ] ] ] } },
{ "type": "Feature", "properties": { "id": 1130, "row_index": 33, "col_index": 7, "street_cells": 139.41706162691119, "yard_cells": 5527.6376019045711, "num_areas": 2.0 }, "geometry": { "type": "Polygon", "coordinates": [ [ [ 1264211.083918832940981, 5543329.320480721071362 ], [ 1264311.083918832940981, 5543329.320480721071362 ], [ 1264311.083918832940981, 5543229.320480721071362 ], [ 1264211.083918832940981, 5543229.320480721071362 ], [ 1264211.083918832940981, 5543329.320480721071362 ] ] ] } },
{ "type": "Feature", "properties": { "id": 1132, "row_index": 33, "col_index": 9, "street_cells": 694.94987827092416, "yard_cells": 2316.7203729284588, "num_areas": 4.0 }, "geometry": { "type": "Polygon", "coordinates": [ [ [ 1264211.083918832940981, 5543129.320480721071362 ], [ 1264311.083918832940981, 5543129.320480721071362 ], [ 1264311.083918832940981, 5543029.320480721071362 ], [ 1264211.083918832940981, 5543029.320480721071362 ], [ 1264211.083918832940981, 5543129.320480721071362 ] ] ] } }
]
}
