{
"type": "FeatureCollection",
"name": "result_trees",
"crs": { "type": "name", "properties": { "name": "urn:ogc:def:crs:EPSG::3857" } },
"features": [
{ "type": "Feature", "properties": { "id": 84, "street_cells": 973.5897985547781, "yard_cells": 814.5277473484166, "num_areas": 5.0 }, "geometry": { "type": "Polygon", "coordinates": [ [ [ 1261111.083918832940981, 5542529.320480721071362 ], [ 1261211.083918832940981, 5542529.320480721071362 ], [ 1261211.083918832940981, 5542429.320480721071362 ], [ 1261111.083918832940981, 5542429.320480721071362 ], [ 1261111.083918832940981, 5542529.320480721071362 ] ] ] } },
{ "type": "Feature", "properties": { "id": 212, "street_cells": 985.78825381100182, "yard_cells": 2418.5313291773368, "num_areas": 6.0 }, "geometry": { "type": "Polygon", "coordinates": [ [ [ 1261511.083918832940981, 5543329.320480721071362 ], [ 1261611.083918832940981, 5543329.320480721071362 ], [ 1261611.083918832940981, 5543229.320480721071362 ], [ 1261511.083918832940981, 5543229.320480721071362 ], [ 1261511.083918832940981, 5543329.320480721071362 ] ] ] } },
{ "type": "Feature", "properties": { "id": 273, "street_cells": 1645.3258505404001, "yard_cells": 1827.3287864694871, "num_areas": 3.0 }, "geometry": { "type": "Polygon", "coordinates": [ [ [ 1261711.083918832940981, 5544029.320480721071362 ], [ 1261811.083918832940981, 5544029.320480721071362 ], [ 1261811.083918832940981, 5543929.320480721071362 ], [ 1261711.083918832940981, 5543929.320480721071362 ], [ 1261711.083918832940981, 5544029.320480721071362 ] ] ] } },
{ "type": "Feature", "properties": { "id": 274, "street_cells": 626.66866473834966, "yard_cells": 3009.4638279825449, "num_areas": 4.0 }, "geometry": { "type": "Polygon", "coordinates": [ [ [ 1261711.083918832940981, 5543929.320480721071362 ], [ 1261811.083918832940981, 5543929.320480721071362 ], [ 1261811.083918832940981, 5543829.320480721071362 ], [ 1261711.083918832940981, 5543829.320480721071362 ], [ 1261711.083918832940981, 5543929.320480721071362 ] ] ] } },
{ "type": "Feature", "properties": { "id": 282, "street_cells": 1772.5875988781449, "yard_cells": 1063.635848396367, "num_areas": 8.0 }, "geometry": { "type": "Polygon", "coordinates": [ [ [ 1261711.083918832940981, 5543129.320480721071362 ], [ 1261811.083918832940981, 5543129.320480721071362 ], [ 1261811.083918832940981, 5543029.320480721071362 ], [ 1261711.083918832940981, 5543029.320480721071362 ], [ 1261711.083918832940981, 5543129.320480721071362 ] ] ] } },
{ "type": "Feature", "properties": { "id": 283, "street_cells": 1209.426510626078, "yard_cells": 1541.5709273535761, "num_areas": 5.0 }, "geometry": { "type": "Polygon", "coordinates": [ [ [ 1261711.083918832940981, 5543029.320480721071362 ], [ 1261811.083918832940981, 5543029.320480721071362 ], [ 1261811.083918832940981, 5542929.320480721071362 ], [ 1261711.083918832940981, 5542929.320480721071362 ], [ 1261711.083918832940981, 5543029.320480721071362 ] ] ] } },
{ "type": "Feature", "properties": { "id": 308, "street_cells": 18.241029843688011, "yard_cells": 5964.8591648200527, "num_areas": 2.0 }, "geometry": { "type": "Polygon", "coordinates": [ [ [ 1261811.083918832940981, 5543929.320480721071362 ], [ 1261911.083918832940981, 5543929.320480721071362 ], [ 1261911.083918832940981, 5543829.320480721071362 ], [ 1261811.083918832940981, 5543829.320480721071362 ], [ 1261811.083918832940981, 5543929.320480721071362 ] ] ] } },
{ "type": "Feature", "properties": { "id": 344, "street_cells": 58.709776890277872, "yard_cells": 3678.7305306745689, "num_areas": 4.0 }, "geometry": { "type": "Polygon", "coordinates": [ [ [ 1261911.083918832940981, 5543729.320480721071362 ], [ 1262011.083918832940981, 5543729.320480721071362 ], [ 1262011.083918832940981, 5543629.320480721071362 ], [ 1261911.083918832940981, 5543629.320480721071362 ], [ 1261911.083918832940981, 5543729.320480721071362 ] ] ] } },
{ "type": "Feature", "properties": { "id": 352, "street_cells": 674.0363334864378, "yard_cells": 779.08431093302352, "num_areas": 5.0 }, "geometry": { "type": "Polygon", "coordinates": [ [ [ 1261911.083918832940981, 5542929.320480721071362 ], [ 1262011.083918832940981, 5542929.320480721071362 ], [ 1262011.083918832940981, 5542829.320480721071362 ], [ 1261911.083918832940981, 5542829.320480721071362 ], [ 1261911.083918832940981, 5542929.320480721071362 ] ] ] } },
{ "type": "Feature", "properties": { "id": 353, "street_cells": 1051.9063002318139, "yard_cells": 646.79762665501539, "num_areas": 9.0 }, "geometry": { "type": "Polygon", "coordinates": [ [ [ 1261911.083918832940981, 5542829.320480721071362 ], [ 1262011.083918832940981, 5542829.320480721071362 ], [ 1262011.083918832940981, 5542729.320480721071362 ], [ 1261911.083918832940981, 5542729.320480721071362 ], [ 1261911.083918832940981, 5542829.320480721071362 ] ] ] } },
{ "type": "Feature", "properties": { "id": 354, "street_cells": 1003.70635227859, "yard_cells": 1121.6464899068069, "num_areas": 5.0 }, "geometry": { "type": "Polygon", "coordinates": [ [ [ 1261911.083918832940981, 5542729.320480721071362 ], [ 1262011.083918832940981, 5542729.320480721071362 ], [ 1262011.083918832940981, 5542629.320480721071362 ], [ 1261911.083918832940981, 5542629.320480721071362 ], [ 1261911.083918832940981, 5542729.320480721071362 ] ] ] } },
{ "type": "Feature", "properties": { "id": 388, "street_cells": 1418.886533004046, "yard_cells": 73.476723596820776, "num_areas": 3.0 }, "geometry": { "type": "Polygon", "coordinates": [ [ [ 1262011.083918832940981, 5542729.320480721071362 ], [ 1262111.083918832940981, 5542729.320480721071362 ], [ 1262111.083918832940981, 5542629.320480721071362 ], [ 1262011.083918832940981, 5542629.320480721071362 ], [ 1262011.083918832940981, 5542729.320480721071362 ] ] ] } },
{ "type": "Feature", "properties": { "id": 389, "street_cells": 740.11749653220181, "yard_cells": 302.52809919044381, "num_areas": 3.0 }, "geometry": { "type": "Polygon", "coordinates": [ [ [ 1262011.083918832940981, 5542629.320480721071362 ], [ 1262111.083918832940981, 5542629.320480721071362 ], [ 1262111.083918832940981, 5542529.320480721071362 ], [ 1262011.083918832940981, 5542529.320480721071362 ], [ 1262011.083918832940981, 5542629.320480721071362 ] ] ] } },
{ "type": "Feature", "properties": { "id": 390, "street_cells": 2310.47373726964, "yard_cells": 56.322273502126123, "num_areas": 1.0 }, "geometry": { "type": "Polygon", "coordinates": [ [ [ 1262011.083918832940981, 5542529.320480721071362 ], [ 1262111.083918832940981, 5542529.320480721071362 ], [ 1262111.083918832940981, 5542429.320480721071362 ], [ 1262011.083918832940981, 5542429.320480721071362 ], [ 1262011.083918832940981, 5542529.320480721071362 ] ] ] } },
{ "type": "Feature", "properties": { "id": 414, "street_cells": 876.37043714397589, "yard_cells": 1965.9791169199871, "num_areas": 7.0 }, "geometry": { "type": "Polygon", "coordinates": [ [ [ 1262111.083918832940981, 5543529.320480721071362 ], [ 1262211.083918832940981, 5543529.320480721071362 ], [ 1262211.083918832940981, 5543429.320480721071362 ], [ 1262111.083918832940981, 5543429.320480721071362 ], [ 1262111.083918832940981, 5543529.320480721071362 ] ] ] } },
{ "type": "Feature", "properties": { "id": 420, "street_cells": 1393.1805633068091, "yard_cells": 917.96516495384253, "num_areas": 5.0 }, "geometry": { "type": "Polygon", "coordinates": [ [ [ 1262111.083918832940981, 5542929.320480721071362 ], [ 1262211.083918832940981, 5542929.320480721071362 ], [ 1262211.083918832940981, 5542829.320480721071362 ], [ 1262111.083918832940981, 5542829.320480721071362 ], [ 1262111.083918832940981, 5542929.320480721071362 ] ] ] } },
{ "type": "Feature", "properties": { "id": 423, "street_cells": 1154.575319260359, "yard_cells": 230.5531662595458, "num_areas": 6.0 }, "geometry": { "type": "Polygon", "coordinates": [ [ [ 1262111.083918832940981, 5542629.320480721071362 ], [ 1262211.083918832940981, 5542629.320480721071362 ], [ 1262211.083918832940981, 5542529.320480721071362 ], [ 1262111.083918832940981, 5542529.320480721071362 ], [ 1262111.083918832940981, 5542629.320480721071362 ] ] ] } },
{ "type": "Feature", "properties": { "id": 424, "street_cells": 1233.5304002732039, "yard_cells": 29.190027142873952, "num_areas": 2.0 }, "geometry": { "type": "Polygon", "coordinates": [ [ [ 1262111.083918832940981, 5542529.320480721071362 ], [ 1262211.083918832940981, 5542529.320480721071362 ], [ 1262211.083918832940981, 5542429.320480721071362 ], [ 1262111.083918832940981, 5542429.320480721071362 ], [ 1262111.083918832940981, 5542529.320480721071362 ] ] ] } },
{ "type": "Feature", "properties": { "id": 446, "street_cells": 2511.8421060562141, "yard_cells": 273.94193175103959, "num_areas": 6.0 }, "geometry": { "type": "Polygon", "coordinates": [ [ [ 1262211.083918832940981, 5543729.320480721071362 ], [ 1262311.083918832940981, 5543729.320480721071362 ], [ 1262311.083918832940981, 5543629.320480721071362 ], [ 1262211.083918832940981, 5543629.320480721071362 ], [ 1262211.083918832940981, 5543729.320480721071362 ] ] ] } },
{ "type": "Feature", "properties": { "id": 447, "street_cells": 1130.5565287828449, "yard_cells": 1557.5816185313231, "num_areas": 5.0 }, "geometry": { "type": "Polygon", "coordinates": [ [ [ 1262211.083918832940981, 5543629.320480721071362 ], [ 1262311.083918832940981, 5543629.320480721071362 ], [ 1262311.083918832940981, 5543529.320480721071362 ], [ 1262211.083918832940981, 5543529.320480721071362 ], [ 1262211.083918832940981, 5543629.320480721071362 ] ] ] } },
{ "type": "Feature", "properties": { "id": 452, "street_cells": 1240.0865541614589, "yard_cells": 162.60191772849649, "num_areas": 5.0 }, "geometry": { "type": "Polygon", "coordinates": [ [ [ 1262211.083918832940981, 5543129.320480721071362 ], [ 1262311.083918832940981, 5543129.320480721071362 ], [ 1262311.083918832940981, 5543029.320480721071362 ], [ 1262211.083918832940981, 5543029.320480721071362 ], [ 1262211.083918832940981, 5543129.320480721071362 ] ] ] } },
{ "type": "Feature", "properties": { "id": 453, "street_cells": 1489.177886344492, "yard_cells": 308.96894625661298, "num_areas": 5.0 }, "geometry": { "type": "Polygon", "coordinates": [ [ [ 1262211.083918832940981, 5543029.320480721071362 ], [ 1262311.083918832940981, 5543029.320480721071362 ], [ 1262311.083918832940981, 5542929.320480721071362 ], [ 1262211.083918832940981, 5542929.320480721071362 ], [ 1262211.083918832940981, 5543029.320480721071362 ] ] ] } },
{ "type": "Feature", "properties": { "id": 454, "street_cells": 788.75554745793352, "yard_cells": 1205.876173148079, "num_areas": 6.0 }, "geometry": { "type": "Polygon", "coordinates": [ [ [ 1262211.083918832940981, 5542929.320480721071362 ], [ 1262311.083918832940981, 5542929.320480721071362 ], [ 1262311.083918832940981, 5542829.320480721071362 ], [ 1262211.083918832940981, 5542829.320480721071362 ], [ 1262211.083918832940981, 5542929.320480721071362 ] ] ] } },
{ "type": "Feature", "properties": { "id": 458, "street_cells": 1509.3427081063389, "yard_cells": 398.84610849939872, "num_areas": 9.0 }, "geometry": { "type": "Polygon", "coordinates": [ [ [ 1262211.083918832940981, 5542529.320480721071362 ], [ 1262311.083918832940981, 5542529.320480721071362 ], [ 1262311.083918832940981, 5542429.320480721071362 ], [ 1262211.083918832940981, 5542429.320480721071362 ], [ 1262211.083918832940981, 5542529.320480721071362 ] ] ] } },
{ "type": "Feature", "properties": { "id": 480, "street_cells": 1211.1065417587761, "yard_cells": 1254.3080742541581, "num_areas": 6.0 }, "geometry": { "type": "Polygon", "coordinates": [ [ [ 1262311.083918832940981, 5543729.320480721071362 ], [ 1262411.083918832940981, 5543729.320480721071362 ], [ 1262411.083918832940981, 5543629.320480721071362 ], [ 1262311.083918832940981, 5543629.320480721071362 ], [ 1262311.083918832940981, 5543729.320480721071362 ] ] ] } },
{ "type": "Feature", "properties": { "id": 493, "street_cells": 1760.0682718813421, "yard_cells": 269.50874095613841, "num_areas": 6.0 }, "geometry": { "type": "Polygon", "coordinates": [ [ [ 1262311.083918832940981, 5542429.320480721071362 ], [ 1262411.083918832940981, 5542429.320480721071362 ], [ 1262411.083918832940981, 5542329.320480721071362 ], [ 1262311.083918832940981, 5542329.320480721071362 ], [ 1262311.083918832940981, 5542429.320480721071362 ] ] ] } },
{ "type": "Feature", "properties": { "id": 513, "street_cells": 1279.393026787043, "yard_cells": 1785.7361099403361, "num_areas": 3.0 }, "geometry": { "type": "Polygon", "coordinates": [ [ [ 1262411.083918832940981, 5543829.320480721071362 ], [ 1262511.083918832940981, 5543829.320480721071362 ], [ 1262511.083918832940981, 5543729.320480721071362 ], [ 1262411.083918832940981, 5543729.320480721071362 ], [ 1262411.083918832940981, 5543829.320480721071362 ] ] ] } },
{ "type": "Feature", "properties": { "id": 523, "street_cells": 107.6474372923374, "yard_cells": 3048.885415277327, "num_areas": 7.0 }, "geometry": { "type": "Polygon", "coordinates": [ [ [ 1262411.083918832940981, 5542829.320480721071362 ], [ 1262511.083918832940981, 5542829.320480721071362 ], [ 1262511.083918832940981, 5542729.320480721071362 ], [ 1262411.083918832940981, 5542729.320480721071362 ], [ 1262411.083918832940981, 5542829.320480721071362 ] ] ] } },
{ "type": "Feature", "properties": { "id": 527, "street_cells": 1541.5929681047801, "yard_cells": 660.97033740952611, "num_areas": 9.0 }, "geometry": { "type": "Polygon", "coordinates": [ [ [ 1262411.083918832940981, 5542429.320480721071362 ], [ 1262511.083918832940981, 5542429.320480721071362 ], [ 1262511.083918832940981, 5542329.320480721071362 ], [ 1262411.083918832940981, 5542329.320480721071362 ], [ 1262411.083918832940981, 5542429.320480721071362 ] ] ] } },
{ "type": "Feature", "properties": { "id": 545, "street_cells": 1746.7899696797131, "yard_cells": 201.74833176135141, "num_areas": 5.0 }, "geometry": { "type": "Polygon", "coordinates": [ [ [ 1262511.083918832940981, 5544029.320480721071362 ], [ 1262611.083918832940981, 5544029.320480721071362 ], [ 1262611.083918832940981, 5543929.320480721071362 ], [ 1262511.083918832940981, 5543929.320480721071362 ], [ 1262511.083918832940981, 5544029.320480721071362 ] ] ] } },
{ "type": "Feature", "properties": { "id": 555, "street_cells": 1616.8936984658239, "yard_cells": 669.6889520580587, "num_areas": 9.0 }, "geometry": { "type": "Polygon", "coordinates": [ [ [ 1262511.083918832940981, 5543029.320480721071362 ], [ 1262611.083918832940981, 5543029.320480721071362 ], [ 1262611.083918832940981, 5542929.320480721071362 ], [ 1262511.083918832940981, 5542929.320480721071362 ], [ 1262511.083918832940981, 5543029.320480721071362 ] ] ] } },
{ "type": "Feature", "properties": { "id": 559, "street_cells": 1041.9437095612291, "yard_cells": 1034.770835869452, "num_areas": 9.0 }, "geometry": { "type": "Polygon", "coordinates": [ [ [ 1262511.083918832940981, 5542629.320480721071362 ], [ 1262611.083918832940981, 5542629.320480721071362 ], [ 1262611.083918832940981, 5542529.320480721071362 ], [ 1262511.083918832940981, 5542529.320480721071362 ], [ 1262511.083918832940981, 5542629.320480721071362 ] ] ] } },
{ "type": "Feature", "properties": { "id": 561, "street_cells": 936.57767456844454, "yard_cells": 615.22831733943895, "num_areas": 5.0 }, "geometry": { "type": "Polygon", "coordinates": [ [ [ 1262511.083918832940981, 5542429.320480721071362 ], [ 1262611.083918832940981, 5542429.320480721071362 ], [ 1262611.083918832940981, 5542329.320480721071362 ], [ 1262511.083918832940981, 5542329.320480721071362 ], [ 1262511.083918832940981, 5542429.320480721071362 ] ] ] } },
{ "type": "Feature", "properties": { "id": 585, "street_cells": 1277.029207736254, "yard_cells": 1043.9169931526501, "num_areas": 6.0 }, "geometry": { "type": "Polygon", "coordinates": [ [ [ 1262611.083918832940981, 5543429.320480721071362 ], [ 1262711.083918832940981, 5543429.320480721071362 ], [ 1262711.083918832940981, 5543329.320480721071362 ], [ 1262611.083918832940981, 5543329.320480721071362 ], [ 1262611.083918832940981, 5543429.320480721071362 ] ] ] } },
{ "type": "Feature", "properties": { "id": 593, "street_cells": 1229.8179203964769, "yard_cells": 971.76701488422259, "num_areas": 8.0 }, "geometry": { "type": "Polygon", "coordinates": [ [ [ 1262611.083918832940981, 5542629.320480721071362 ], [ 1262711.083918832940981, 5542629.320480721071362 ], [ 1262711.083918832940981, 5542529.320480721071362 ], [ 1262611.083918832940981, 5542529.320480721071362 ], [ 1262611.083918832940981, 5542629.320480721071362 ] ] ] } },
{ "type": "Feature", "properties": { "id": 594, "street_cells": 1160.8462806969881, "yard_cells": 257.93536515254539, "num_areas": 2.0 }, "geometry": { "type": "Polygon", "coordinates": [ [ [ 1262611.083918832940981, 5542529.320480721071362 ], [ 1262711.083918832940981, 5542529.320480721071362 ], [ 1262711.083918832940981, 5542429.320480721071362 ], [ 1262611.083918832940981, 5542429.320480721071362 ], [ 1262611.083918832940981, 5542529.320480721071362 ] ] ] } },
{ "type": "Feature", "properties": { "id": 598, "street_cells": 731.55515782237057, "yard_cells": 343.6310029537417, "num_areas": 3.0 }, "geometry": { "type": "Polygon", "coordinates": [ [ [ 1262611.083918832940981, 5542129.320480721071362 ], [ 1262711.083918832940981, 5542129.320480721071362 ], [ 1262711.083918832940981, 5542029.320480721071362 ], [ 1262611.083918832940981, 5542029.320480721071362 ], [ 1262611.083918832940981, 5542129.320480721071362 ] ] ] } },
{ "type": "Feature", "properties": { "id": 619, "street_cells": 1714.7401024371391, "yard_cells": 733.38728750425196, "num_areas": 7.0 }, "geometry": { "type": "Polygon", "coordinates": [ [ [ 1262711.083918832940981, 5543429.320480721071362 ], [ 1262811.083918832940981, 5543429.320480721071362 ], [ 1262811.083918832940981, 5543329.320480721071362 ], [ 1262711.083918832940981, 5543329.320480721071362 ], [ 1262711.083918832940981, 5543429.320480721071362 ] ] ] } },
{ "type": "Feature", "properties": { "id": 624, "street_cells": 1533.454297882319, "yard_cells": 112.8241269482196, "num_areas": 6.0 }, "geometry": { "type": "Polygon", "coordinates": [ [ [ 1262711.083918832940981, 5542929.320480721071362 ], [ 1262811.083918832940981, 5542929.320480721071362 ], [ 1262811.083918832940981, 5542829.320480721071362 ], [ 1262711.083918832940981, 5542829.320480721071362 ], [ 1262711.083918832940981, 5542929.320480721071362 ] ] ] } },
{ "type": "Feature", "properties": { "id": 633, "street_cells": 892.13144581280653, "yard_cells": 60.94385446049273, "num_areas": 2.0 }, "geometry": { "type": "Polygon", "coordinates": [ [ [ 1262711.083918832940981, 5542029.320480721071362 ], [ 1262811.083918832940981, 5542029.320480721071362 ], [ 1262811.083918832940981, 5541929.320480721071362 ], [ 1262711.083918832940981, 5541929.320480721071362 ], [ 1262711.083918832940981, 5542029.320480721071362 ] ] ] } },
{ "type": "Feature", "properties": { "id": 662, "street_cells": 590.30741174817092, "yard_cells": 2220.3701157273208, "num_areas": 7.0 }, "geometry": { "type": "Polygon", "coordinates": [ [ [ 1262811.083918832940981, 5542529.320480721071362 ], [ 1262911.083918832940981, 5542529.320480721071362 ], [ 1262911.083918832940981, 5542429.320480721071362 ], [ 1262811.083918832940981, 5542429.320480721071362 ], [ 1262811.083918832940981, 5542529.320480721071362 ] ] ] } },
{ "type": "Feature", "properties": { "id": 736, "street_cells": 810.75676544308669, "yard_cells": 80.949658212717623, "num_areas": 3.0 }, "geometry": { "type": "Polygon", "coordinates": [ [ [ 1263011.083918832940981, 5541929.320480721071362 ], [ 1263111.083918832940981, 5541929.320480721071362 ], [ 1263111.083918832940981, 5541829.320480721071362 ], [ 1263011.083918832940981, 5541829.320480721071362 ], [ 1263011.083918832940981, 5541929.320480721071362 ] ] ] } },
{ "type": "Feature", "properties": { "id": 784, "street_cells": 1025.8990327440199, "yard_cells": 2792.8678062382678, "num_areas": 8.0 }, "geometry": { "type": "Polygon", "coordinates": [ [ [ 1263211.083918832940981, 5543929.320480721071362 ], [ 1263311.083918832940981, 5543929.320480721071362 ], [ 1263311.083918832940981, 5543829.320480721071362 ], [ 1263211.083918832940981, 5543829.320480721071362 ], [ 1263211.083918832940981, 5543929.320480721071362 ] ] ] } },
{ "type": "Feature", "properties": { "id": 818, "street_cells": 680.87072310671215, "yard_cells": 2589.525892157963, "num_areas": 6.0 }, "geometry": { "type": "Polygon", "coordinates": [ [ [ 1263311.083918832940981, 5543929.320480721071362 ], [ 1263411.083918832940981, 5543929.320480721071362 ], [ 1263411.083918832940981, 5543829.320480721071362 ], [ 1263311.083918832940981, 5543829.320480721071362 ], [ 1263311.083918832940981, 5543929.320480721071362 ] ] ] } },
{ "type": "Feature", "properties": { "id": 824, "street_cells": 832.94972894117245, "yard_cells": 767.8451910857176, "num_areas": 5.0 }, "geometry": { "type": "Polygon", "coordinates": [ [ [ 1263311.083918832940981, 5543329.320480721071362 ], [ 1263411.083918832940981, 5543329.320480721071362 ], [ 1263411.083918832940981, 5543229.320480721071362 ], [ 1263311.083918832940981, 5543229.320480721071362 ], [ 1263311.083918832940981, 5543329.320480721071362 ] ] ] } },
{ "type": "Feature", "properties": { "id": 825, "street_cells": 1729.9161196678881, "yard_cells": 295.93110762420201, "num_areas": 6.0 }, "geometry": { "type": "Polygon", "coordinates": [ [ [ 1263311.083918832940981, 5543229.320480721071362 ], [ 1263411.083918832940981, 5543229.320480721071362 ], [ 1263411.083918832940981, 5543129.320480721071362 ], [ 1263311.083918832940981, 5543129.320480721071362 ], [ 1263311.083918832940981, 5543229.320480721071362 ] ] ] } },
{ "type": "Feature", "properties": { "id": 959, "street_cells": 430.35194166302682, "yard_cells": 2893.2372215632349, "num_areas": 2.0 }, "geometry": { "type": "Polygon", "coordinates": [ [ [ 1263711.083918832940981, 5543429.320480721071362 ], [ 1263811.083918832940981, 5543429.320480721071362 ], [ 1263811.083918832940981, 5543329.320480721071362 ], [ 1263711.083918832940981, 5543329.320480721071362 ], [ 1263711.083918832940981, 5543429.320480721071362 ] ] ] } },
{ "type": "Feature", "properties": { "id": 1130, "street_cells": 139.41706162691119, "yard_cells": 5527.6376019045711, "num_areas": 2.0 }, "geometry": { "type": "Polygon", "coordinates": [ [ [ 1264211.083918832940981, 5543329.320480721071362 ], [ 1264311.083918832940981, 5543329.320480721071362 ], [ 1264311.083918832940981, 5543229.320480721071362 ], [ 1264211.083918832940981, 5543229.320480721071362 ], [ 1264211.083918832940981, 5543329.320480721071362 ] ] ] } },
{ "type": "Feature", "properties": { "id": 1132, "street_cells": 694.9498783305288, "yard_cells": 2316.7203729284588, "num_areas": 4.0 }, "geometry": { "type": "Polygon", "coordinates": [ [ [ 1264211.083918832940981, 5543129.320480721071362 ], [ 1264311.083918832940981, 5543129.320480721071362 ], [ 1264311.083918832940981, 5543029.320480721071362 ], [ 1264211.083918832940981, 5543029.320480721071362 ], [ 1264211.083918832940981, 5543129.320480721071362 ] ] ] } }
]
}
