{
"type": "FeatureCollection",
"name": "result_55_20",
"crs": { "type": "name", "properties": { "name": "urn:ogc:def:crs:EPSG::3857" } },
"features": [
{ "type": "Feature", "properties": { "id": 212, "street_cells": 985.78825381100182, "yard_cells": 2418.5313291773368, "num_areas": 6.0 }, "geometry": { "type": "Polygon", "coordinates": [ [ [ 1261511.083918832940981, 5543329.320480721071362 ], [ 1261611.083918832940981, 5543329.320480721071362 ], [ 1261611.083918832940981, 5543229.320480721071362 ], [ 1261511.083918832940981, 5543229.320480721071362 ], [ 1261511.083918832940981, 5543329.320480721071362 ] ] ] } },
{ "type": "Feature", "properties": { "id": 273, "street_cells": 1645.3258505404001, "yard_cells": 1827.328786469486, "num_areas": 3.0 }, "geometry": { "type": "Polygon", "coordinates": [ [ [ 1261711.083918832940981, 5544029.320480721071362 ], [ 1261811.083918832940981, 5544029.320480721071362 ], [ 1261811.083918832940981, 5543929.320480721071362 ], [ 1261711.083918832940981, 5543929.320480721071362 ], [ 1261711.083918832940981, 5544029.320480721071362 ] ] ] } },
{ "type": "Feature", "properties": { "id": 274, "street_cells": 626.66866473834966, "yard_cells": 3009.4638279825449, "num_areas": 4.0 }, "geometry": { "type": "Polygon", "coordinates": [ [ [ 1261711.083918832940981, 5543929.320480721071362 ], [ 1261811.083918832940981, 5543929.320480721071362 ], [ 1261811.083918832940981, 5543829.320480721071362 ], [ 1261711.083918832940981, 5543829.320480721071362 ], [ 1261711.083918832940981, 5543929.320480721071362 ] ] ] } },
{ "type": "Feature", "properties": { "id": 283, "street_cells": 1209.426510626078, "yard_cells": 1541.5709273535761, "num_areas": 5.0 }, "geometry": { "type": "Polygon", "coordinates": [ [ [ 1261711.083918832940981, 5543029.320480721071362 ], [ 1261811.083918832940981, 5543029.320480721071362 ], [ 1261811.083918832940981, 5542929.320480721071362 ], [ 1261711.083918832940981, 5542929.320480721071362 ], [ 1261711.083918832940981, 5543029.320480721071362 ] ] ] } },
{ "type": "Feature", "properties": { "id": 308, "street_cells": 18.241029843688011, "yard_cells": 5964.8591648200527, "num_areas": 2.0 }, "geometry": { "type": "Polygon", "coordinates": [ [ [ 1261811.083918832940981, 5543929.320480721071362 ], [ 1261911.083918832940981, 5543929.320480721071362 ], [ 1261911.083918832940981, 5543829.320480721071362 ], [ 1261811.083918832940981, 5543829.320480721071362 ], [ 1261811.083918832940981, 5543929.320480721071362 ] ] ] } },
{ "type": "Feature", "properties": { "id": 388, "street_cells": 1418.886533004046, "yard_cells": 73.476723596820861, "num_areas": 3.0 }, "geometry": { "type": "Polygon", "coordinates": [ [ [ 1262011.083918832940981, 5542729.320480721071362 ], [ 1262111.083918832940981, 5542729.320480721071362 ], [ 1262111.083918832940981, 5542629.320480721071362 ], [ 1262011.083918832940981, 5542629.320480721071362 ], [ 1262011.083918832940981, 5542729.320480721071362 ] ] ] } },
{ "type": "Feature", "properties": { "id": 390, "street_cells": 2310.47373726964, "yard_cells": 56.322273502125803, "num_areas": 1.0 }, "geometry": { "type": "Polygon", "coordinates": [ [ [ 1262011.083918832940981, 5542529.320480721071362 ], [ 1262111.083918832940981, 5542529.320480721071362 ], [ 1262111.083918832940981, 5542429.320480721071362 ], [ 1262011.083918832940981, 5542429.320480721071362 ], [ 1262011.083918832940981, 5542529.320480721071362 ] ] ] } },
{ "type": "Feature", "properties": { "id": 420, "street_cells": 1393.1805633068091, "yard_cells": 917.96516495384276, "num_areas": 5.0 }, "geometry": { "type": "Polygon", "coordinates": [ [ [ 1262111.083918832940981, 5542929.320480721071362 ], [ 1262211.083918832940981, 5542929.320480721071362 ], [ 1262211.083918832940981, 5542829.320480721071362 ], [ 1262111.083918832940981, 5542829.320480721071362 ], [ 1262111.083918832940981, 5542929.320480721071362 ] ] ] } },
{ "type": "Feature", "properties": { "id": 424, "street_cells": 1233.5304002732039, "yard_cells": 29.190027142875369, "num_areas": 2.0 }, "geometry": { "type": "Polygon", "coordinates": [ [ [ 1262111.083918832940981, 5542529.320480721071362 ], [ 1262211.083918832940981, 5542529.320480721071362 ], [ 1262211.083918832940981, 5542429.320480721071362 ], [ 1262111.083918832940981, 5542429.320480721071362 ], [ 1262111.083918832940981, 5542529.320480721071362 ] ] ] } },
{ "type": "Feature", "properties": { "id": 446, "street_cells": 2511.8421060562141, "yard_cells": 273.94193175103982, "num_areas": 6.0 }, "geometry": { "type": "Polygon", "coordinates": [ [ [ 1262211.083918832940981, 5543729.320480721071362 ], [ 1262311.083918832940981, 5543729.320480721071362 ], [ 1262311.083918832940981, 5543629.320480721071362 ], [ 1262211.083918832940981, 5543629.320480721071362 ], [ 1262211.083918832940981, 5543729.320480721071362 ] ] ] } },
{ "type": "Feature", "properties": { "id": 447, "street_cells": 1130.5565287828449, "yard_cells": 1557.581618531324, "num_areas": 5.0 }, "geometry": { "type": "Polygon", "coordinates": [ [ [ 1262211.083918832940981, 5543629.320480721071362 ], [ 1262311.083918832940981, 5543629.320480721071362 ], [ 1262311.083918832940981, 5543529.320480721071362 ], [ 1262211.083918832940981, 5543529.320480721071362 ], [ 1262211.083918832940981, 5543629.320480721071362 ] ] ] } },
{ "type": "Feature", "properties": { "id": 453, "street_cells": 1489.177886344492, "yard_cells": 308.96894625661298, "num_areas": 5.0 }, "geometry": { "type": "Polygon", "coordinates": [ [ [ 1262211.083918832940981, 5543029.320480721071362 ], [ 1262311.083918832940981, 5543029.320480721071362 ], [ 1262311.083918832940981, 5542929.320480721071362 ], [ 1262211.083918832940981, 5542929.320480721071362 ], [ 1262211.083918832940981, 5543029.320480721071362 ] ] ] } },
{ "type": "Feature", "properties": { "id": 493, "street_cells": 1760.0682718813421, "yard_cells": 269.50874095613841, "num_areas": 6.0 }, "geometry": { "type": "Polygon", "coordinates": [ [ [ 1262311.083918832940981, 5542429.320480721071362 ], [ 1262411.083918832940981, 5542429.320480721071362 ], [ 1262411.083918832940981, 5542329.320480721071362 ], [ 1262311.083918832940981, 5542329.320480721071362 ], [ 1262311.083918832940981, 5542429.320480721071362 ] ] ] } },
{ "type": "Feature", "properties": { "id": 513, "street_cells": 1279.393026787043, "yard_cells": 1785.7361099403349, "num_areas": 3.0 }, "geometry": { "type": "Polygon", "coordinates": [ [ [ 1262411.083918832940981, 5543829.320480721071362 ], [ 1262511.083918832940981, 5543829.320480721071362 ], [ 1262511.083918832940981, 5543729.320480721071362 ], [ 1262411.083918832940981, 5543729.320480721071362 ], [ 1262411.083918832940981, 5543829.320480721071362 ] ] ] } },
{ "type": "Feature", "properties": { "id": 545, "street_cells": 1746.7899696797131, "yard_cells": 201.74833176135141, "num_areas": 5.0 }, "geometry": { "type": "Polygon", "coordinates": [ [ [ 1262511.083918832940981, 5544029.320480721071362 ], [ 1262611.083918832940981, 5544029.320480721071362 ], [ 1262611.083918832940981, 5543929.320480721071362 ], [ 1262511.083918832940981, 5543929.320480721071362 ], [ 1262511.083918832940981, 5544029.320480721071362 ] ] ] } },
{ "type": "Feature", "properties": { "id": 594, "street_cells": 1160.8462806969881, "yard_cells": 257.93536515254522, "num_areas": 2.0 }, "geometry": { "type": "Polygon", "coordinates": [ [ [ 1262611.083918832940981, 5542529.320480721071362 ], [ 1262711.083918832940981, 5542529.320480721071362 ], [ 1262711.083918832940981, 5542429.320480721071362 ], [ 1262611.083918832940981, 5542429.320480721071362 ], [ 1262611.083918832940981, 5542529.320480721071362 ] ] ] } },
{ "type": "Feature", "properties": { "id": 633, "street_cells": 892.13144581280653, "yard_cells": 60.94385446049273, "num_areas": 2.0 }, "geometry": { "type": "Polygon", "coordinates": [ [ [ 1262711.083918832940981, 5542029.320480721071362 ], [ 1262811.083918832940981, 5542029.320480721071362 ], [ 1262811.083918832940981, 5541929.320480721071362 ], [ 1262711.083918832940981, 5541929.320480721071362 ], [ 1262711.083918832940981, 5542029.320480721071362 ] ] ] } },
{ "type": "Feature", "properties": { "id": 959, "street_cells": 430.35194166302682, "yard_cells": 2893.2372215632349, "num_areas": 2.0 }, "geometry": { "type": "Polygon", "coordinates": [ [ [ 1263711.083918832940981, 5543429.320480721071362 ], [ 1263811.083918832940981, 5543429.320480721071362 ], [ 1263811.083918832940981, 5543329.320480721071362 ], [ 1263711.083918832940981, 5543329.320480721071362 ], [ 1263711.083918832940981, 5543429.320480721071362 ] ] ] } },
{ "type": "Feature", "properties": { "id": 1130, "street_cells": 139.41706162691119, "yard_cells": 5527.6376019045711, "num_areas": 2.0 }, "geometry": { "type": "Polygon", "coordinates": [ [ [ 1264211.083918832940981, 5543329.320480721071362 ], [ 1264311.083918832940981, 5543329.320480721071362 ], [ 1264311.083918832940981, 5543229.320480721071362 ], [ 1264211.083918832940981, 5543229.320480721071362 ], [ 1264211.083918832940981, 5543329.320480721071362 ] ] ] } }
]
}
