{
"type": "FeatureCollection",
"name": "no_yard",
"crs": { "type": "name", "properties": { "name": "urn:ogc:def:crs:EPSG::3857" } },
"features": [
{ "type": "Feature", "properties": { "id": 3558, "street_cells": 1027.6272754251961, "yard_cells": 0.0, "utility": 1.4060227670870109, "num_areas": 0.0 }, "geometry": { "type": "MultiPolygon", "coordinates": [ [ [ [ 1255749.034566706512123, 5545581.343784033320844 ], [ 1255849.034566706512123, 5545581.343784033320844 ], [ 1255849.034566706512123, 5545481.343784033320844 ], [ 1255749.034566706512123, 5545481.343784033320844 ], [ 1255749.034566706512123, 5545581.343784033320844 ] ] ] ] } },
{ "type": "Feature", "properties": { "id": 5816, "street_cells": 1135.624092172086, "yard_cells": 0.0, "utility": 1.673771893894288, "num_areas": 0.0 }, "geometry": { "type": "MultiPolygon", "coordinates": [ [ [ [ 1257149.034566706512123, 5542381.343784033320844 ], [ 1257249.034566706512123, 5542381.343784033320844 ], [ 1257249.034566706512123, 5542281.343784033320844 ], [ 1257149.034566706512123, 5542281.343784033320844 ], [ 1257149.034566706512123, 5542381.343784033320844 ] ] ] ] } },
{ "type": "Feature", "properties": { "id": 5961, "street_cells": 1139.655918227136, "yard_cells": 0.0, "utility": 1.3055610117054639, "num_areas": 1.0 }, "geometry": { "type": "MultiPolygon", "coordinates": [ [ [ [ 1257249.034566706512123, 5543781.343784033320844 ], [ 1257349.034566706512123, 5543781.343784033320844 ], [ 1257349.034566706512123, 5543681.343784033320844 ], [ 1257249.034566706512123, 5543681.343784033320844 ], [ 1257249.034566706512123, 5543781.343784033320844 ] ] ] ] } },
{ "type": "Feature", "properties": { "id": 6271, "street_cells": 740.22257647439847, "yard_cells": 0.0, "utility": 1.868508577630511, "num_areas": 0.0 }, "geometry": { "type": "MultiPolygon", "coordinates": [ [ [ [ 1257449.034566706512123, 5544581.343784033320844 ], [ 1257549.034566706512123, 5544581.343784033320844 ], [ 1257549.034566706512123, 5544481.343784033320844 ], [ 1257449.034566706512123, 5544481.343784033320844 ], [ 1257449.034566706512123, 5544581.343784033320844 ] ] ] ] } },
{ "type": "Feature", "properties": { "id": 6599, "street_cells": 1260.890616661869, "yard_cells": 0.0, "utility": 1.331500888107038, "num_areas": 1.0 }, "geometry": { "type": "MultiPolygon", "coordinates": [ [ [ [ 1257649.034566706512123, 5543581.343784033320844 ], [ 1257749.034566706512123, 5543581.343784033320844 ], [ 1257749.034566706512123, 5543481.343784033320844 ], [ 1257649.034566706512123, 5543481.343784033320844 ], [ 1257649.034566706512123, 5543581.343784033320844 ] ] ] ] } },
{ "type": "Feature", "properties": { "id": 9473, "street_cells": 1355.885862310417, "yard_cells": 0.0, "utility": 1.1155868640507141, "num_areas": 3.0 }, "geometry": { "type": "MultiPolygon", "coordinates": [ [ [ [ 1259449.034566706512123, 5542381.343784033320844 ], [ 1259549.034566706512123, 5542381.343784033320844 ], [ 1259549.034566706512123, 5542281.343784033320844 ], [ 1259449.034566706512123, 5542281.343784033320844 ], [ 1259449.034566706512123, 5542381.343784033320844 ] ] ] ] } },
{ "type": "Feature", "properties": { "id": 9639, "street_cells": 865.12193601727495, "yard_cells": 0.0, "utility": 1.7793953502768389, "num_areas": 0.0 }, "geometry": { "type": "MultiPolygon", "coordinates": [ [ [ [ 1259549.034566706512123, 5541681.343784033320844 ], [ 1259649.034566706512123, 5541681.343784033320844 ], [ 1259649.034566706512123, 5541581.343784033320844 ], [ 1259549.034566706512123, 5541581.343784033320844 ], [ 1259549.034566706512123, 5541681.343784033320844 ] ] ] ] } },
{ "type": "Feature", "properties": { "id": 9787, "street_cells": 1119.611307534575, "yard_cells": 0.0, "utility": 1.295029872757874, "num_areas": 1.0 }, "geometry": { "type": "MultiPolygon", "coordinates": [ [ [ [ 1259649.034566706512123, 5542781.343784033320844 ], [ 1259749.034566706512123, 5542781.343784033320844 ], [ 1259749.034566706512123, 5542681.343784033320844 ], [ 1259649.034566706512123, 5542681.343784033320844 ], [ 1259649.034566706512123, 5542781.343784033320844 ] ] ] ] } },
{ "type": "Feature", "properties": { "id": 11213, "street_cells": 1042.528340366483, "yard_cells": 0.0, "utility": 1.615845356857933, "num_areas": 0.0 }, "geometry": { "type": "MultiPolygon", "coordinates": [ [ [ [ 1260549.034566706512123, 5543281.343784033320844 ], [ 1260649.034566706512123, 5543281.343784033320844 ], [ 1260649.034566706512123, 5543181.343784033320844 ], [ 1260549.034566706512123, 5543181.343784033320844 ], [ 1260549.034566706512123, 5543281.343784033320844 ] ] ] ] } },
{ "type": "Feature", "properties": { "id": 11692, "street_cells": 1350.876745853946, "yard_cells": 0.0, "utility": 1.366551107025237, "num_areas": 0.0 }, "geometry": { "type": "MultiPolygon", "coordinates": [ [ [ [ 1260849.034566706512123, 5543081.343784033320844 ], [ 1260949.034566706512123, 5543081.343784033320844 ], [ 1260949.034566706512123, 5542981.343784033320844 ], [ 1260849.034566706512123, 5542981.343784033320844 ], [ 1260849.034566706512123, 5543081.343784033320844 ] ] ] ] } },
{ "type": "Feature", "properties": { "id": 11851, "street_cells": 1380.296502733976, "yard_cells": 0.0, "utility": 1.153562876811838, "num_areas": 6.0 }, "geometry": { "type": "MultiPolygon", "coordinates": [ [ [ [ 1260949.034566706512123, 5543081.343784033320844 ], [ 1261049.034566706512123, 5543081.343784033320844 ], [ 1261049.034566706512123, 5542981.343784033320844 ], [ 1260949.034566706512123, 5542981.343784033320844 ], [ 1260949.034566706512123, 5543081.343784033320844 ] ] ] ] } },
{ "type": "Feature", "properties": { "id": 12323, "street_cells": 1102.8167767405509, "yard_cells": 0.0, "utility": 1.2671615353434791, "num_areas": 1.0 }, "geometry": { "type": "MultiPolygon", "coordinates": [ [ [ [ 1261249.034566706512123, 5543581.343784033320844 ], [ 1261349.034566706512123, 5543581.343784033320844 ], [ 1261349.034566706512123, 5543481.343784033320844 ], [ 1261249.034566706512123, 5543481.343784033320844 ], [ 1261249.034566706512123, 5543581.343784033320844 ] ] ] ] } },
{ "type": "Feature", "properties": { "id": 12325, "street_cells": 1383.917834053422, "yard_cells": 0.0, "utility": 1.2222623142410589, "num_areas": 0.0 }, "geometry": { "type": "MultiPolygon", "coordinates": [ [ [ [ 1261249.034566706512123, 5543381.343784033320844 ], [ 1261349.034566706512123, 5543381.343784033320844 ], [ 1261349.034566706512123, 5543281.343784033320844 ], [ 1261249.034566706512123, 5543281.343784033320844 ], [ 1261249.034566706512123, 5543381.343784033320844 ] ] ] ] } },
{ "type": "Feature", "properties": { "id": 12489, "street_cells": 1156.86429884471, "yard_cells": 0.0, "utility": 1.684653297824015, "num_areas": 4.0 }, "geometry": { "type": "MultiPolygon", "coordinates": [ [ [ [ 1261349.034566706512123, 5542881.343784033320844 ], [ 1261449.034566706512123, 5542881.343784033320844 ], [ 1261449.034566706512123, 5542781.343784033320844 ], [ 1261349.034566706512123, 5542781.343784033320844 ], [ 1261349.034566706512123, 5542881.343784033320844 ] ] ] ] } },
{ "type": "Feature", "properties": { "id": 12647, "street_cells": 1324.149462202937, "yard_cells": 0.0, "utility": 2.2146366744652251, "num_areas": 0.0 }, "geometry": { "type": "MultiPolygon", "coordinates": [ [ [ [ 1261449.034566706512123, 5542981.343784033320844 ], [ 1261549.034566706512123, 5542981.343784033320844 ], [ 1261549.034566706512123, 5542881.343784033320844 ], [ 1261449.034566706512123, 5542881.343784033320844 ], [ 1261449.034566706512123, 5542981.343784033320844 ] ] ] ] } },
{ "type": "Feature", "properties": { "id": 12800, "street_cells": 1296.578734306526, "yard_cells": 0.0, "utility": 1.154022267894105, "num_areas": 3.0 }, "geometry": { "type": "MultiPolygon", "coordinates": [ [ [ [ 1261549.034566706512123, 5543581.343784033320844 ], [ 1261649.034566706512123, 5543581.343784033320844 ], [ 1261649.034566706512123, 5543481.343784033320844 ], [ 1261549.034566706512123, 5543481.343784033320844 ], [ 1261549.034566706512123, 5543581.343784033320844 ] ] ] ] } },
{ "type": "Feature", "properties": { "id": 12802, "street_cells": 679.12461151182652, "yard_cells": 0.0, "utility": 2.0700636199235669, "num_areas": 1.0 }, "geometry": { "type": "MultiPolygon", "coordinates": [ [ [ [ 1261549.034566706512123, 5543381.343784033320844 ], [ 1261649.034566706512123, 5543381.343784033320844 ], [ 1261649.034566706512123, 5543281.343784033320844 ], [ 1261549.034566706512123, 5543281.343784033320844 ], [ 1261549.034566706512123, 5543381.343784033320844 ] ] ] ] } },
{ "type": "Feature", "properties": { "id": 12803, "street_cells": 1137.637199741602, "yard_cells": 0.0, "utility": 1.9811361375048231, "num_areas": 0.0 }, "geometry": { "type": "MultiPolygon", "coordinates": [ [ [ [ 1261549.034566706512123, 5543281.343784033320844 ], [ 1261649.034566706512123, 5543281.343784033320844 ], [ 1261649.034566706512123, 5543181.343784033320844 ], [ 1261549.034566706512123, 5543181.343784033320844 ], [ 1261549.034566706512123, 5543281.343784033320844 ] ] ] ] } },
{ "type": "Feature", "properties": { "id": 12962, "street_cells": 1137.49547444582, "yard_cells": 0.0, "utility": 1.7761630245501709, "num_areas": 1.0 }, "geometry": { "type": "MultiPolygon", "coordinates": [ [ [ [ 1261649.034566706512123, 5543281.343784033320844 ], [ 1261749.034566706512123, 5543281.343784033320844 ], [ 1261749.034566706512123, 5543181.343784033320844 ], [ 1261649.034566706512123, 5543181.343784033320844 ], [ 1261649.034566706512123, 5543281.343784033320844 ] ] ] ] } },
{ "type": "Feature", "properties": { "id": 12965, "street_cells": 753.99866456910968, "yard_cells": 0.0, "utility": 2.046534542854995, "num_areas": 1.0 }, "geometry": { "type": "MultiPolygon", "coordinates": [ [ [ [ 1261649.034566706512123, 5542981.343784033320844 ], [ 1261749.034566706512123, 5542981.343784033320844 ], [ 1261749.034566706512123, 5542881.343784033320844 ], [ 1261649.034566706512123, 5542881.343784033320844 ], [ 1261649.034566706512123, 5542981.343784033320844 ] ] ] ] } },
{ "type": "Feature", "properties": { "id": 13124, "street_cells": 1072.8670947082339, "yard_cells": 0.0, "utility": 2.3251521107348099, "num_areas": 1.0 }, "geometry": { "type": "MultiPolygon", "coordinates": [ [ [ [ 1261749.034566706512123, 5542981.343784033320844 ], [ 1261849.034566706512123, 5542981.343784033320844 ], [ 1261849.034566706512123, 5542881.343784033320844 ], [ 1261749.034566706512123, 5542881.343784033320844 ], [ 1261749.034566706512123, 5542981.343784033320844 ] ] ] ] } },
{ "type": "Feature", "properties": { "id": 13276, "street_cells": 707.74011529833081, "yard_cells": 0.0, "utility": 2.5696691284097128, "num_areas": 0.0 }, "geometry": { "type": "MultiPolygon", "coordinates": [ [ [ [ 1261849.034566706512123, 5543681.343784033320844 ], [ 1261949.034566706512123, 5543681.343784033320844 ], [ 1261949.034566706512123, 5543581.343784033320844 ], [ 1261849.034566706512123, 5543581.343784033320844 ], [ 1261849.034566706512123, 5543681.343784033320844 ] ] ] ] } },
{ "type": "Feature", "properties": { "id": 13283, "street_cells": 1080.806995748728, "yard_cells": 0.0, "utility": 1.848390646676537, "num_areas": 1.0 }, "geometry": { "type": "MultiPolygon", "coordinates": [ [ [ [ 1261849.034566706512123, 5542981.343784033320844 ], [ 1261949.034566706512123, 5542981.343784033320844 ], [ 1261949.034566706512123, 5542881.343784033320844 ], [ 1261849.034566706512123, 5542881.343784033320844 ], [ 1261849.034566706512123, 5542981.343784033320844 ] ] ] ] } },
{ "type": "Feature", "properties": { "id": 13442, "street_cells": 802.36370866950608, "yard_cells": 0.0, "utility": 1.973398735808046, "num_areas": 0.0 }, "geometry": { "type": "MultiPolygon", "coordinates": [ [ [ [ 1261949.034566706512123, 5542981.343784033320844 ], [ 1262049.034566706512123, 5542981.343784033320844 ], [ 1262049.034566706512123, 5542881.343784033320844 ], [ 1261949.034566706512123, 5542881.343784033320844 ], [ 1261949.034566706512123, 5542981.343784033320844 ] ] ] ] } },
{ "type": "Feature", "properties": { "id": 13595, "street_cells": 945.72606197893629, "yard_cells": 0.0, "utility": 1.5649267195540371, "num_areas": 2.0 }, "geometry": { "type": "MultiPolygon", "coordinates": [ [ [ [ 1262049.034566706512123, 5543581.343784033320844 ], [ 1262149.034566706512123, 5543581.343784033320844 ], [ 1262149.034566706512123, 5543481.343784033320844 ], [ 1262049.034566706512123, 5543481.343784033320844 ], [ 1262049.034566706512123, 5543581.343784033320844 ] ] ] ] } },
{ "type": "Feature", "properties": { "id": 13604, "street_cells": 917.50868050158033, "yard_cells": 0.0, "utility": 1.995835464419816, "num_areas": 1.0 }, "geometry": { "type": "MultiPolygon", "coordinates": [ [ [ [ 1262049.034566706512123, 5542681.343784033320844 ], [ 1262149.034566706512123, 5542681.343784033320844 ], [ 1262149.034566706512123, 5542581.343784033320844 ], [ 1262049.034566706512123, 5542581.343784033320844 ], [ 1262049.034566706512123, 5542681.343784033320844 ] ] ] ] } },
{ "type": "Feature", "properties": { "id": 13605, "street_cells": 702.67788258790972, "yard_cells": 0.0, "utility": 2.200294080006489, "num_areas": 1.0 }, "geometry": { "type": "MultiPolygon", "coordinates": [ [ [ [ 1262049.034566706512123, 5542581.343784033320844 ], [ 1262149.034566706512123, 5542581.343784033320844 ], [ 1262149.034566706512123, 5542481.343784033320844 ], [ 1262049.034566706512123, 5542481.343784033320844 ], [ 1262049.034566706512123, 5542581.343784033320844 ] ] ] ] } },
{ "type": "Feature", "properties": { "id": 13758, "street_cells": 1218.2608681290531, "yard_cells": 0.0, "utility": 2.2031727521675202, "num_areas": 2.0 }, "geometry": { "type": "MultiPolygon", "coordinates": [ [ [ [ 1262149.034566706512123, 5543181.343784033320844 ], [ 1262249.034566706512123, 5543181.343784033320844 ], [ 1262249.034566706512123, 5543081.343784033320844 ], [ 1262149.034566706512123, 5543081.343784033320844 ], [ 1262149.034566706512123, 5543181.343784033320844 ] ] ] ] } },
{ "type": "Feature", "properties": { "id": 13759, "street_cells": 806.69500033259396, "yard_cells": 0.0, "utility": 2.001116768949363, "num_areas": 2.0 }, "geometry": { "type": "MultiPolygon", "coordinates": [ [ [ [ 1262149.034566706512123, 5543081.343784033320844 ], [ 1262249.034566706512123, 5543081.343784033320844 ], [ 1262249.034566706512123, 5542981.343784033320844 ], [ 1262149.034566706512123, 5542981.343784033320844 ], [ 1262149.034566706512123, 5543081.343784033320844 ] ] ] ] } },
{ "type": "Feature", "properties": { "id": 13760, "street_cells": 722.70164932012563, "yard_cells": 0.0, "utility": 2.406791860454824, "num_areas": 1.0 }, "geometry": { "type": "MultiPolygon", "coordinates": [ [ [ [ 1262149.034566706512123, 5542981.343784033320844 ], [ 1262249.034566706512123, 5542981.343784033320844 ], [ 1262249.034566706512123, 5542881.343784033320844 ], [ 1262149.034566706512123, 5542881.343784033320844 ], [ 1262149.034566706512123, 5542981.343784033320844 ] ] ] ] } },
{ "type": "Feature", "properties": { "id": 13761, "street_cells": 618.36091450750837, "yard_cells": 0.0, "utility": 2.5374759323432321, "num_areas": 1.0 }, "geometry": { "type": "MultiPolygon", "coordinates": [ [ [ [ 1262149.034566706512123, 5542881.343784033320844 ], [ 1262249.034566706512123, 5542881.343784033320844 ], [ 1262249.034566706512123, 5542781.343784033320844 ], [ 1262149.034566706512123, 5542781.343784033320844 ], [ 1262149.034566706512123, 5542881.343784033320844 ] ] ] ] } },
{ "type": "Feature", "properties": { "id": 13896, "street_cells": 963.62066675033429, "yard_cells": 0.0, "utility": 1.5038270729649641, "num_areas": 0.0 }, "geometry": { "type": "MultiPolygon", "coordinates": [ [ [ [ 1262249.034566706512123, 5545281.343784033320844 ], [ 1262349.034566706512123, 5545281.343784033320844 ], [ 1262349.034566706512123, 5545181.343784033320844 ], [ 1262249.034566706512123, 5545181.343784033320844 ], [ 1262249.034566706512123, 5545281.343784033320844 ] ] ] ] } },
{ "type": "Feature", "properties": { "id": 13912, "street_cells": 861.15387278497224, "yard_cells": 0.0, "utility": 2.613554068156251, "num_areas": 0.0 }, "geometry": { "type": "MultiPolygon", "coordinates": [ [ [ [ 1262249.034566706512123, 5543681.343784033320844 ], [ 1262349.034566706512123, 5543681.343784033320844 ], [ 1262349.034566706512123, 5543581.343784033320844 ], [ 1262249.034566706512123, 5543581.343784033320844 ], [ 1262249.034566706512123, 5543681.343784033320844 ] ] ] ] } },
{ "type": "Feature", "properties": { "id": 13913, "street_cells": 1012.4750618505871, "yard_cells": 0.0, "utility": 1.5704005268565631, "num_areas": 3.0 }, "geometry": { "type": "MultiPolygon", "coordinates": [ [ [ [ 1262249.034566706512123, 5543581.343784033320844 ], [ 1262349.034566706512123, 5543581.343784033320844 ], [ 1262349.034566706512123, 5543481.343784033320844 ], [ 1262249.034566706512123, 5543481.343784033320844 ], [ 1262249.034566706512123, 5543581.343784033320844 ] ] ] ] } },
{ "type": "Feature", "properties": { "id": 13914, "street_cells": 959.60561686456208, "yard_cells": 0.0, "utility": 1.830618342528735, "num_areas": 1.0 }, "geometry": { "type": "MultiPolygon", "coordinates": [ [ [ [ 1262249.034566706512123, 5543481.343784033320844 ], [ 1262349.034566706512123, 5543481.343784033320844 ], [ 1262349.034566706512123, 5543381.343784033320844 ], [ 1262249.034566706512123, 5543381.343784033320844 ], [ 1262249.034566706512123, 5543481.343784033320844 ] ] ] ] } },
{ "type": "Feature", "properties": { "id": 13915, "street_cells": 922.44278215765962, "yard_cells": 0.0, "utility": 1.652527996796098, "num_areas": 0.0 }, "geometry": { "type": "MultiPolygon", "coordinates": [ [ [ [ 1262249.034566706512123, 5543381.343784033320844 ], [ 1262349.034566706512123, 5543381.343784033320844 ], [ 1262349.034566706512123, 5543281.343784033320844 ], [ 1262249.034566706512123, 5543281.343784033320844 ], [ 1262249.034566706512123, 5543381.343784033320844 ] ] ] ] } },
{ "type": "Feature", "properties": { "id": 13938, "street_cells": 1433.058151758893, "yard_cells": 0.0, "utility": 1.5927728127008101, "num_areas": 0.0 }, "geometry": { "type": "MultiPolygon", "coordinates": [ [ [ [ 1262249.034566706512123, 5541081.343784033320844 ], [ 1262349.034566706512123, 5541081.343784033320844 ], [ 1262349.034566706512123, 5540981.343784033320844 ], [ 1262249.034566706512123, 5540981.343784033320844 ], [ 1262249.034566706512123, 5541081.343784033320844 ] ] ] ] } },
{ "type": "Feature", "properties": { "id": 14055, "street_cells": 863.16232077702887, "yard_cells": 0.0, "utility": 1.9045017024210711, "num_areas": 0.0 }, "geometry": { "type": "MultiPolygon", "coordinates": [ [ [ [ 1262349.034566706512123, 5545281.343784033320844 ], [ 1262449.034566706512123, 5545281.343784033320844 ], [ 1262449.034566706512123, 5545181.343784033320844 ], [ 1262349.034566706512123, 5545181.343784033320844 ], [ 1262349.034566706512123, 5545281.343784033320844 ] ] ] ] } },
{ "type": "Feature", "properties": { "id": 14062, "street_cells": 836.37927185893068, "yard_cells": 0.0, "utility": 1.829200061035541, "num_areas": 0.0 }, "geometry": { "type": "MultiPolygon", "coordinates": [ [ [ [ 1262349.034566706512123, 5544581.343784033320844 ], [ 1262449.034566706512123, 5544581.343784033320844 ], [ 1262449.034566706512123, 5544481.343784033320844 ], [ 1262349.034566706512123, 5544481.343784033320844 ], [ 1262349.034566706512123, 5544581.343784033320844 ] ] ] ] } },
{ "type": "Feature", "properties": { "id": 14070, "street_cells": 834.48331750333318, "yard_cells": 0.0, "utility": 2.0670603138053072, "num_areas": 1.0 }, "geometry": { "type": "MultiPolygon", "coordinates": [ [ [ [ 1262349.034566706512123, 5543781.343784033320844 ], [ 1262449.034566706512123, 5543781.343784033320844 ], [ 1262449.034566706512123, 5543681.343784033320844 ], [ 1262349.034566706512123, 5543681.343784033320844 ], [ 1262349.034566706512123, 5543781.343784033320844 ] ] ] ] } },
{ "type": "Feature", "properties": { "id": 14071, "street_cells": 632.14525218009953, "yard_cells": 0.0, "utility": 2.660635263260851, "num_areas": 0.0 }, "geometry": { "type": "MultiPolygon", "coordinates": [ [ [ [ 1262349.034566706512123, 5543681.343784033320844 ], [ 1262449.034566706512123, 5543681.343784033320844 ], [ 1262449.034566706512123, 5543581.343784033320844 ], [ 1262349.034566706512123, 5543581.343784033320844 ], [ 1262349.034566706512123, 5543681.343784033320844 ] ] ] ] } },
{ "type": "Feature", "properties": { "id": 14085, "street_cells": 1440.7010955790061, "yard_cells": 0.0, "utility": 2.7696489486342881, "num_areas": 0.0 }, "geometry": { "type": "MultiPolygon", "coordinates": [ [ [ [ 1262349.034566706512123, 5542281.343784033320844 ], [ 1262449.034566706512123, 5542281.343784033320844 ], [ 1262449.034566706512123, 5542181.343784033320844 ], [ 1262349.034566706512123, 5542181.343784033320844 ], [ 1262349.034566706512123, 5542281.343784033320844 ] ] ] ] } },
{ "type": "Feature", "properties": { "id": 14097, "street_cells": 1394.8324874203649, "yard_cells": 0.0, "utility": 1.045984716211958, "num_areas": 4.0 }, "geometry": { "type": "MultiPolygon", "coordinates": [ [ [ [ 1262349.034566706512123, 5541081.343784033320844 ], [ 1262449.034566706512123, 5541081.343784033320844 ], [ 1262449.034566706512123, 5540981.343784033320844 ], [ 1262349.034566706512123, 5540981.343784033320844 ], [ 1262349.034566706512123, 5541081.343784033320844 ] ] ] ] } },
{ "type": "Feature", "properties": { "id": 14223, "street_cells": 456.58063466511669, "yard_cells": 0.0, "utility": 3.386540028752163, "num_areas": 0.0 }, "geometry": { "type": "MultiPolygon", "coordinates": [ [ [ [ 1262449.034566706512123, 5544381.343784033320844 ], [ 1262549.034566706512123, 5544381.343784033320844 ], [ 1262549.034566706512123, 5544281.343784033320844 ], [ 1262449.034566706512123, 5544281.343784033320844 ], [ 1262449.034566706512123, 5544381.343784033320844 ] ] ] ] } },
{ "type": "Feature", "properties": { "id": 14226, "street_cells": 658.4204769928009, "yard_cells": 0.0, "utility": 2.7116874246771161, "num_areas": 0.0 }, "geometry": { "type": "MultiPolygon", "coordinates": [ [ [ [ 1262449.034566706512123, 5544081.343784033320844 ], [ 1262549.034566706512123, 5544081.343784033320844 ], [ 1262549.034566706512123, 5543981.343784033320844 ], [ 1262449.034566706512123, 5543981.343784033320844 ], [ 1262449.034566706512123, 5544081.343784033320844 ] ] ] ] } },
{ "type": "Feature", "properties": { "id": 14228, "street_cells": 970.43989588916304, "yard_cells": 0.0, "utility": 1.581881836122476, "num_areas": 1.0 }, "geometry": { "type": "MultiPolygon", "coordinates": [ [ [ [ 1262449.034566706512123, 5543881.343784033320844 ], [ 1262549.034566706512123, 5543881.343784033320844 ], [ 1262549.034566706512123, 5543781.343784033320844 ], [ 1262449.034566706512123, 5543781.343784033320844 ], [ 1262449.034566706512123, 5543881.343784033320844 ] ] ] ] } },
{ "type": "Feature", "properties": { "id": 14243, "street_cells": 583.62404911518104, "yard_cells": 0.0, "utility": 2.50510888013204, "num_areas": 0.0 }, "geometry": { "type": "MultiPolygon", "coordinates": [ [ [ [ 1262449.034566706512123, 5542381.343784033320844 ], [ 1262549.034566706512123, 5542381.343784033320844 ], [ 1262549.034566706512123, 5542281.343784033320844 ], [ 1262449.034566706512123, 5542281.343784033320844 ], [ 1262449.034566706512123, 5542381.343784033320844 ] ] ] ] } },
{ "type": "Feature", "properties": { "id": 14380, "street_cells": 859.30620910823347, "yard_cells": 0.0, "utility": 1.9613567463290931, "num_areas": 0.0 }, "geometry": { "type": "MultiPolygon", "coordinates": [ [ [ [ 1262549.034566706512123, 5544581.343784033320844 ], [ 1262649.034566706512123, 5544581.343784033320844 ], [ 1262649.034566706512123, 5544481.343784033320844 ], [ 1262549.034566706512123, 5544481.343784033320844 ], [ 1262549.034566706512123, 5544581.343784033320844 ] ] ] ] } },
{ "type": "Feature", "properties": { "id": 14389, "street_cells": 1204.5816383168101, "yard_cells": 0.0, "utility": 1.275484530049702, "num_areas": 0.0 }, "geometry": { "type": "MultiPolygon", "coordinates": [ [ [ [ 1262549.034566706512123, 5543681.343784033320844 ], [ 1262649.034566706512123, 5543681.343784033320844 ], [ 1262649.034566706512123, 5543581.343784033320844 ], [ 1262549.034566706512123, 5543581.343784033320844 ], [ 1262549.034566706512123, 5543681.343784033320844 ] ] ] ] } },
{ "type": "Feature", "properties": { "id": 14391, "street_cells": 1038.794103291631, "yard_cells": 0.0, "utility": 1.507583610287935, "num_areas": 5.0 }, "geometry": { "type": "MultiPolygon", "coordinates": [ [ [ [ 1262549.034566706512123, 5543481.343784033320844 ], [ 1262649.034566706512123, 5543481.343784033320844 ], [ 1262649.034566706512123, 5543381.343784033320844 ], [ 1262549.034566706512123, 5543381.343784033320844 ], [ 1262549.034566706512123, 5543481.343784033320844 ] ] ] ] } },
{ "type": "Feature", "properties": { "id": 14392, "street_cells": 704.03096168166962, "yard_cells": 0.0, "utility": 1.928822934475134, "num_areas": 1.0 }, "geometry": { "type": "MultiPolygon", "coordinates": [ [ [ [ 1262549.034566706512123, 5543381.343784033320844 ], [ 1262649.034566706512123, 5543381.343784033320844 ], [ 1262649.034566706512123, 5543281.343784033320844 ], [ 1262549.034566706512123, 5543281.343784033320844 ], [ 1262549.034566706512123, 5543381.343784033320844 ] ] ] ] } },
{ "type": "Feature", "properties": { "id": 14544, "street_cells": 1104.620080801845, "yard_cells": 0.0, "utility": 2.923571881498412, "num_areas": 0.0 }, "geometry": { "type": "MultiPolygon", "coordinates": [ [ [ [ 1262649.034566706512123, 5544081.343784033320844 ], [ 1262749.034566706512123, 5544081.343784033320844 ], [ 1262749.034566706512123, 5543981.343784033320844 ], [ 1262649.034566706512123, 5543981.343784033320844 ], [ 1262649.034566706512123, 5544081.343784033320844 ] ] ] ] } },
{ "type": "Feature", "properties": { "id": 14566, "street_cells": 880.24979979274804, "yard_cells": 0.0, "utility": 1.8207429072856089, "num_areas": 2.0 }, "geometry": { "type": "MultiPolygon", "coordinates": [ [ [ [ 1262649.034566706512123, 5541881.343784033320844 ], [ 1262749.034566706512123, 5541881.343784033320844 ], [ 1262749.034566706512123, 5541781.343784033320844 ], [ 1262649.034566706512123, 5541781.343784033320844 ], [ 1262649.034566706512123, 5541881.343784033320844 ] ] ] ] } },
{ "type": "Feature", "properties": { "id": 14703, "street_cells": 616.92597522437575, "yard_cells": 0.0, "utility": 2.9376314104015728, "num_areas": 0.0 }, "geometry": { "type": "MultiPolygon", "coordinates": [ [ [ [ 1262749.034566706512123, 5544081.343784033320844 ], [ 1262849.034566706512123, 5544081.343784033320844 ], [ 1262849.034566706512123, 5543981.343784033320844 ], [ 1262749.034566706512123, 5543981.343784033320844 ], [ 1262749.034566706512123, 5544081.343784033320844 ] ] ] ] } },
{ "type": "Feature", "properties": { "id": 14704, "street_cells": 1091.255850312114, "yard_cells": 0.0, "utility": 2.580246507820728, "num_areas": 0.0 }, "geometry": { "type": "MultiPolygon", "coordinates": [ [ [ [ 1262749.034566706512123, 5543981.343784033320844 ], [ 1262849.034566706512123, 5543981.343784033320844 ], [ 1262849.034566706512123, 5543881.343784033320844 ], [ 1262749.034566706512123, 5543881.343784033320844 ], [ 1262749.034566706512123, 5543981.343784033320844 ] ] ] ] } },
{ "type": "Feature", "properties": { "id": 14863, "street_cells": 1020.109005304426, "yard_cells": 0.0, "utility": 3.3595006984817388, "num_areas": 0.0 }, "geometry": { "type": "MultiPolygon", "coordinates": [ [ [ [ 1262849.034566706512123, 5543981.343784033320844 ], [ 1262949.034566706512123, 5543981.343784033320844 ], [ 1262949.034566706512123, 5543881.343784033320844 ], [ 1262849.034566706512123, 5543881.343784033320844 ], [ 1262849.034566706512123, 5543981.343784033320844 ] ] ] ] } },
{ "type": "Feature", "properties": { "id": 14869, "street_cells": 1089.722068199515, "yard_cells": 0.0, "utility": 1.299467186482947, "num_areas": 3.0 }, "geometry": { "type": "MultiPolygon", "coordinates": [ [ [ [ 1262849.034566706512123, 5543381.343784033320844 ], [ 1262949.034566706512123, 5543381.343784033320844 ], [ 1262949.034566706512123, 5543281.343784033320844 ], [ 1262849.034566706512123, 5543281.343784033320844 ], [ 1262849.034566706512123, 5543381.343784033320844 ] ] ] ] } },
{ "type": "Feature", "properties": { "id": 15019, "street_cells": 863.93699047267444, "yard_cells": 0.0, "utility": 1.731118711126292, "num_areas": 4.0 }, "geometry": { "type": "MultiPolygon", "coordinates": [ [ [ [ 1262949.034566706512123, 5544281.343784033320844 ], [ 1263049.034566706512123, 5544281.343784033320844 ], [ 1263049.034566706512123, 5544181.343784033320844 ], [ 1262949.034566706512123, 5544181.343784033320844 ], [ 1262949.034566706512123, 5544281.343784033320844 ] ] ] ] } },
{ "type": "Feature", "properties": { "id": 15020, "street_cells": 711.36234338879592, "yard_cells": 0.0, "utility": 2.8325020600343058, "num_areas": 0.0 }, "geometry": { "type": "MultiPolygon", "coordinates": [ [ [ [ 1262949.034566706512123, 5544181.343784033320844 ], [ 1263049.034566706512123, 5544181.343784033320844 ], [ 1263049.034566706512123, 5544081.343784033320844 ], [ 1262949.034566706512123, 5544081.343784033320844 ], [ 1262949.034566706512123, 5544181.343784033320844 ] ] ] ] } },
{ "type": "Feature", "properties": { "id": 15021, "street_cells": 718.16389692127711, "yard_cells": 0.0, "utility": 2.6673351506331069, "num_areas": 0.0 }, "geometry": { "type": "MultiPolygon", "coordinates": [ [ [ [ 1262949.034566706512123, 5544081.343784033320844 ], [ 1263049.034566706512123, 5544081.343784033320844 ], [ 1263049.034566706512123, 5543981.343784033320844 ], [ 1262949.034566706512123, 5543981.343784033320844 ], [ 1262949.034566706512123, 5544081.343784033320844 ] ] ] ] } },
{ "type": "Feature", "properties": { "id": 15022, "street_cells": 1049.354391068965, "yard_cells": 0.0, "utility": 1.383062477530276, "num_areas": 5.0 }, "geometry": { "type": "MultiPolygon", "coordinates": [ [ [ [ 1262949.034566706512123, 5543981.343784033320844 ], [ 1263049.034566706512123, 5543981.343784033320844 ], [ 1263049.034566706512123, 5543881.343784033320844 ], [ 1262949.034566706512123, 5543881.343784033320844 ], [ 1262949.034566706512123, 5543981.343784033320844 ] ] ] ] } },
{ "type": "Feature", "properties": { "id": 15039, "street_cells": 814.27308114767084, "yard_cells": 0.0, "utility": 2.9021020632101449, "num_areas": 0.0 }, "geometry": { "type": "MultiPolygon", "coordinates": [ [ [ [ 1262949.034566706512123, 5542281.343784033320844 ], [ 1263049.034566706512123, 5542281.343784033320844 ], [ 1263049.034566706512123, 5542181.343784033320844 ], [ 1262949.034566706512123, 5542181.343784033320844 ], [ 1262949.034566706512123, 5542281.343784033320844 ] ] ] ] } },
{ "type": "Feature", "properties": { "id": 15042, "street_cells": 789.64038996081808, "yard_cells": 0.0, "utility": 2.110548906914965, "num_areas": 0.0 }, "geometry": { "type": "MultiPolygon", "coordinates": [ [ [ [ 1262949.034566706512123, 5541981.343784033320844 ], [ 1263049.034566706512123, 5541981.343784033320844 ], [ 1263049.034566706512123, 5541881.343784033320844 ], [ 1262949.034566706512123, 5541881.343784033320844 ], [ 1262949.034566706512123, 5541981.343784033320844 ] ] ] ] } },
{ "type": "Feature", "properties": { "id": 15176, "street_cells": 921.21590757220986, "yard_cells": 0.0, "utility": 2.2612577031632681, "num_areas": 1.0 }, "geometry": { "type": "MultiPolygon", "coordinates": [ [ [ [ 1263049.034566706512123, 5544481.343784033320844 ], [ 1263149.034566706512123, 5544481.343784033320844 ], [ 1263149.034566706512123, 5544381.343784033320844 ], [ 1263049.034566706512123, 5544381.343784033320844 ], [ 1263049.034566706512123, 5544481.343784033320844 ] ] ] ] } },
{ "type": "Feature", "properties": { "id": 15182, "street_cells": 678.89749391525993, "yard_cells": 0.0, "utility": 2.4044638765342219, "num_areas": 0.0 }, "geometry": { "type": "MultiPolygon", "coordinates": [ [ [ [ 1263049.034566706512123, 5543881.343784033320844 ], [ 1263149.034566706512123, 5543881.343784033320844 ], [ 1263149.034566706512123, 5543781.343784033320844 ], [ 1263049.034566706512123, 5543781.343784033320844 ], [ 1263049.034566706512123, 5543881.343784033320844 ] ] ] ] } },
{ "type": "Feature", "properties": { "id": 15198, "street_cells": 984.14143954738984, "yard_cells": 0.0, "utility": 1.721226986695517, "num_areas": 4.0 }, "geometry": { "type": "MultiPolygon", "coordinates": [ [ [ [ 1263049.034566706512123, 5542281.343784033320844 ], [ 1263149.034566706512123, 5542281.343784033320844 ], [ 1263149.034566706512123, 5542181.343784033320844 ], [ 1263049.034566706512123, 5542181.343784033320844 ], [ 1263049.034566706512123, 5542281.343784033320844 ] ] ] ] } },
{ "type": "Feature", "properties": { "id": 15341, "street_cells": 870.44506334811456, "yard_cells": 0.0, "utility": 1.7672580263723829, "num_areas": 1.0 }, "geometry": { "type": "MultiPolygon", "coordinates": [ [ [ [ 1263149.034566706512123, 5543881.343784033320844 ], [ 1263249.034566706512123, 5543881.343784033320844 ], [ 1263249.034566706512123, 5543781.343784033320844 ], [ 1263149.034566706512123, 5543781.343784033320844 ], [ 1263149.034566706512123, 5543881.343784033320844 ] ] ] ] } },
{ "type": "Feature", "properties": { "id": 15519, "street_cells": 842.434551989846, "yard_cells": 0.0, "utility": 1.651082761474596, "num_areas": 2.0 }, "geometry": { "type": "MultiPolygon", "coordinates": [ [ [ [ 1263249.034566706512123, 5541981.343784033320844 ], [ 1263349.034566706512123, 5541981.343784033320844 ], [ 1263349.034566706512123, 5541881.343784033320844 ], [ 1263249.034566706512123, 5541881.343784033320844 ], [ 1263249.034566706512123, 5541981.343784033320844 ] ] ] ] } },
{ "type": "Feature", "properties": { "id": 15530, "street_cells": 1306.700858387421, "yard_cells": 0.0, "utility": 1.0948530646046011, "num_areas": 5.0 }, "geometry": { "type": "MultiPolygon", "coordinates": [ [ [ [ 1263249.034566706512123, 5540881.343784033320844 ], [ 1263349.034566706512123, 5540881.343784033320844 ], [ 1263349.034566706512123, 5540781.343784033320844 ], [ 1263249.034566706512123, 5540781.343784033320844 ], [ 1263249.034566706512123, 5540881.343784033320844 ] ] ] ] } },
{ "type": "Feature", "properties": { "id": 15659, "street_cells": 924.14138170182707, "yard_cells": 0.0, "utility": 1.5811654949180061, "num_areas": 5.0 }, "geometry": { "type": "MultiPolygon", "coordinates": [ [ [ [ 1263349.034566706512123, 5543881.343784033320844 ], [ 1263449.034566706512123, 5543881.343784033320844 ], [ 1263449.034566706512123, 5543781.343784033320844 ], [ 1263349.034566706512123, 5543781.343784033320844 ], [ 1263349.034566706512123, 5543881.343784033320844 ] ] ] ] } },
{ "type": "Feature", "properties": { "id": 15660, "street_cells": 1204.5575535714629, "yard_cells": 0.0, "utility": 2.4667035181797319, "num_areas": 0.0 }, "geometry": { "type": "MultiPolygon", "coordinates": [ [ [ [ 1263349.034566706512123, 5543781.343784033320844 ], [ 1263449.034566706512123, 5543781.343784033320844 ], [ 1263449.034566706512123, 5543681.343784033320844 ], [ 1263349.034566706512123, 5543681.343784033320844 ], [ 1263349.034566706512123, 5543781.343784033320844 ] ] ] ] } },
{ "type": "Feature", "properties": { "id": 15813, "street_cells": 729.38664118200541, "yard_cells": 0.0, "utility": 1.9261643322981239, "num_areas": 0.0 }, "geometry": { "type": "MultiPolygon", "coordinates": [ [ [ [ 1263449.034566706512123, 5544381.343784033320844 ], [ 1263549.034566706512123, 5544381.343784033320844 ], [ 1263549.034566706512123, 5544281.343784033320844 ], [ 1263449.034566706512123, 5544281.343784033320844 ], [ 1263449.034566706512123, 5544381.343784033320844 ] ] ] ] } },
{ "type": "Feature", "properties": { "id": 15966, "street_cells": 880.26702103614809, "yard_cells": 0.0, "utility": 2.391481425481127, "num_areas": 0.0 }, "geometry": { "type": "MultiPolygon", "coordinates": [ [ [ [ 1263549.034566706512123, 5544981.343784033320844 ], [ 1263649.034566706512123, 5544981.343784033320844 ], [ 1263649.034566706512123, 5544881.343784033320844 ], [ 1263549.034566706512123, 5544881.343784033320844 ], [ 1263549.034566706512123, 5544981.343784033320844 ] ] ] ] } },
{ "type": "Feature", "properties": { "id": 15980, "street_cells": 811.80281703043738, "yard_cells": 0.0, "utility": 1.740731305970374, "num_areas": 1.0 }, "geometry": { "type": "MultiPolygon", "coordinates": [ [ [ [ 1263549.034566706512123, 5543581.343784033320844 ], [ 1263649.034566706512123, 5543581.343784033320844 ], [ 1263649.034566706512123, 5543481.343784033320844 ], [ 1263549.034566706512123, 5543481.343784033320844 ], [ 1263549.034566706512123, 5543581.343784033320844 ] ] ] ] } },
{ "type": "Feature", "properties": { "id": 16139, "street_cells": 1041.332136084, "yard_cells": 0.0, "utility": 1.408479399556932, "num_areas": 0.0 }, "geometry": { "type": "MultiPolygon", "coordinates": [ [ [ [ 1263649.034566706512123, 5543581.343784033320844 ], [ 1263749.034566706512123, 5543581.343784033320844 ], [ 1263749.034566706512123, 5543481.343784033320844 ], [ 1263649.034566706512123, 5543481.343784033320844 ], [ 1263649.034566706512123, 5543581.343784033320844 ] ] ] ] } },
{ "type": "Feature", "properties": { "id": 16298, "street_cells": 1134.8142244383689, "yard_cells": 0.0, "utility": 1.592183629747731, "num_areas": 1.0 }, "geometry": { "type": "MultiPolygon", "coordinates": [ [ [ [ 1263749.034566706512123, 5543581.343784033320844 ], [ 1263849.034566706512123, 5543581.343784033320844 ], [ 1263849.034566706512123, 5543481.343784033320844 ], [ 1263749.034566706512123, 5543481.343784033320844 ], [ 1263749.034566706512123, 5543581.343784033320844 ] ] ] ] } },
{ "type": "Feature", "properties": { "id": 16484, "street_cells": 1174.74222705178, "yard_cells": 0.0, "utility": 1.2421459476771519, "num_areas": 0.0 }, "geometry": { "type": "MultiPolygon", "coordinates": [ [ [ [ 1263849.034566706512123, 5540881.343784033320844 ], [ 1263949.034566706512123, 5540881.343784033320844 ], [ 1263949.034566706512123, 5540781.343784033320844 ], [ 1263849.034566706512123, 5540781.343784033320844 ], [ 1263849.034566706512123, 5540881.343784033320844 ] ] ] ] } },
{ "type": "Feature", "properties": { "id": 16611, "street_cells": 775.521364569664, "yard_cells": 0.0, "utility": 2.066906886869488, "num_areas": 0.0 }, "geometry": { "type": "MultiPolygon", "coordinates": [ [ [ [ 1263949.034566706512123, 5544081.343784033320844 ], [ 1264049.034566706512123, 5544081.343784033320844 ], [ 1264049.034566706512123, 5543981.343784033320844 ], [ 1263949.034566706512123, 5543981.343784033320844 ], [ 1263949.034566706512123, 5544081.343784033320844 ] ] ] ] } },
{ "type": "Feature", "properties": { "id": 16767, "street_cells": 1080.3356964528559, "yard_cells": 0.0, "utility": 1.29534438509877, "num_areas": 3.0 }, "geometry": { "type": "MultiPolygon", "coordinates": [ [ [ [ 1264049.034566706512123, 5544381.343784033320844 ], [ 1264149.034566706512123, 5544381.343784033320844 ], [ 1264149.034566706512123, 5544281.343784033320844 ], [ 1264049.034566706512123, 5544281.343784033320844 ], [ 1264049.034566706512123, 5544381.343784033320844 ] ] ] ] } },
{ "type": "Feature", "properties": { "id": 16873, "street_cells": 1253.644101052824, "yard_cells": 0.0, "utility": 1.19872321932049, "num_areas": 1.0 }, "geometry": { "type": "MultiPolygon", "coordinates": [ [ [ [ 1264149.034566706512123, 5549681.343784033320844 ], [ 1264249.034566706512123, 5549681.343784033320844 ], [ 1264249.034566706512123, 5549581.343784033320844 ], [ 1264149.034566706512123, 5549581.343784033320844 ], [ 1264149.034566706512123, 5549681.343784033320844 ] ] ] ] } },
{ "type": "Feature", "properties": { "id": 16941, "street_cells": 1321.5279882319739, "yard_cells": 0.0, "utility": 1.0679329797270749, "num_areas": 1.0 }, "geometry": { "type": "MultiPolygon", "coordinates": [ [ [ [ 1264149.034566706512123, 5542881.343784033320844 ], [ 1264249.034566706512123, 5542881.343784033320844 ], [ 1264249.034566706512123, 5542781.343784033320844 ], [ 1264149.034566706512123, 5542781.343784033320844 ], [ 1264149.034566706512123, 5542881.343784033320844 ] ] ] ] } },
{ "type": "Feature", "properties": { "id": 16962, "street_cells": 1651.787717473507, "yard_cells": 0.0, "utility": 1.443495567995321, "num_areas": 2.0 }, "geometry": { "type": "MultiPolygon", "coordinates": [ [ [ [ 1264149.034566706512123, 5540781.343784033320844 ], [ 1264249.034566706512123, 5540781.343784033320844 ], [ 1264249.034566706512123, 5540681.343784033320844 ], [ 1264149.034566706512123, 5540681.343784033320844 ], [ 1264149.034566706512123, 5540781.343784033320844 ] ] ] ] } },
{ "type": "Feature", "properties": { "id": 17562, "street_cells": 1231.0767390608789, "yard_cells": 0.0, "utility": 1.076147958512073, "num_areas": 1.0 }, "geometry": { "type": "MultiPolygon", "coordinates": [ [ [ [ 1264549.034566706512123, 5544381.343784033320844 ], [ 1264649.034566706512123, 5544381.343784033320844 ], [ 1264649.034566706512123, 5544281.343784033320844 ], [ 1264549.034566706512123, 5544281.343784033320844 ], [ 1264549.034566706512123, 5544381.343784033320844 ] ] ] ] } },
{ "type": "Feature", "properties": { "id": 17723, "street_cells": 1224.263159445673, "yard_cells": 0.0, "utility": 1.150305059721201, "num_areas": 1.0 }, "geometry": { "type": "MultiPolygon", "coordinates": [ [ [ [ 1264649.034566706512123, 5544181.343784033320844 ], [ 1264749.034566706512123, 5544181.343784033320844 ], [ 1264749.034566706512123, 5544081.343784033320844 ], [ 1264649.034566706512123, 5544081.343784033320844 ], [ 1264649.034566706512123, 5544181.343784033320844 ] ] ] ] } },
{ "type": "Feature", "properties": { "id": 17883, "street_cells": 1541.020094488561, "yard_cells": 0.0, "utility": 1.4162271075710171, "num_areas": 1.0 }, "geometry": { "type": "MultiPolygon", "coordinates": [ [ [ [ 1264749.034566706512123, 5544081.343784033320844 ], [ 1264849.034566706512123, 5544081.343784033320844 ], [ 1264849.034566706512123, 5543981.343784033320844 ], [ 1264749.034566706512123, 5543981.343784033320844 ], [ 1264749.034566706512123, 5544081.343784033320844 ] ] ] ] } },
{ "type": "Feature", "properties": { "id": 18047, "street_cells": 1028.633641371131, "yard_cells": 0.0, "utility": 1.4532765992162391, "num_areas": 0.0 }, "geometry": { "type": "MultiPolygon", "coordinates": [ [ [ [ 1264849.034566706512123, 5543581.343784033320844 ], [ 1264949.034566706512123, 5543581.343784033320844 ], [ 1264949.034566706512123, 5543481.343784033320844 ], [ 1264849.034566706512123, 5543481.343784033320844 ], [ 1264849.034566706512123, 5543581.343784033320844 ] ] ] ] } },
{ "type": "Feature", "properties": { "id": 18204, "street_cells": 1162.1102952271699, "yard_cells": 0.0, "utility": 1.6051322879881409, "num_areas": 0.0 }, "geometry": { "type": "MultiPolygon", "coordinates": [ [ [ [ 1264949.034566706512123, 5543781.343784033320844 ], [ 1265049.034566706512123, 5543781.343784033320844 ], [ 1265049.034566706512123, 5543681.343784033320844 ], [ 1264949.034566706512123, 5543681.343784033320844 ], [ 1264949.034566706512123, 5543781.343784033320844 ] ] ] ] } },
{ "type": "Feature", "properties": { "id": 18401, "street_cells": 1105.40433781147, "yard_cells": 0.0, "utility": 1.4682443980428921, "num_areas": 0.0 }, "geometry": { "type": "MultiPolygon", "coordinates": [ [ [ [ 1265049.034566706512123, 5539981.343784033320844 ], [ 1265149.034566706512123, 5539981.343784033320844 ], [ 1265149.034566706512123, 5539881.343784033320844 ], [ 1265049.034566706512123, 5539881.343784033320844 ], [ 1265049.034566706512123, 5539981.343784033320844 ] ] ] ] } },
{ "type": "Feature", "properties": { "id": 18538, "street_cells": 1054.760228528083, "yard_cells": 0.0, "utility": 1.3346650699971581, "num_areas": 0.0 }, "geometry": { "type": "MultiPolygon", "coordinates": [ [ [ [ 1265149.034566706512123, 5542181.343784033320844 ], [ 1265249.034566706512123, 5542181.343784033320844 ], [ 1265249.034566706512123, 5542081.343784033320844 ], [ 1265149.034566706512123, 5542081.343784033320844 ], [ 1265149.034566706512123, 5542181.343784033320844 ] ] ] ] } },
{ "type": "Feature", "properties": { "id": 18999, "street_cells": 1226.1126291073861, "yard_cells": 0.0, "utility": 1.264270678543657, "num_areas": 0.0 }, "geometry": { "type": "MultiPolygon", "coordinates": [ [ [ [ 1265449.034566706512123, 5543781.343784033320844 ], [ 1265549.034566706512123, 5543781.343784033320844 ], [ 1265549.034566706512123, 5543681.343784033320844 ], [ 1265449.034566706512123, 5543681.343784033320844 ], [ 1265449.034566706512123, 5543781.343784033320844 ] ] ] ] } },
{ "type": "Feature", "properties": { "id": 19808, "street_cells": 908.54540984332561, "yard_cells": 0.0, "utility": 1.5210472352145119, "num_areas": 0.0 }, "geometry": { "type": "MultiPolygon", "coordinates": [ [ [ [ 1265949.034566706512123, 5542381.343784033320844 ], [ 1266049.034566706512123, 5542381.343784033320844 ], [ 1266049.034566706512123, 5542281.343784033320844 ], [ 1265949.034566706512123, 5542281.343784033320844 ], [ 1265949.034566706512123, 5542381.343784033320844 ] ] ] ] } },
{ "type": "Feature", "properties": { "id": 20298, "street_cells": 1437.3904853610791, "yard_cells": 0.0, "utility": 1.0405870229582059, "num_areas": 3.0 }, "geometry": { "type": "MultiPolygon", "coordinates": [ [ [ [ 1266249.034566706512123, 5541081.343784033320844 ], [ 1266349.034566706512123, 5541081.343784033320844 ], [ 1266349.034566706512123, 5540981.343784033320844 ], [ 1266249.034566706512123, 5540981.343784033320844 ], [ 1266249.034566706512123, 5541081.343784033320844 ] ] ] ] } },
{ "type": "Feature", "properties": { "id": 20306, "street_cells": 933.03662472069266, "yard_cells": 0.0, "utility": 1.506063173475829, "num_areas": 1.0 }, "geometry": { "type": "MultiPolygon", "coordinates": [ [ [ [ 1266249.034566706512123, 5540281.343784033320844 ], [ 1266349.034566706512123, 5540281.343784033320844 ], [ 1266349.034566706512123, 5540181.343784033320844 ], [ 1266249.034566706512123, 5540181.343784033320844 ], [ 1266249.034566706512123, 5540281.343784033320844 ] ] ] ] } },
{ "type": "Feature", "properties": { "id": 20950, "street_cells": 984.36010889252657, "yard_cells": 0.0, "utility": 1.4779669614064981, "num_areas": 2.0 }, "geometry": { "type": "MultiPolygon", "coordinates": [ [ [ [ 1266649.034566706512123, 5539481.343784033320844 ], [ 1266749.034566706512123, 5539481.343784033320844 ], [ 1266749.034566706512123, 5539381.343784033320844 ], [ 1266649.034566706512123, 5539381.343784033320844 ], [ 1266649.034566706512123, 5539481.343784033320844 ] ] ] ] } },
{ "type": "Feature", "properties": { "id": 21268, "street_cells": 1142.0414690822361, "yard_cells": 0.0, "utility": 1.5675842206127431, "num_areas": 1.0 }, "geometry": { "type": "MultiPolygon", "coordinates": [ [ [ [ 1266849.034566706512123, 5539481.343784033320844 ], [ 1266949.034566706512123, 5539481.343784033320844 ], [ 1266949.034566706512123, 5539381.343784033320844 ], [ 1266849.034566706512123, 5539381.343784033320844 ], [ 1266849.034566706512123, 5539481.343784033320844 ] ] ] ] } },
{ "type": "Feature", "properties": { "id": 21739, "street_cells": 984.20596314221621, "yard_cells": 0.0, "utility": 1.458615354753124, "num_areas": 2.0 }, "geometry": { "type": "MultiPolygon", "coordinates": [ [ [ [ 1267149.034566706512123, 5540081.343784033320844 ], [ 1267249.034566706512123, 5540081.343784033320844 ], [ 1267249.034566706512123, 5539981.343784033320844 ], [ 1267149.034566706512123, 5539981.343784033320844 ], [ 1267149.034566706512123, 5540081.343784033320844 ] ] ] ] } },
{ "type": "Feature", "properties": { "id": 21911, "street_cells": 1041.6080819241699, "yard_cells": 0.0, "utility": 1.535724351257145, "num_areas": 0.0 }, "geometry": { "type": "MultiPolygon", "coordinates": [ [ [ [ 1267249.034566706512123, 5538781.343784033320844 ], [ 1267349.034566706512123, 5538781.343784033320844 ], [ 1267349.034566706512123, 5538681.343784033320844 ], [ 1267249.034566706512123, 5538681.343784033320844 ], [ 1267249.034566706512123, 5538781.343784033320844 ] ] ] ] } },
{ "type": "Feature", "properties": { "id": 22061, "street_cells": 1113.1353696942331, "yard_cells": 0.0, "utility": 1.4883727310327319, "num_areas": 1.0 }, "geometry": { "type": "MultiPolygon", "coordinates": [ [ [ [ 1267349.034566706512123, 5539681.343784033320844 ], [ 1267449.034566706512123, 5539681.343784033320844 ], [ 1267449.034566706512123, 5539581.343784033320844 ], [ 1267349.034566706512123, 5539581.343784033320844 ], [ 1267349.034566706512123, 5539681.343784033320844 ] ] ] ] } },
{ "type": "Feature", "properties": { "id": 22544, "street_cells": 828.10219761538326, "yard_cells": 0.0, "utility": 1.930022626250808, "num_areas": 0.0 }, "geometry": { "type": "MultiPolygon", "coordinates": [ [ [ [ 1267649.034566706512123, 5539081.343784033320844 ], [ 1267749.034566706512123, 5539081.343784033320844 ], [ 1267749.034566706512123, 5538981.343784033320844 ], [ 1267649.034566706512123, 5538981.343784033320844 ], [ 1267649.034566706512123, 5539081.343784033320844 ] ] ] ] } },
{ "type": "Feature", "properties": { "id": 22701, "street_cells": 1053.8129619273359, "yard_cells": 0.0, "utility": 1.44133000533616, "num_areas": 1.0 }, "geometry": { "type": "MultiPolygon", "coordinates": [ [ [ [ 1267749.034566706512123, 5539281.343784033320844 ], [ 1267849.034566706512123, 5539281.343784033320844 ], [ 1267849.034566706512123, 5539181.343784033320844 ], [ 1267749.034566706512123, 5539181.343784033320844 ], [ 1267749.034566706512123, 5539281.343784033320844 ] ] ] ] } }
]
}
