{
"type": "FeatureCollection",
"name": "default",
"crs": { "type": "name", "properties": { "name": "urn:ogc:def:crs:EPSG::3857" } },
"features": [
{ "type": "Feature", "properties": { "id": 1331, "street_cells": 263.65580016523597, "yard_cells": 0.0, "utility": 0.60303451151219145, "benefit_3": 0.0, "benefit_30": 0.024299313719301569, "benefit_300": 0.01269035532994924, "benefit_330300": 0.0123298896830836, "base_benefit": 0.031923690602144797, "contribution_330300": 0.0123298896830836, "num_areas": 0.0 }, "geometry": { "type": "MultiPolygon", "coordinates": [ [ [ [ 1254349.034566706512123, 5545681.343784033320844 ], [ 1254449.034566706512123, 5545681.343784033320844 ], [ 1254449.034566706512123, 5545581.343784033320844 ], [ 1254349.034566706512123, 5545581.343784033320844 ], [ 1254349.034566706512123, 5545681.343784033320844 ] ] ] ] } },
{ "type": "Feature", "properties": { "id": 2595, "street_cells": 429.91306012049318, "yard_cells": 4200.3594697762746, "utility": 5.5067810841495106, "benefit_3": 0.039099526066350712, "benefit_30": -0.0, "benefit_300": 0.26308539944903581, "benefit_330300": 0.1007283085051288, "base_benefit": 0.44556682567928441, "contribution_330300": 0.1007283085051288, "num_areas": 0.0 }, "geometry": { "type": "MultiPolygon", "coordinates": [ [ [ [ 1255149.034566706512123, 5546481.343784033320844 ], [ 1255249.034566706512123, 5546481.343784033320844 ], [ 1255249.034566706512123, 5546381.343784033320844 ], [ 1255149.034566706512123, 5546381.343784033320844 ], [ 1255149.034566706512123, 5546481.343784033320844 ] ] ] ] } },
{ "type": "Feature", "properties": { "id": 3101, "street_cells": 527.53233856800944, "yard_cells": 3728.6138110943139, "utility": 5.7791533227247083, "benefit_3": 0.93103448275862066, "benefit_30": -0.0, "benefit_300": 1.0, "benefit_330300": 0.64367816091954022, "base_benefit": 0.41319095663307731, "contribution_330300": 0.64367816091954022, "num_areas": 0.0 }, "geometry": { "type": "MultiPolygon", "coordinates": [ [ [ [ 1255449.034566706512123, 5543581.343784033320844 ], [ 1255549.034566706512123, 5543581.343784033320844 ], [ 1255549.034566706512123, 5543481.343784033320844 ], [ 1255449.034566706512123, 5543481.343784033320844 ], [ 1255449.034566706512123, 5543581.343784033320844 ] ] ] ] } },
{ "type": "Feature", "properties": { "id": 3106, "street_cells": 122.5628733821213, "yard_cells": 8073.2486254048999, "utility": 5.8910220180751249, "benefit_3": -0.0, "benefit_30": -0.0, "benefit_300": 0.7407407407407407, "benefit_330300": 0.24691358024691359, "base_benefit": 0.77118592618083392, "contribution_330300": 0.24691358024691359, "num_areas": 0.0 }, "geometry": { "type": "MultiPolygon", "coordinates": [ [ [ [ 1255449.034566706512123, 5543081.343784033320844 ], [ 1255549.034566706512123, 5543081.343784033320844 ], [ 1255549.034566706512123, 5542981.343784033320844 ], [ 1255449.034566706512123, 5542981.343784033320844 ], [ 1255449.034566706512123, 5543081.343784033320844 ] ] ] ] } },
{ "type": "Feature", "properties": { "id": 5960, "street_cells": 469.22495975792413, "yard_cells": 4691.6238505505034, "utility": 4.5839701625459801, "benefit_3": 0.0039215686274509786, "benefit_30": 0.038582137091429922, "benefit_300": 0.15315315315315309, "benefit_330300": 0.065218952957344686, "base_benefit": 0.4963510698813462, "contribution_330300": 0.065218952957344686, "num_areas": 0.0 }, "geometry": { "type": "MultiPolygon", "coordinates": [ [ [ [ 1257249.034566706512123, 5543881.343784033320844 ], [ 1257349.034566706512123, 5543881.343784033320844 ], [ 1257349.034566706512123, 5543781.343784033320844 ], [ 1257249.034566706512123, 5543781.343784033320844 ], [ 1257249.034566706512123, 5543881.343784033320844 ] ] ] ] } },
{ "type": "Feature", "properties": { "id": 6429, "street_cells": 362.51724500767892, "yard_cells": 4502.3389722052962, "utility": 7.3255786906033098, "benefit_3": 0.065625, "benefit_30": -0.0, "benefit_300": 0.2226720647773279, "benefit_330300": 0.096099021592442629, "base_benefit": 0.46569756182038119, "contribution_330300": 0.096099021592442629, "num_areas": 0.0 }, "geometry": { "type": "MultiPolygon", "coordinates": [ [ [ [ 1257549.034566706512123, 5544681.343784033320844 ], [ 1257649.034566706512123, 5544681.343784033320844 ], [ 1257649.034566706512123, 5544581.343784033320844 ], [ 1257549.034566706512123, 5544581.343784033320844 ], [ 1257549.034566706512123, 5544681.343784033320844 ] ] ] ] } },
{ "type": "Feature", "properties": { "id": 6754, "street_cells": 0.0, "yard_cells": 1.0633468423038721, "utility": 7.1275703179180896, "benefit_3": 0.0, "benefit_30": 7.9495050433487265e-06, "benefit_300": 0.6656, "benefit_330300": 0.2218693165016811, "base_benefit": 9.9620123283051436e-05, "contribution_330300": 0.2218693165016811, "num_areas": 0.0 }, "geometry": { "type": "MultiPolygon", "coordinates": [ [ [ [ 1257749.034566706512123, 5543981.343784033320844 ], [ 1257849.034566706512123, 5543981.343784033320844 ], [ 1257849.034566706512123, 5543881.343784033320844 ], [ 1257749.034566706512123, 5543881.343784033320844 ], [ 1257749.034566706512123, 5543981.343784033320844 ] ] ] ] } },
{ "type": "Feature", "properties": { "id": 6906, "street_cells": 0.0, "yard_cells": 3723.0796620603651, "utility": 4.6606865966684978, "benefit_3": 0.09375, "benefit_30": -0.0, "benefit_300": 0.34278002699055332, "benefit_330300": 0.1455100089968511, "base_benefit": 0.34879837901571997, "contribution_330300": 0.1455100089968511, "num_areas": 0.0 }, "geometry": { "type": "MultiPolygon", "coordinates": [ [ [ [ 1257849.034566706512123, 5544681.343784033320844 ], [ 1257949.034566706512123, 5544681.343784033320844 ], [ 1257949.034566706512123, 5544581.343784033320844 ], [ 1257849.034566706512123, 5544581.343784033320844 ], [ 1257849.034566706512123, 5544681.343784033320844 ] ] ] ] } },
{ "type": "Feature", "properties": { "id": 7547, "street_cells": 171.41693124510351, "yard_cells": 4735.2664999682456, "utility": 11.255487208752079, "benefit_3": 0.082352941176470573, "benefit_30": 0.036682014871117198, "benefit_300": 0.5560053981106613, "benefit_330300": 0.225013451386083, "base_benefit": 0.46438087664425509, "contribution_330300": 0.225013451386083, "num_areas": 0.0 }, "geometry": { "type": "MultiPolygon", "coordinates": [ [ [ [ 1258249.034566706512123, 5544181.343784033320844 ], [ 1258349.034566706512123, 5544181.343784033320844 ], [ 1258349.034566706512123, 5544081.343784033320844 ], [ 1258249.034566706512123, 5544081.343784033320844 ], [ 1258249.034566706512123, 5544181.343784033320844 ] ] ] ] } },
{ "type": "Feature", "properties": { "id": 8215, "street_cells": 163.3471173211932, "yard_cells": 4443.3092762976876, "utility": 5.1543650087656898, "benefit_3": -0.0, "benefit_30": -0.0, "benefit_300": -0.0, "benefit_330300": 0.0, "base_benefit": 0.43605163329273577, "contribution_330300": 0.0, "num_areas": 0.0 }, "geometry": { "type": "MultiPolygon", "coordinates": [ [ [ [ 1258655.440917155239731, 5540971.721566090360284 ], [ 1258665.885956414975226, 5540977.330933114513755 ], [ 1258674.719331277068704, 5540981.343784033320844 ], [ 1258749.034566706512123, 5540981.343784033320844 ], [ 1258749.034566706512123, 5540881.343784033320844 ], [ 1258649.034566706512123, 5540881.343784033320844 ], [ 1258649.034566706512123, 5540968.161971695721149 ], [ 1258655.440917155239731, 5540971.721566090360284 ] ] ] ] } },
{ "type": "Feature", "properties": { "id": 8506, "street_cells": 310.12035382241021, "yard_cells": 3030.4850888930009, "utility": 4.8031282039386838, "benefit_3": 0.042886317222600397, "benefit_30": 0.046691597447405843, "benefit_300": 0.27464788732394357, "benefit_330300": 0.12140860066464999, "base_benefit": 0.32146200962834193, "contribution_330300": 0.12140860066464999, "num_areas": 1.0 }, "geometry": { "type": "MultiPolygon", "coordinates": [ [ [ [ 1258849.034566706512123, 5543681.343784033320844 ], [ 1258949.034566706512123, 5543681.343784033320844 ], [ 1258949.034566706512123, 5543581.343784033320844 ], [ 1258849.034566706512123, 5543581.343784033320844 ], [ 1258849.034566706512123, 5543681.343784033320844 ] ] ] ] } },
{ "type": "Feature", "properties": { "id": 8664, "street_cells": 404.93223603665831, "yard_cells": 4119.0991783695499, "utility": 5.6138085283023278, "benefit_3": 0.3865979381443298, "benefit_30": 0.063232326374099104, "benefit_300": 0.26091703056768561, "benefit_330300": 0.23691576502870479, "base_benefit": 0.43492921751022812, "contribution_330300": 0.23691576502870479, "num_areas": 0.0 }, "geometry": { "type": "MultiPolygon", "coordinates": [ [ [ [ 1258949.034566706512123, 5543781.343784033320844 ], [ 1259049.034566706512123, 5543781.343784033320844 ], [ 1259049.034566706512123, 5543681.343784033320844 ], [ 1258949.034566706512123, 5543681.343784033320844 ], [ 1258949.034566706512123, 5543781.343784033320844 ] ] ] ] } },
{ "type": "Feature", "properties": { "id": 8988, "street_cells": 310.83016735278068, "yard_cells": 3592.2731030020791, "utility": 4.6262811762788534, "benefit_3": -0.0, "benefit_30": 0.05455362203652725, "benefit_300": 0.1891891891891892, "benefit_330300": 0.081247603741905469, "base_benefit": 0.37417931523065062, "contribution_330300": 0.081247603741905469, "num_areas": 0.0 }, "geometry": { "type": "MultiPolygon", "coordinates": [ [ [ [ 1259149.034566706512123, 5543181.343784033320844 ], [ 1259249.034566706512123, 5543181.343784033320844 ], [ 1259249.034566706512123, 5543081.343784033320844 ], [ 1259149.034566706512123, 5543081.343784033320844 ], [ 1259149.034566706512123, 5543181.343784033320844 ] ] ] ] } },
{ "type": "Feature", "properties": { "id": 9302, "street_cells": 515.48839174062016, "yard_cells": 75.423614594684295, "utility": 4.7534452682934401, "benefit_3": -0.0, "benefit_30": 0.0082591691834818792, "benefit_300": 0.56, "benefit_330300": 0.18941972306116059, "base_benefit": 0.069481911042475697, "contribution_330300": 0.18941972306116059, "num_areas": 0.0 }, "geometry": { "type": "MultiPolygon", "coordinates": [ [ [ [ 1259349.034566706512123, 5543581.343784033320844 ], [ 1259449.034566706512123, 5543581.343784033320844 ], [ 1259449.034566706512123, 5543481.343784033320844 ], [ 1259349.034566706512123, 5543481.343784033320844 ], [ 1259349.034566706512123, 5543581.343784033320844 ] ] ] ] } },
{ "type": "Feature", "properties": { "id": 9789, "street_cells": 391.16730992421509, "yard_cells": 4313.6058061392296, "utility": 4.5789826909032989, "benefit_3": 0.0081784386617100371, "benefit_30": 0.05570003016918397, "benefit_300": 0.41454545454545461, "benefit_330300": 0.15947464112544951, "base_benefit": 0.45148498758929001, "contribution_330300": 0.15947464112544951, "num_areas": 2.0 }, "geometry": { "type": "MultiPolygon", "coordinates": [ [ [ [ 1259649.034566706512123, 5542581.343784033320844 ], [ 1259749.034566706512123, 5542581.343784033320844 ], [ 1259749.034566706512123, 5542481.343784033320844 ], [ 1259649.034566706512123, 5542481.343784033320844 ], [ 1259649.034566706512123, 5542581.343784033320844 ] ] ] ] } },
{ "type": "Feature", "properties": { "id": 10266, "street_cells": 448.9022647455335, "yard_cells": 2595.0801396383008, "utility": 8.0786067547490692, "benefit_3": 0.13159851301115241, "benefit_30": 0.0360378508327538, "benefit_300": 0.73333333333333339, "benefit_330300": 0.30032323239241321, "base_benefit": 0.2974747461524912, "contribution_330300": 0.30032323239241321, "num_areas": 0.0 }, "geometry": { "type": "MultiPolygon", "coordinates": [ [ [ [ 1259949.034566706512123, 5542581.343784033320844 ], [ 1260049.034566706512123, 5542581.343784033320844 ], [ 1260049.034566706512123, 5542481.343784033320844 ], [ 1259949.034566706512123, 5542481.343784033320844 ], [ 1259949.034566706512123, 5542581.343784033320844 ] ] ] ] } },
{ "type": "Feature", "properties": { "id": 10736, "street_cells": 585.13983248174191, "yard_cells": 3144.2945118601328, "utility": 5.1450789745759646, "benefit_3": -0.0, "benefit_30": 0.03498805911621615, "benefit_300": 0.81516587677725127, "benefit_330300": 0.28338464529782248, "base_benefit": 0.36542391160032722, "contribution_330300": 0.28338464529782248, "num_areas": 0.0 }, "geometry": { "type": "MultiPolygon", "coordinates": [ [ [ [ 1260249.034566706512123, 5543281.343784033320844 ], [ 1260349.034566706512123, 5543281.343784033320844 ], [ 1260349.034566706512123, 5543181.343784033320844 ], [ 1260249.034566706512123, 5543181.343784033320844 ], [ 1260249.034566706512123, 5543281.343784033320844 ] ] ] ] } },
{ "type": "Feature", "properties": { "id": 12487, "street_cells": 1042.1097381621601, "yard_cells": 0.0, "utility": 0.36869870324076309, "benefit_3": 0.012422360248447209, "benefit_30": 0.0020886538944862539, "benefit_300": 0.1457725947521866, "benefit_330300": 0.053427869631706669, "base_benefit": 0.12617962067863289, "contribution_330300": 0.053427869631706669, "num_areas": 0.0 }, "geometry": { "type": "MultiPolygon", "coordinates": [ [ [ [ 1261349.034566706512123, 5543081.343784033320844 ], [ 1261449.034566706512123, 5543081.343784033320844 ], [ 1261449.034566706512123, 5542981.343784033320844 ], [ 1261349.034566706512123, 5542981.343784033320844 ], [ 1261349.034566706512123, 5543081.343784033320844 ] ] ] ] } },
{ "type": "Feature", "properties": { "id": 12647, "street_cells": 1324.149462202937, "yard_cells": 699.58781926085999, "utility": 4.9332452906819384, "benefit_3": 0.031055900621118019, "benefit_30": 0.0040560860335119991, "benefit_300": 0.032005689900426737, "benefit_330300": 0.02237255885168558, "base_benefit": 0.22587045089406249, "contribution_330300": 0.02237255885168558, "num_areas": 0.0 }, "geometry": { "type": "MultiPolygon", "coordinates": [ [ [ [ 1261449.034566706512123, 5542981.343784033320844 ], [ 1261549.034566706512123, 5542981.343784033320844 ], [ 1261549.034566706512123, 5542881.343784033320844 ], [ 1261449.034566706512123, 5542881.343784033320844 ], [ 1261449.034566706512123, 5542981.343784033320844 ] ] ] ] } },
{ "type": "Feature", "properties": { "id": 12954, "street_cells": 784.80541429445157, "yard_cells": 497.4191275620833, "utility": 6.5339986769662408, "benefit_3": 0.1963190184049079, "benefit_30": 0.0057373501646967992, "benefit_300": 0.41982507288629728, "benefit_330300": 0.20729381381863399, "base_benefit": 0.1416259056260345, "contribution_330300": 0.20729381381863399, "num_areas": 0.0 }, "geometry": { "type": "MultiPolygon", "coordinates": [ [ [ [ 1261649.034566706512123, 5544081.343784033320844 ], [ 1261749.034566706512123, 5544081.343784033320844 ], [ 1261749.034566706512123, 5543981.343784033320844 ], [ 1261649.034566706512123, 5543981.343784033320844 ], [ 1261649.034566706512123, 5544081.343784033320844 ] ] ] ] } },
{ "type": "Feature", "properties": { "id": 12955, "street_cells": 420.03392774909742, "yard_cells": 4436.5813984461129, "utility": 9.6392824780117561, "benefit_3": 0.30061349693251532, "benefit_30": 0.02173106334501336, "benefit_300": 0.478134110787172, "benefit_330300": 0.26682622368823361, "base_benefit": 0.46650120786891758, "contribution_330300": 0.26682622368823361, "num_areas": 0.0 }, "geometry": { "type": "MultiPolygon", "coordinates": [ [ [ [ 1261649.034566706512123, 5543981.343784033320844 ], [ 1261749.034566706512123, 5543981.343784033320844 ], [ 1261749.034566706512123, 5543881.343784033320844 ], [ 1261649.034566706512123, 5543881.343784033320844 ], [ 1261649.034566706512123, 5543981.343784033320844 ] ] ] ] } },
{ "type": "Feature", "properties": { "id": 12994, "street_cells": 0.0, "yard_cells": 3019.7390202507381, "utility": 4.7869319216427098, "benefit_3": -0.0, "benefit_30": -0.0, "benefit_300": -0.0, "benefit_330300": 0.0, "base_benefit": 0.28290559722568143, "contribution_330300": 0.0, "num_areas": 0.0 }, "geometry": { "type": "MultiPolygon", "coordinates": [ [ [ [ 1261664.217063456075266, 5540025.135464675724506 ], [ 1261673.532795017352328, 5540047.639998783357441 ], [ 1261694.968487672274932, 5540045.354863519780338 ], [ 1261745.741891429759562, 5540081.343784033320844 ], [ 1261749.034566706512123, 5540081.343784033320844 ], [ 1261749.034566706512123, 5539981.343784033320844 ], [ 1261649.034566706512123, 5539981.343784033320844 ], [ 1261649.034566706512123, 5540026.99965603929013 ], [ 1261664.217063456075266, 5540025.135464675724506 ] ] ] ] } },
{ "type": "Feature", "properties": { "id": 12995, "street_cells": 0.0, "yard_cells": 2241.9728490654379, "utility": 5.0188083815621667, "benefit_3": -0.0, "benefit_30": -0.0, "benefit_300": -0.0, "benefit_330300": 0.0, "base_benefit": 0.21004022651465931, "contribution_330300": 0.0, "num_areas": 0.0 }, "geometry": { "type": "MultiPolygon", "coordinates": [ [ [ [ 1261649.034566706512123, 5539981.343784033320844 ], [ 1261749.034566706512123, 5539981.343784033320844 ], [ 1261749.034566706512123, 5539881.343784033320844 ], [ 1261649.034566706512123, 5539881.343784033320844 ], [ 1261649.034566706512123, 5539981.343784033320844 ] ] ] ] } },
{ "type": "Feature", "properties": { "id": 13114, "street_cells": 38.261885809898381, "yard_cells": 2054.2782809827481, "utility": 6.7231773764134832, "benefit_3": 0.073619631901840468, "benefit_30": 0.0093631304648088224, "benefit_300": 0.40281690140845072, "benefit_330300": 0.16193322125836671, "base_benefit": 0.19708876205249021, "contribution_330300": 0.16193322125836671, "num_areas": 0.0 }, "geometry": { "type": "MultiPolygon", "coordinates": [ [ [ [ 1261749.034566706512123, 5543981.343784033320844 ], [ 1261849.034566706512123, 5543981.343784033320844 ], [ 1261849.034566706512123, 5543881.343784033320844 ], [ 1261749.034566706512123, 5543881.343784033320844 ], [ 1261749.034566706512123, 5543981.343784033320844 ] ] ] ] } },
{ "type": "Feature", "properties": { "id": 13575, "street_cells": 802.9284239562229, "yard_cells": 3126.054509890731, "utility": 6.189122277989906, "benefit_3": -0.0, "benefit_30": 0.01641646484539501, "benefit_300": 0.17288801571709239, "benefit_330300": 0.063101493520829124, "base_benefit": 0.39008513500173853, "contribution_330300": 0.063101493520829124, "num_areas": 0.0 }, "geometry": { "type": "MultiPolygon", "coordinates": [ [ [ [ 1262049.034566706512123, 5545581.343784033320844 ], [ 1262149.034566706512123, 5545581.343784033320844 ], [ 1262149.034566706512123, 5545481.343784033320844 ], [ 1262049.034566706512123, 5545481.343784033320844 ], [ 1262049.034566706512123, 5545581.343784033320844 ] ] ] ] } },
{ "type": "Feature", "properties": { "id": 13596, "street_cells": 610.08476539552214, "yard_cells": 2669.9848902311051, "utility": 5.980073942901087, "benefit_3": -0.0, "benefit_30": 0.0065740967669037226, "benefit_300": 0.16326530612244899, "benefit_330300": 0.056613134296450887, "base_benefit": 0.32400835888903351, "contribution_330300": 0.056613134296450887, "num_areas": 0.0 }, "geometry": { "type": "MultiPolygon", "coordinates": [ [ [ [ 1262049.034566706512123, 5543481.343784033320844 ], [ 1262149.034566706512123, 5543481.343784033320844 ], [ 1262149.034566706512123, 5543381.343784033320844 ], [ 1262049.034566706512123, 5543381.343784033320844 ], [ 1262049.034566706512123, 5543481.343784033320844 ] ] ] ] } },
{ "type": "Feature", "properties": { "id": 13755, "street_cells": 437.55316309668132, "yard_cells": 3485.5334716991651, "utility": 4.8015525551025533, "benefit_3": -0.0, "benefit_30": 0.0078628669113331683, "benefit_300": 0.16618075801749271, "benefit_330300": 0.058014541642941952, "base_benefit": 0.37952310396973588, "contribution_330300": 0.058014541642941952, "num_areas": 0.0 }, "geometry": { "type": "MultiPolygon", "coordinates": [ [ [ [ 1262149.034566706512123, 5543481.343784033320844 ], [ 1262249.034566706512123, 5543481.343784033320844 ], [ 1262249.034566706512123, 5543381.343784033320844 ], [ 1262149.034566706512123, 5543381.343784033320844 ], [ 1262149.034566706512123, 5543481.343784033320844 ] ] ] ] } },
{ "type": "Feature", "properties": { "id": 13876, "street_cells": 0.0, "yard_cells": 1649.3342425040901, "utility": 6.8291860105000071, "benefit_3": 0.045801526717557252, "benefit_30": -0.0, "benefit_300": 0.2384341637010676, "benefit_330300": 0.094745230139541614, "base_benefit": 0.15451861428132391, "contribution_330300": 0.094745230139541614, "num_areas": 0.0 }, "geometry": { "type": "MultiPolygon", "coordinates": [ [ [ [ 1262249.034566706512123, 5547281.343784033320844 ], [ 1262349.034566706512123, 5547281.343784033320844 ], [ 1262349.034566706512123, 5547181.343784033320844 ], [ 1262249.034566706512123, 5547181.343784033320844 ], [ 1262249.034566706512123, 5547281.343784033320844 ] ] ] ] } },
{ "type": "Feature", "properties": { "id": 13912, "street_cells": 861.15387278497224, "yard_cells": 1486.5321090072389, "utility": 7.3260854588544646, "benefit_3": 0.14906832298136649, "benefit_30": 0.0047053619108759033, "benefit_300": 0.2215743440233236, "benefit_330300": 0.12511600963852201, "base_benefit": 0.2435357392205327, "contribution_330300": 0.12511600963852201, "num_areas": 0.0 }, "geometry": { "type": "MultiPolygon", "coordinates": [ [ [ [ 1262249.034566706512123, 5543681.343784033320844 ], [ 1262349.034566706512123, 5543681.343784033320844 ], [ 1262349.034566706512123, 5543581.343784033320844 ], [ 1262249.034566706512123, 5543581.343784033320844 ], [ 1262249.034566706512123, 5543681.343784033320844 ] ] ] ] } },
{ "type": "Feature", "properties": { "id": 14035, "street_cells": 0.0, "yard_cells": 1275.100625708699, "utility": 7.1601869017294337, "benefit_3": 0.13740458015267179, "benefit_30": -0.0, "benefit_300": 0.28825622775800708, "benefit_330300": 0.14188693597022631, "base_benefit": 0.1194583709452504, "contribution_330300": 0.14188693597022631, "num_areas": 0.0 }, "geometry": { "type": "MultiPolygon", "coordinates": [ [ [ [ 1262349.034566706512123, 5547281.343784033320844 ], [ 1262449.034566706512123, 5547281.343784033320844 ], [ 1262449.034566706512123, 5547181.343784033320844 ], [ 1262349.034566706512123, 5547181.343784033320844 ], [ 1262349.034566706512123, 5547281.343784033320844 ] ] ] ] } },
{ "type": "Feature", "properties": { "id": 14054, "street_cells": 0.0, "yard_cells": 6351.1158476867713, "utility": 5.0648313740877509, "benefit_3": 0.081156716417910446, "benefit_30": -0.0, "benefit_300": 0.2144927536231884, "benefit_330300": 0.098549823347032939, "base_benefit": 0.59500712143995993, "contribution_330300": 0.098549823347032939, "num_areas": 0.0 }, "geometry": { "type": "MultiPolygon", "coordinates": [ [ [ [ 1262349.034566706512123, 5545381.343784033320844 ], [ 1262449.034566706512123, 5545381.343784033320844 ], [ 1262449.034566706512123, 5545281.343784033320844 ], [ 1262349.034566706512123, 5545281.343784033320844 ], [ 1262349.034566706512123, 5545381.343784033320844 ] ] ] ] } },
{ "type": "Feature", "properties": { "id": 14070, "street_cells": 834.48331750333318, "yard_cells": 1274.1370851777669, "utility": 5.5049374238276059, "benefit_3": 0.42236024844720499, "benefit_30": 0.0042262134732760082, "benefit_300": 0.21574344023323611, "benefit_330300": 0.21410996738457241, "base_benefit": 0.22040812091285669, "contribution_330300": 0.21410996738457241, "num_areas": 1.0 }, "geometry": { "type": "MultiPolygon", "coordinates": [ [ [ [ 1262349.034566706512123, 5543781.343784033320844 ], [ 1262449.034566706512123, 5543781.343784033320844 ], [ 1262449.034566706512123, 5543681.343784033320844 ], [ 1262349.034566706512123, 5543681.343784033320844 ], [ 1262349.034566706512123, 5543781.343784033320844 ] ] ] ] } },
{ "type": "Feature", "properties": { "id": 14071, "street_cells": 632.14525218009953, "yard_cells": 1395.655275924941, "utility": 6.7132829106931027, "benefit_3": 0.18633540372670809, "benefit_30": 0.0040642298168494994, "benefit_300": 0.20116618075801751, "benefit_330300": 0.13052193810052501, "base_benefit": 0.20729332484067431, "contribution_330300": 0.13052193810052501, "num_areas": 0.0 }, "geometry": { "type": "MultiPolygon", "coordinates": [ [ [ [ 1262349.034566706512123, 5543681.343784033320844 ], [ 1262449.034566706512123, 5543681.343784033320844 ], [ 1262449.034566706512123, 5543581.343784033320844 ], [ 1262349.034566706512123, 5543581.343784033320844 ], [ 1262349.034566706512123, 5543681.343784033320844 ] ] ] ] } },
{ "type": "Feature", "properties": { "id": 14085, "street_cells": 1440.7010955790061, "yard_cells": 0.0, "utility": 5.2117199696712522, "benefit_3": 0.078667611622962444, "benefit_30": 0.0079827428889843056, "benefit_300": 0.2128445581131003, "benefit_330300": 0.099831637541682339, "base_benefit": 0.17444143461517331, "contribution_330300": 0.099831637541682339, "num_areas": 0.0 }, "geometry": { "type": "MultiPolygon", "coordinates": [ [ [ [ 1262349.034566706512123, 5542281.343784033320844 ], [ 1262449.034566706512123, 5542281.343784033320844 ], [ 1262449.034566706512123, 5542181.343784033320844 ], [ 1262349.034566706512123, 5542181.343784033320844 ], [ 1262349.034566706512123, 5542281.343784033320844 ] ] ] ] } },
{ "type": "Feature", "properties": { "id": 14223, "street_cells": 456.58063466511669, "yard_cells": 2275.800573766232, "utility": 5.5748097068859774, "benefit_3": 0.039301310043668117, "benefit_30": 0.0068171930209086516, "benefit_300": 0.1793416572077185, "benefit_330300": 0.075153386757431759, "base_benefit": 0.26849260179562873, "contribution_330300": 0.075153386757431759, "num_areas": 0.0 }, "geometry": { "type": "MultiPolygon", "coordinates": [ [ [ [ 1262449.034566706512123, 5544381.343784033320844 ], [ 1262549.034566706512123, 5544381.343784033320844 ], [ 1262549.034566706512123, 5544281.343784033320844 ], [ 1262449.034566706512123, 5544281.343784033320844 ], [ 1262449.034566706512123, 5544381.343784033320844 ] ] ] ] } },
{ "type": "Feature", "properties": { "id": 14243, "street_cells": 583.62404911518104, "yard_cells": 0.0093458642729729036, "utility": 4.4969239622680783, "benefit_3": -0.0, "benefit_30": 0.0016473301582266989, "benefit_300": 0.49590536851683348, "benefit_330300": 0.16585089955835339, "base_benefit": 0.07066662068402127, "contribution_330300": 0.16585089955835339, "num_areas": 0.0 }, "geometry": { "type": "MultiPolygon", "coordinates": [ [ [ [ 1262449.034566706512123, 5542381.343784033320844 ], [ 1262549.034566706512123, 5542381.343784033320844 ], [ 1262549.034566706512123, 5542281.343784033320844 ], [ 1262449.034566706512123, 5542281.343784033320844 ], [ 1262449.034566706512123, 5542381.343784033320844 ] ] ] ] } },
{ "type": "Feature", "properties": { "id": 15018, "street_cells": 379.96083249002697, "yard_cells": 2627.0376493324479, "utility": 7.2286123307948547, "benefit_3": 0.02620087336244541, "benefit_30": 0.0084739683440442064, "benefit_300": 0.5513307984790875, "benefit_330300": 0.19533521339519239, "base_benefit": 0.29212120667908598, "contribution_330300": 0.19533521339519239, "num_areas": 0.0 }, "geometry": { "type": "MultiPolygon", "coordinates": [ [ [ [ 1262949.034566706512123, 5544381.343784033320844 ], [ 1263049.034566706512123, 5544381.343784033320844 ], [ 1263049.034566706512123, 5544281.343784033320844 ], [ 1262949.034566706512123, 5544281.343784033320844 ], [ 1262949.034566706512123, 5544381.343784033320844 ] ] ] ] } },
{ "type": "Feature", "properties": { "id": 15176, "street_cells": 921.21590757220986, "yard_cells": 182.51176870769629, "utility": 5.9829718308723283, "benefit_3": 0.37991266375545851, "benefit_30": 0.00311039511518901, "benefit_300": 0.67870722433460073, "benefit_330300": 0.35391009440174942, "base_benefit": 0.12864037919715099, "contribution_330300": 0.35391009440174942, "num_areas": 1.0 }, "geometry": { "type": "MultiPolygon", "coordinates": [ [ [ [ 1263049.034566706512123, 5544481.343784033320844 ], [ 1263149.034566706512123, 5544481.343784033320844 ], [ 1263149.034566706512123, 5544381.343784033320844 ], [ 1263049.034566706512123, 5544381.343784033320844 ], [ 1263049.034566706512123, 5544481.343784033320844 ] ] ] ] } },
{ "type": "Feature", "properties": { "id": 15335, "street_cells": 468.34462500028309, "yard_cells": 2211.2673869944242, "utility": 11.40818311368942, "benefit_3": 0.32751091703056773, "benefit_30": 0.0075513664211102564, "benefit_300": 0.63307984790874527, "benefit_330300": 0.32271404378680768, "base_benefit": 0.26387117634467577, "contribution_330300": 0.32271404378680768, "num_areas": 0.0 }, "geometry": { "type": "MultiPolygon", "coordinates": [ [ [ [ 1263149.034566706512123, 5544481.343784033320844 ], [ 1263249.034566706512123, 5544481.343784033320844 ], [ 1263249.034566706512123, 5544381.343784033320844 ], [ 1263149.034566706512123, 5544381.343784033320844 ], [ 1263149.034566706512123, 5544481.343784033320844 ] ] ] ] } },
{ "type": "Feature", "properties": { "id": 15481, "street_cells": 298.77835048213598, "yard_cells": 4645.3295534255703, "utility": 5.6942754053741602, "benefit_3": 0.075379344101811047, "benefit_30": 0.02853055995606182, "benefit_300": 0.43958573072497131, "benefit_330300": 0.18116521159428139, "base_benefit": 0.47137613331381512, "contribution_330300": 0.18116521159428139, "num_areas": 1.0 }, "geometry": { "type": "MultiPolygon", "coordinates": [ [ [ [ 1263249.034566706512123, 5545781.343784033320844 ], [ 1263349.034566706512123, 5545781.343784033320844 ], [ 1263349.034566706512123, 5545681.343784033320844 ], [ 1263249.034566706512123, 5545681.343784033320844 ], [ 1263249.034566706512123, 5545781.343784033320844 ] ] ] ] } },
{ "type": "Feature", "properties": { "id": 15483, "street_cells": 0.0, "yard_cells": 5924.8242503711954, "utility": 12.374417264178311, "benefit_3": 0.032305433186490463, "benefit_30": 0.034189899733122808, "benefit_300": 0.44649021864211752, "benefit_330300": 0.17099518385391019, "base_benefit": 0.55506980297565134, "contribution_330300": 0.17099518385391019, "num_areas": 0.0 }, "geometry": { "type": "MultiPolygon", "coordinates": [ [ [ [ 1263249.034566706512123, 5545581.343784033320844 ], [ 1263349.034566706512123, 5545581.343784033320844 ], [ 1263349.034566706512123, 5545481.343784033320844 ], [ 1263249.034566706512123, 5545481.343784033320844 ], [ 1263249.034566706512123, 5545581.343784033320844 ] ] ] ] } },
{ "type": "Feature", "properties": { "id": 15953, "street_cells": 356.4464482277632, "yard_cells": 2654.6752774119382, "utility": 5.1591572944219459, "benefit_3": 0.1050463439752832, "benefit_30": 0.017376034382353061, "benefit_300": 0.30149597238204839, "benefit_330300": 0.1413061169132282, "base_benefit": 0.29186330658034748, "contribution_330300": 0.1413061169132282, "num_areas": 0.0 }, "geometry": { "type": "MultiPolygon", "coordinates": [ [ [ [ 1263549.034566706512123, 5546281.343784033320844 ], [ 1263649.034566706512123, 5546281.343784033320844 ], [ 1263649.034566706512123, 5546181.343784033320844 ], [ 1263549.034566706512123, 5546181.343784033320844 ], [ 1263549.034566706512123, 5546281.343784033320844 ] ] ] ] } },
{ "type": "Feature", "properties": { "id": 16112, "street_cells": 323.9522167298943, "yard_cells": 4739.7086972761899, "utility": 5.2841887355278008, "benefit_3": 0.098867147270854785, "benefit_30": 0.029220454753835869, "benefit_300": 0.31070195627157648, "benefit_330300": 0.14626318609875569, "base_benefit": 0.48326616075198792, "contribution_330300": 0.14626318609875569, "num_areas": 0.0 }, "geometry": { "type": "MultiPolygon", "coordinates": [ [ [ [ 1263649.034566706512123, 5546281.343784033320844 ], [ 1263749.034566706512123, 5546281.343784033320844 ], [ 1263749.034566706512123, 5546181.343784033320844 ], [ 1263649.034566706512123, 5546181.343784033320844 ], [ 1263649.034566706512123, 5546281.343784033320844 ] ] ] ] } },
{ "type": "Feature", "properties": { "id": 16114, "street_cells": 376.51293735578662, "yard_cells": 4308.2043780260719, "utility": 6.4244076548710289, "benefit_3": 0.1174047373841401, "benefit_30": 0.027033715857629901, "benefit_300": 0.37974683544303811, "benefit_330300": 0.17472842956160259, "base_benefit": 0.44920458726561202, "contribution_330300": 0.17472842956160259, "num_areas": 0.0 }, "geometry": { "type": "MultiPolygon", "coordinates": [ [ [ [ 1263649.034566706512123, 5546081.343784033320844 ], [ 1263749.034566706512123, 5546081.343784033320844 ], [ 1263749.034566706512123, 5545981.343784033320844 ], [ 1263649.034566706512123, 5545981.343784033320844 ], [ 1263649.034566706512123, 5546081.343784033320844 ] ] ] ] } },
{ "type": "Feature", "properties": { "id": 16271, "street_cells": 98.362333324551585, "yard_cells": 6106.6756988475099, "utility": 8.0542820119625791, "benefit_3": 0.1081359423274974, "benefit_30": 0.035806906533452879, "benefit_300": 0.59183673469387765, "benefit_330300": 0.24525986118494261, "base_benefit": 0.58401644026365374, "contribution_330300": 0.24525986118494261, "num_areas": 0.0 }, "geometry": { "type": "MultiPolygon", "coordinates": [ [ [ [ 1263749.034566706512123, 5546281.343784033320844 ], [ 1263849.034566706512123, 5546281.343784033320844 ], [ 1263849.034566706512123, 5546181.343784033320844 ], [ 1263749.034566706512123, 5546181.343784033320844 ], [ 1263749.034566706512123, 5546281.343784033320844 ] ] ] ] } },
{ "type": "Feature", "properties": { "id": 16274, "street_cells": 385.83039495199921, "yard_cells": 4784.0205503366888, "utility": 11.35311006005384, "benefit_3": 0.08959835221421214, "benefit_30": 0.029833236900408719, "benefit_300": 0.80913978494623662, "benefit_330300": 0.30952379135361918, "base_benefit": 0.49490980410187679, "contribution_330300": 0.30952379135361918, "num_areas": 0.0 }, "geometry": { "type": "MultiPolygon", "coordinates": [ [ [ [ 1263749.034566706512123, 5545981.343784033320844 ], [ 1263849.034566706512123, 5545981.343784033320844 ], [ 1263849.034566706512123, 5545881.343784033320844 ], [ 1263749.034566706512123, 5545881.343784033320844 ], [ 1263749.034566706512123, 5545981.343784033320844 ] ] ] ] } },
{ "type": "Feature", "properties": { "id": 16281, "street_cells": 381.49089616537088, "yard_cells": 3301.7746303722229, "utility": 4.7070663924617433, "benefit_3": -0.0, "benefit_30": 0.021254719755594179, "benefit_300": -0.0, "benefit_330300": 0.0070849065851980603, "base_benefit": 0.35551950328899229, "contribution_330300": 0.0070849065851980603, "num_areas": 0.0 }, "geometry": { "type": "MultiPolygon", "coordinates": [ [ [ [ 1263749.034566706512123, 5545281.343784033320844 ], [ 1263849.034566706512123, 5545281.343784033320844 ], [ 1263849.034566706512123, 5545181.343784033320844 ], [ 1263749.034566706512123, 5545181.343784033320844 ], [ 1263749.034566706512123, 5545281.343784033320844 ] ] ] ] } },
{ "type": "Feature", "properties": { "id": 16300, "street_cells": 0.0, "yard_cells": 5292.0143771898001, "utility": 5.3725573096182204, "benefit_3": -0.0, "benefit_30": 0.015102578789406211, "benefit_300": -0.0, "benefit_330300": 0.0050341929298020694, "base_benefit": 0.49578472770850951, "contribution_330300": 0.0050341929298020694, "num_areas": 0.0 }, "geometry": { "type": "MultiPolygon", "coordinates": [ [ [ [ 1263749.034566706512123, 5543381.343784033320844 ], [ 1263849.034566706512123, 5543381.343784033320844 ], [ 1263849.034566706512123, 5543281.343784033320844 ], [ 1263749.034566706512123, 5543281.343784033320844 ], [ 1263749.034566706512123, 5543381.343784033320844 ] ] ] ] } },
{ "type": "Feature", "properties": { "id": 16710, "street_cells": 584.82159246038646, "yard_cells": 3591.2381495637819, "utility": 6.0797388587241654, "benefit_3": 0.5714285714285714, "benefit_30": -0.0, "benefit_300": 0.8, "benefit_330300": 0.45714285714285707, "base_benefit": 0.4072574928822229, "contribution_330300": 0.45714285714285707, "num_areas": 0.0 }, "geometry": { "type": "MultiPolygon", "coordinates": [ [ [ [ 1264049.034566706512123, 5550081.343784033320844 ], [ 1264149.034566706512123, 5550081.343784033320844 ], [ 1264149.034566706512123, 5549981.343784033320844 ], [ 1264049.034566706512123, 5549981.343784033320844 ], [ 1264049.034566706512123, 5550081.343784033320844 ] ] ] ] } },
{ "type": "Feature", "properties": { "id": 17029, "street_cells": 651.3450493317564, "yard_cells": 3230.564943524852, "utility": 5.0139123164256141, "benefit_3": -0.0, "benefit_30": -0.0, "benefit_300": 0.8, "benefit_330300": 0.26666666666666672, "base_benefit": 0.38152238498414981, "contribution_330300": 0.26666666666666672, "num_areas": 1.0 }, "geometry": { "type": "MultiPolygon", "coordinates": [ [ [ [ 1264249.034566706512123, 5549981.343784033320844 ], [ 1264349.034566706512123, 5549981.343784033320844 ], [ 1264349.034566706512123, 5549881.343784033320844 ], [ 1264249.034566706512123, 5549881.343784033320844 ], [ 1264249.034566706512123, 5549981.343784033320844 ] ] ] ] } },
{ "type": "Feature", "properties": { "id": 17030, "street_cells": 432.79863103628162, "yard_cells": 2376.382003638118, "utility": 6.518938378568766, "benefit_3": -0.0, "benefit_30": -0.0, "benefit_300": 0.8, "benefit_330300": 0.26666666666666672, "base_benefit": 0.2750360707053065, "contribution_330300": 0.26666666666666672, "num_areas": 0.0 }, "geometry": { "type": "MultiPolygon", "coordinates": [ [ [ [ 1264249.034566706512123, 5549881.343784033320844 ], [ 1264349.034566706512123, 5549881.343784033320844 ], [ 1264349.034566706512123, 5549781.343784033320844 ], [ 1264249.034566706512123, 5549781.343784033320844 ], [ 1264249.034566706512123, 5549881.343784033320844 ] ] ] ] } },
{ "type": "Feature", "properties": { "id": 17067, "street_cells": 137.64135741703211, "yard_cells": 4294.4788384363064, "utility": 5.0754065072958774, "benefit_3": -0.0, "benefit_30": 0.025576074276275871, "benefit_300": 0.25806451612903231, "benefit_330300": 0.094546863468436035, "base_benefit": 0.41899590990346541, "contribution_330300": 0.094546863468436035, "num_areas": 0.0 }, "geometry": { "type": "MultiPolygon", "coordinates": [ [ [ [ 1264249.034566706512123, 5546181.343784033320844 ], [ 1264349.034566706512123, 5546181.343784033320844 ], [ 1264349.034566706512123, 5546081.343784033320844 ], [ 1264249.034566706512123, 5546081.343784033320844 ], [ 1264249.034566706512123, 5546181.343784033320844 ] ] ] ] } },
{ "type": "Feature", "properties": { "id": 17095, "street_cells": 691.91232668161399, "yard_cells": 0.0, "utility": 0.98554708539209246, "benefit_3": -0.0, "benefit_30": 0.0001000653158138084, "benefit_300": 0.135678391959799, "benefit_330300": 0.045259485758537603, "base_benefit": 0.083777390927682771, "contribution_330300": 0.045259485758537603, "num_areas": 2.0 }, "geometry": { "type": "MultiPolygon", "coordinates": [ [ [ [ 1264249.034566706512123, 5543381.343784033320844 ], [ 1264349.034566706512123, 5543381.343784033320844 ], [ 1264349.034566706512123, 5543281.343784033320844 ], [ 1264249.034566706512123, 5543281.343784033320844 ], [ 1264249.034566706512123, 5543381.343784033320844 ] ] ] ] } },
{ "type": "Feature", "properties": { "id": 18067, "street_cells": 48.199614428728822, "yard_cells": 0.0, "utility": 0.43382207247835042, "benefit_3": 0.0, "benefit_30": 0.012434334484061459, "benefit_300": 0.16971279373368139, "benefit_330300": 0.060715709405914302, "base_benefit": 0.0058360543451010253, "contribution_330300": 0.060715709405914302, "num_areas": 0.0 }, "geometry": { "type": "MultiPolygon", "coordinates": [ [ [ [ 1264849.034566706512123, 5541581.343784033320844 ], [ 1264949.034566706512123, 5541581.343784033320844 ], [ 1264949.034566706512123, 5541481.343784033320844 ], [ 1264849.034566706512123, 5541481.343784033320844 ], [ 1264849.034566706512123, 5541581.343784033320844 ] ] ] ] } },
{ "type": "Feature", "properties": { "id": 18853, "street_cells": 453.41841658204788, "yard_cells": 0.0, "utility": 0.26916843439358579, "benefit_3": 0.089201877934272297, "benefit_30": -0.0, "benefit_300": 0.15857885615251299, "benefit_330300": 0.08259357802892843, "base_benefit": 0.054900325481966217, "contribution_330300": 0.08259357802892843, "num_areas": 2.0 }, "geometry": { "type": "MultiPolygon", "coordinates": [ [ [ [ 1265349.034566706512123, 5542481.343784033320844 ], [ 1265449.034566706512123, 5542481.343784033320844 ], [ 1265449.034566706512123, 5542381.343784033320844 ], [ 1265349.034566706512123, 5542381.343784033320844 ], [ 1265349.034566706512123, 5542481.343784033320844 ] ] ] ] } },
{ "type": "Feature", "properties": { "id": 18882, "street_cells": 587.45694933980701, "yard_cells": 3155.827812027419, "utility": 5.0083097091924689, "benefit_3": 0.11594202898550721, "benefit_30": -0.0, "benefit_300": 0.36106983655274888, "benefit_330300": 0.1590039551794187, "base_benefit": 0.36678497264545562, "contribution_330300": 0.1590039551794187, "num_areas": 0.0 }, "geometry": { "type": "MultiPolygon", "coordinates": [ [ [ [ 1265349.034566706512123, 5539581.343784033320844 ], [ 1265449.034566706512123, 5539581.343784033320844 ], [ 1265449.034566706512123, 5539481.343784033320844 ], [ 1265349.034566706512123, 5539481.343784033320844 ], [ 1265349.034566706512123, 5539581.343784033320844 ] ] ] ] } },
{ "type": "Feature", "properties": { "id": 19026, "street_cells": 89.247118216753009, "yard_cells": 4252.6668162099086, "utility": 6.3018268980210719, "benefit_3": 0.014627659574468091, "benefit_30": 0.10560585169493809, "benefit_300": 0.3129640205596802, "benefit_330300": 0.14439917727636209, "base_benefit": 0.40921911225446578, "contribution_330300": 0.14439917727636209, "num_areas": 1.0 }, "geometry": { "type": "MultiPolygon", "coordinates": [ [ [ [ 1265449.034566706512123, 5541081.343784033320844 ], [ 1265549.034566706512123, 5541081.343784033320844 ], [ 1265549.034566706512123, 5540981.343784033320844 ], [ 1265449.034566706512123, 5540981.343784033320844 ], [ 1265449.034566706512123, 5541081.343784033320844 ] ] ] ] } },
{ "type": "Feature", "properties": { "id": 19037, "street_cells": 405.75128435343498, "yard_cells": 4360.9408056268003, "utility": 4.862806929385, "benefit_3": -0.0, "benefit_30": -0.0, "benefit_300": 0.12797992471769129, "benefit_330300": 0.042659974905897111, "base_benefit": 0.45768542938139151, "contribution_330300": 0.042659974905897111, "num_areas": 0.0 }, "geometry": { "type": "MultiPolygon", "coordinates": [ [ [ [ 1265449.034566706512123, 5539981.343784033320844 ], [ 1265549.034566706512123, 5539981.343784033320844 ], [ 1265549.034566706512123, 5539881.343784033320844 ], [ 1265449.034566706512123, 5539881.343784033320844 ], [ 1265449.034566706512123, 5539981.343784033320844 ] ] ] ] } },
{ "type": "Feature", "properties": { "id": 19157, "street_cells": 546.24921184703715, "yard_cells": 3053.9199494000059, "utility": 4.9421661190085828, "benefit_3": 0.73529411764705865, "benefit_30": -0.0, "benefit_300": 0.13157894736842099, "benefit_330300": 0.28895768833849322, "base_benefit": 0.35224821772024678, "contribution_330300": 0.28895768833849322, "num_areas": 0.0 }, "geometry": { "type": "MultiPolygon", "coordinates": [ [ [ [ 1265549.034566706512123, 5543881.343784033320844 ], [ 1265649.034566706512123, 5543881.343784033320844 ], [ 1265649.034566706512123, 5543781.343784033320844 ], [ 1265549.034566706512123, 5543781.343784033320844 ], [ 1265549.034566706512123, 5543881.343784033320844 ] ] ] ] } },
{ "type": "Feature", "properties": { "id": 19158, "street_cells": 215.76575618386269, "yard_cells": 954.31854751007631, "utility": 5.5409738266301689, "benefit_3": 0.82352941176470562, "benefit_30": -0.0, "benefit_300": 0.14912280701754391, "benefit_330300": 0.3242174062607498, "base_benefit": 0.1155308781835097, "contribution_330300": 0.3242174062607498, "num_areas": 0.0 }, "geometry": { "type": "MultiPolygon", "coordinates": [ [ [ [ 1265549.034566706512123, 5543781.343784033320844 ], [ 1265649.034566706512123, 5543781.343784033320844 ], [ 1265649.034566706512123, 5543681.343784033320844 ], [ 1265549.034566706512123, 5543681.343784033320844 ], [ 1265549.034566706512123, 5543781.343784033320844 ] ] ] ] } },
{ "type": "Feature", "properties": { "id": 19237, "street_cells": 263.88205305226148, "yard_cells": 4050.1902507841592, "utility": 6.2745728924793491, "benefit_3": -0.0, "benefit_30": -0.0, "benefit_300": 0.19736842105263161, "benefit_330300": 0.065789473684210537, "base_benefit": 0.41139496595828018, "contribution_330300": 0.065789473684210537, "num_areas": 0.0 }, "geometry": { "type": "MultiPolygon", "coordinates": [ [ [ [ 1265549.034566706512123, 5535881.343784033320844 ], [ 1265649.034566706512123, 5535881.343784033320844 ], [ 1265649.034566706512123, 5535781.343784033320844 ], [ 1265549.034566706512123, 5535781.343784033320844 ], [ 1265549.034566706512123, 5535881.343784033320844 ] ] ] ] } },
{ "type": "Feature", "properties": { "id": 19345, "street_cells": 83.43431467264891, "yard_cells": 4805.7986906468868, "utility": 10.035938774740909, "benefit_3": 0.063545150501672226, "benefit_30": 0.1189344034444795, "benefit_300": 0.21873215305539689, "benefit_330300": 0.1337372356671829, "base_benefit": 0.46033569898099169, "contribution_330300": 0.1337372356671829, "num_areas": 0.0 }, "geometry": { "type": "MultiPolygon", "coordinates": [ [ [ [ 1265649.034566706512123, 5540981.343784033320844 ], [ 1265749.034566706512123, 5540981.343784033320844 ], [ 1265749.034566706512123, 5540881.343784033320844 ], [ 1265649.034566706512123, 5540881.343784033320844 ], [ 1265649.034566706512123, 5540981.343784033320844 ] ] ] ] } },
{ "type": "Feature", "properties": { "id": 19504, "street_cells": 0.0, "yard_cells": 6084.0324303353718, "utility": 5.9242209339933201, "benefit_3": 0.1177170035671819, "benefit_30": 0.14799883066557051, "benefit_300": 0.18332381496287839, "benefit_330300": 0.14967988306521021, "base_benefit": 0.56998529233878159, "contribution_330300": 0.14967988306521021, "num_areas": 0.0 }, "geometry": { "type": "MultiPolygon", "coordinates": [ [ [ [ 1265749.034566706512123, 5540981.343784033320844 ], [ 1265849.034566706512123, 5540981.343784033320844 ], [ 1265849.034566706512123, 5540881.343784033320844 ], [ 1265749.034566706512123, 5540881.343784033320844 ], [ 1265749.034566706512123, 5540981.343784033320844 ] ] ] ] } },
{ "type": "Feature", "properties": { "id": 19665, "street_cells": 528.43761329501865, "yard_cells": 2968.4812332959218, "utility": 5.0066187483962414, "benefit_3": 0.046822742474916378, "benefit_30": 0.030693351353035709, "benefit_300": 0.105653912050257, "benefit_330300": 0.061056668626069691, "base_benefit": 0.34208720849459118, "contribution_330300": 0.061056668626069691, "num_areas": 0.0 }, "geometry": { "type": "MultiPolygon", "coordinates": [ [ [ [ 1265849.034566706512123, 5540781.343784033320844 ], [ 1265949.034566706512123, 5540781.343784033320844 ], [ 1265949.034566706512123, 5540681.343784033320844 ], [ 1265849.034566706512123, 5540681.343784033320844 ], [ 1265849.034566706512123, 5540781.343784033320844 ] ] ] ] } },
{ "type": "Feature", "properties": { "id": 19675, "street_cells": 237.33096101582049, "yard_cells": 4757.0810152050108, "utility": 5.2811987693051714, "benefit_3": -0.0, "benefit_30": -0.0, "benefit_300": 0.22982456140350879, "benefit_330300": 0.076608187134502931, "base_benefit": 0.47440551153997118, "contribution_330300": 0.076608187134502931, "num_areas": 0.0 }, "geometry": { "type": "MultiPolygon", "coordinates": [ [ [ [ 1265849.034566706512123, 5539781.343784033320844 ], [ 1265949.034566706512123, 5539781.343784033320844 ], [ 1265949.034566706512123, 5539681.343784033320844 ], [ 1265849.034566706512123, 5539681.343784033320844 ], [ 1265849.034566706512123, 5539781.343784033320844 ] ] ] ] } },
{ "type": "Feature", "properties": { "id": 19696, "street_cells": 266.12332199811942, "yard_cells": 4760.3937375913374, "utility": 9.6999509499506011, "benefit_3": 0.1479820627802691, "benefit_30": -0.0, "benefit_300": 0.68571428571428572, "benefit_330300": 0.27789878283151831, "base_benefit": 0.478202071381298, "contribution_330300": 0.27789878283151831, "num_areas": 0.0 }, "geometry": { "type": "MultiPolygon", "coordinates": [ [ [ [ 1265849.034566706512123, 5537681.343784033320844 ], [ 1265949.034566706512123, 5537681.343784033320844 ], [ 1265949.034566706512123, 5537581.343784033320844 ], [ 1265849.034566706512123, 5537581.343784033320844 ], [ 1265849.034566706512123, 5537681.343784033320844 ] ] ] ] } },
{ "type": "Feature", "properties": { "id": 19714, "street_cells": 0.0, "yard_cells": 3097.2877906057979, "utility": 10.93876527915064, "benefit_3": -0.0, "benefit_30": -0.0, "benefit_300": 0.20614035087719301, "benefit_330300": 0.068713450292397671, "base_benefit": 0.29017078837110499, "contribution_330300": 0.068713450292397671, "num_areas": 0.0 }, "geometry": { "type": "MultiPolygon", "coordinates": [ [ [ [ 1265849.034566706512123, 5535881.343784033320844 ], [ 1265949.034566706512123, 5535881.343784033320844 ], [ 1265949.034566706512123, 5535781.343784033320844 ], [ 1265849.034566706512123, 5535781.343784033320844 ], [ 1265849.034566706512123, 5535881.343784033320844 ] ] ] ] } },
{ "type": "Feature", "properties": { "id": 19790, "street_cells": 538.29415539614854, "yard_cells": 3997.9630690040071, "utility": 7.8830125086579903, "benefit_3": -0.0, "benefit_30": -0.0, "benefit_300": 0.19047619047619049, "benefit_330300": 0.063492063492063489, "base_benefit": 0.4397281128534416, "contribution_330300": 0.063492063492063489, "num_areas": 0.0 }, "geometry": { "type": "MultiPolygon", "coordinates": [ [ [ [ 1265949.034566706512123, 5544181.343784033320844 ], [ 1266049.034566706512123, 5544181.343784033320844 ], [ 1266049.034566706512123, 5544081.343784033320844 ], [ 1265949.034566706512123, 5544081.343784033320844 ], [ 1265949.034566706512123, 5544181.343784033320844 ] ] ] ] } },
{ "type": "Feature", "properties": { "id": 19791, "street_cells": 860.7221158646048, "yard_cells": 2920.9718831199771, "utility": 5.1946647783694377, "benefit_3": -0.0, "benefit_30": -0.0, "benefit_300": 0.76190476190476186, "benefit_330300": 0.25396825396825401, "base_benefit": 0.37786959183434388, "contribution_330300": 0.25396825396825401, "num_areas": 1.0 }, "geometry": { "type": "MultiPolygon", "coordinates": [ [ [ [ 1265949.034566706512123, 5544081.343784033320844 ], [ 1266049.034566706512123, 5544081.343784033320844 ], [ 1266049.034566706512123, 5543981.343784033320844 ], [ 1265949.034566706512123, 5543981.343784033320844 ], [ 1265949.034566706512123, 5544081.343784033320844 ] ] ] ] } },
{ "type": "Feature", "properties": { "id": 19846, "street_cells": 353.34486205093572, "yard_cells": 5548.9911384615116, "utility": 7.1787050574103919, "benefit_3": -0.0, "benefit_30": -0.0, "benefit_300": 0.062761506276150625, "benefit_330300": 0.020920502092050208, "base_benefit": 0.5626430362327477, "contribution_330300": 0.020920502092050208, "num_areas": 0.0 }, "geometry": { "type": "MultiPolygon", "coordinates": [ [ [ [ 1265949.034566706512123, 5538581.343784033320844 ], [ 1266049.034566706512123, 5538581.343784033320844 ], [ 1266049.034566706512123, 5538481.343784033320844 ], [ 1265949.034566706512123, 5538481.343784033320844 ], [ 1265949.034566706512123, 5538581.343784033320844 ] ] ] ] } },
{ "type": "Feature", "properties": { "id": 20007, "street_cells": 402.30077166110277, "yard_cells": 4788.8549289484508, "utility": 8.1738265034965902, "benefit_3": -0.0, "benefit_30": -0.0, "benefit_300": 0.092050209205020925, "benefit_330300": 0.030683403068340311, "base_benefit": 0.49735696361799309, "contribution_330300": 0.030683403068340311, "num_areas": 0.0 }, "geometry": { "type": "MultiPolygon", "coordinates": [ [ [ [ 1266049.034566706512123, 5538381.343784033320844 ], [ 1266149.034566706512123, 5538381.343784033320844 ], [ 1266149.034566706512123, 5538281.343784033320844 ], [ 1266049.034566706512123, 5538281.343784033320844 ], [ 1266049.034566706512123, 5538381.343784033320844 ] ] ] ] } },
{ "type": "Feature", "properties": { "id": 20011, "street_cells": 186.73449331186711, "yard_cells": 5469.198301845463, "utility": 5.5619916838399419, "benefit_3": -0.0, "benefit_30": -0.0, "benefit_300": 0.26754385964912281, "benefit_330300": 0.089181286549707597, "base_benefit": 0.5349942696373654, "contribution_330300": 0.089181286549707597, "num_areas": 0.0 }, "geometry": { "type": "MultiPolygon", "coordinates": [ [ [ [ 1266049.034566706512123, 5537981.343784033320844 ], [ 1266149.034566706512123, 5537981.343784033320844 ], [ 1266149.034566706512123, 5537881.343784033320844 ], [ 1266049.034566706512123, 5537881.343784033320844 ], [ 1266049.034566706512123, 5537981.343784033320844 ] ] ] ] } },
{ "type": "Feature", "properties": { "id": 20158, "street_cells": 93.022410947084438, "yard_cells": 4457.5815007044002, "utility": 4.719107589122765, "benefit_3": 0.080267558528428096, "benefit_30": -0.0, "benefit_300": 0.30047393364928909, "benefit_330300": 0.1269138307259057, "base_benefit": 0.42887375185513299, "contribution_330300": 0.1269138307259057, "num_areas": 0.0 }, "geometry": { "type": "MultiPolygon", "coordinates": [ [ [ [ 1266149.034566706512123, 5539181.343784033320844 ], [ 1266249.034566706512123, 5539181.343784033320844 ], [ 1266249.034566706512123, 5539081.343784033320844 ], [ 1266149.034566706512123, 5539081.343784033320844 ], [ 1266149.034566706512123, 5539181.343784033320844 ] ] ] ] } },
{ "type": "Feature", "properties": { "id": 20307, "street_cells": 537.18822092115886, "yard_cells": 4275.1250982494093, "utility": 6.712810053012058, "benefit_3": -0.0, "benefit_30": -0.0, "benefit_300": 0.35751295336787559, "benefit_330300": 0.1191709844559585, "base_benefit": 0.46556025362656339, "contribution_330300": 0.1191709844559585, "num_areas": 0.0 }, "geometry": { "type": "MultiPolygon", "coordinates": [ [ [ [ 1266249.034566706512123, 5540181.343784033320844 ], [ 1266349.034566706512123, 5540181.343784033320844 ], [ 1266349.034566706512123, 5540081.343784033320844 ], [ 1266249.034566706512123, 5540081.343784033320844 ], [ 1266249.034566706512123, 5540181.343784033320844 ] ] ] ] } },
{ "type": "Feature", "properties": { "id": 20791, "street_cells": 48.511434352956712, "yard_cells": 4699.7539819851518, "utility": 5.5256159836319441, "benefit_3": 0.11556064073226539, "benefit_30": 0.069521650263794782, "benefit_300": 0.21921341070277239, "benefit_330300": 0.1347652338996109, "base_benefit": 0.44617235816768902, "contribution_330300": 0.1347652338996109, "num_areas": 0.0 }, "geometry": { "type": "MultiPolygon", "coordinates": [ [ [ [ 1266549.034566706512123, 5539481.343784033320844 ], [ 1266649.034566706512123, 5539481.343784033320844 ], [ 1266649.034566706512123, 5539381.343784033320844 ], [ 1266549.034566706512123, 5539381.343784033320844 ], [ 1266549.034566706512123, 5539481.343784033320844 ] ] ] ] } },
{ "type": "Feature", "properties": { "id": 20896, "street_cells": 0.0, "yard_cells": 4324.5543180014938, "utility": 12.34692579670233, "benefit_3": -0.0, "benefit_30": -0.0, "benefit_300": -0.0, "benefit_330300": 0.0, "base_benefit": 0.40514780047698501, "contribution_330300": 0.0, "num_areas": 0.0 }, "geometry": { "type": "MultiPolygon", "coordinates": [ [ [ [ 1266738.724678207887337, 5544790.624836105853319 ], [ 1266735.591890913434327, 5544781.343784033320844 ], [ 1266649.034566706512123, 5544781.343784033320844 ], [ 1266649.034566706512123, 5544881.343784033320844 ], [ 1266749.034566706512123, 5544881.343784033320844 ], [ 1266749.034566706512123, 5544821.109425464645028 ], [ 1266738.724678207887337, 5544790.624836105853319 ] ] ] ] } },
{ "type": "Feature", "properties": { "id": 21105, "street_cells": 410.31305187175752, "yard_cells": 4927.360329084564, "utility": 10.867730231073599, "benefit_3": 0.078478002378121275, "benefit_30": 0.078151457316679357, "benefit_300": 0.50674974039460019, "benefit_330300": 0.2211264000298003, "base_benefit": 0.51130303819067602, "contribution_330300": 0.2211264000298003, "num_areas": 0.0 }, "geometry": { "type": "MultiPolygon", "coordinates": [ [ [ [ 1266749.034566706512123, 5539881.343784033320844 ], [ 1266849.034566706512123, 5539881.343784033320844 ], [ 1266849.034566706512123, 5539781.343784033320844 ], [ 1266749.034566706512123, 5539781.343784033320844 ], [ 1266749.034566706512123, 5539881.343784033320844 ] ] ] ] } },
{ "type": "Feature", "properties": { "id": 21235, "street_cells": 0.0, "yard_cells": 1196.669396389741, "utility": 6.4627692496503748, "benefit_3": 0.1035598705501618, "benefit_30": -0.0, "benefit_300": 0.31188118811881188, "benefit_330300": 0.1384803528896579, "base_benefit": 0.11211050623812691, "contribution_330300": 0.1384803528896579, "num_areas": 0.0 }, "geometry": { "type": "MultiPolygon", "coordinates": [ [ [ [ 1266849.034566706512123, 5542781.343784033320844 ], [ 1266949.034566706512123, 5542781.343784033320844 ], [ 1266949.034566706512123, 5542681.343784033320844 ], [ 1266849.034566706512123, 5542681.343784033320844 ], [ 1266849.034566706512123, 5542781.343784033320844 ] ] ] ] } },
{ "type": "Feature", "properties": { "id": 21236, "street_cells": 166.48388651162389, "yard_cells": 7087.8723481572233, "utility": 4.7532265130558287, "benefit_3": 0.1326860841423948, "benefit_30": -0.0, "benefit_300": 0.4232673267326732, "benefit_330300": 0.18531780362502259, "base_benefit": 0.6841885073704902, "contribution_330300": 0.18531780362502259, "num_areas": 0.0 }, "geometry": { "type": "MultiPolygon", "coordinates": [ [ [ [ 1266849.034566706512123, 5542681.343784033320844 ], [ 1266949.034566706512123, 5542681.343784033320844 ], [ 1266949.034566706512123, 5542581.343784033320844 ], [ 1266849.034566706512123, 5542581.343784033320844 ], [ 1266849.034566706512123, 5542681.343784033320844 ] ] ] ] } },
{ "type": "Feature", "properties": { "id": 21560, "street_cells": 191.93236859738829, "yard_cells": 3920.2962802562029, "utility": 4.6070526720093294, "benefit_3": -0.0, "benefit_30": -0.0, "benefit_300": 0.40099009900990101, "benefit_330300": 0.13366336633663359, "base_benefit": 0.39051405637116499, "contribution_330300": 0.13366336633663359, "num_areas": 0.0 }, "geometry": { "type": "MultiPolygon", "coordinates": [ [ [ [ 1267049.034566706512123, 5542081.343784033320844 ], [ 1267149.034566706512123, 5542081.343784033320844 ], [ 1267149.034566706512123, 5541981.343784033320844 ], [ 1267049.034566706512123, 5541981.343784033320844 ], [ 1267049.034566706512123, 5542081.343784033320844 ] ] ] ] } },
{ "type": "Feature", "properties": { "id": 21581, "street_cells": 387.23632563613359, "yard_cells": 4578.2422373865274, "utility": 6.038452809030824, "benefit_3": 0.17485714285714279, "benefit_30": 0.016712137030386098, "benefit_300": 0.51238738738738743, "benefit_330300": 0.23465222242497211, "base_benefit": 0.47580160245560971, "contribution_330300": 0.23465222242497211, "num_areas": 0.0 }, "geometry": { "type": "MultiPolygon", "coordinates": [ [ [ [ 1267049.034566706512123, 5539981.343784033320844 ], [ 1267149.034566706512123, 5539981.343784033320844 ], [ 1267149.034566706512123, 5539881.343784033320844 ], [ 1267049.034566706512123, 5539881.343784033320844 ], [ 1267049.034566706512123, 5539981.343784033320844 ] ] ] ] } },
{ "type": "Feature", "properties": { "id": 21582, "street_cells": 401.67031501755122, "yard_cells": 4433.2278954680078, "utility": 5.4315477695535854, "benefit_3": 0.1188571428571429, "benefit_30": 0.01627264731808982, "benefit_300": 0.51914414414414412, "benefit_330300": 0.21809131143979221, "base_benefit": 0.46396355006082629, "contribution_330300": 0.21809131143979221, "num_areas": 0.0 }, "geometry": { "type": "MultiPolygon", "coordinates": [ [ [ [ 1267049.034566706512123, 5539881.343784033320844 ], [ 1267149.034566706512123, 5539881.343784033320844 ], [ 1267149.034566706512123, 5539781.343784033320844 ], [ 1267049.034566706512123, 5539781.343784033320844 ], [ 1267049.034566706512123, 5539881.343784033320844 ] ] ] ] } },
{ "type": "Feature", "properties": { "id": 21740, "street_cells": 608.85388379096992, "yard_cells": 3093.9890941488561, "utility": 5.1408740121861527, "benefit_3": 0.073142857142857134, "benefit_30": 0.012462528729892111, "benefit_300": 0.43806306306306297, "benefit_330300": 0.17455614964527069, "base_benefit": 0.36358234558783498, "contribution_330300": 0.17455614964527069, "num_areas": 0.0 }, "geometry": { "type": "MultiPolygon", "coordinates": [ [ [ [ 1267149.034566706512123, 5539981.343784033320844 ], [ 1267249.034566706512123, 5539981.343784033320844 ], [ 1267249.034566706512123, 5539881.343784033320844 ], [ 1267149.034566706512123, 5539881.343784033320844 ], [ 1267149.034566706512123, 5539981.343784033320844 ] ] ] ] } },
{ "type": "Feature", "properties": { "id": 21741, "street_cells": 372.95016006529329, "yard_cells": 4514.1450785961933, "utility": 6.6676584920901032, "benefit_3": 0.064, "benefit_30": 0.016448325024958022, "benefit_300": 0.44031531531531531, "benefit_330300": 0.17358788011342441, "base_benefit": 0.46806684926638348, "contribution_330300": 0.17358788011342441, "num_areas": 0.0 }, "geometry": { "type": "MultiPolygon", "coordinates": [ [ [ [ 1267149.034566706512123, 5539881.343784033320844 ], [ 1267249.034566706512123, 5539881.343784033320844 ], [ 1267249.034566706512123, 5539781.343784033320844 ], [ 1267149.034566706512123, 5539781.343784033320844 ], [ 1267149.034566706512123, 5539881.343784033320844 ] ] ] ] } },
{ "type": "Feature", "properties": { "id": 21746, "street_cells": 348.48698984310028, "yard_cells": 3806.581533207494, "utility": 4.6123683625049798, "benefit_3": 0.058285714285714281, "benefit_30": 0.01398456838480336, "benefit_300": 0.58487394957983196, "benefit_330300": 0.2190480774167832, "base_benefit": 0.39881641936568402, "contribution_330300": 0.2190480774167832, "num_areas": 2.0 }, "geometry": { "type": "MultiPolygon", "coordinates": [ [ [ [ 1267149.034566706512123, 5539381.343784033320844 ], [ 1267249.034566706512123, 5539381.343784033320844 ], [ 1267249.034566706512123, 5539281.343784033320844 ], [ 1267149.034566706512123, 5539281.343784033320844 ], [ 1267149.034566706512123, 5539381.343784033320844 ] ] ] ] } },
{ "type": "Feature", "properties": { "id": 21876, "street_cells": 312.50244267433891, "yard_cells": 3013.6224693525578, "utility": 5.7376727647183809, "benefit_3": -0.0, "benefit_30": -0.0, "benefit_300": 0.25247524752475242, "benefit_330300": 0.084158415841584136, "base_benefit": 0.32017065313787402, "contribution_330300": 0.084158415841584136, "num_areas": 0.0 }, "geometry": { "type": "MultiPolygon", "coordinates": [ [ [ [ 1267249.034566706512123, 5542281.343784033320844 ], [ 1267349.034566706512123, 5542281.343784033320844 ], [ 1267349.034566706512123, 5542181.343784033320844 ], [ 1267249.034566706512123, 5542181.343784033320844 ], [ 1267249.034566706512123, 5542281.343784033320844 ] ] ] ] } },
{ "type": "Feature", "properties": { "id": 21877, "street_cells": 758.87616989761591, "yard_cells": 2371.7547569562048, "utility": 6.1894429259921191, "benefit_3": -0.0, "benefit_30": -0.0, "benefit_300": 0.24257425742574251, "benefit_330300": 0.080858085808580837, "base_benefit": 0.31408433807611941, "contribution_330300": 0.080858085808580837, "num_areas": 0.0 }, "geometry": { "type": "MultiPolygon", "coordinates": [ [ [ [ 1267249.034566706512123, 5542181.343784033320844 ], [ 1267349.034566706512123, 5542181.343784033320844 ], [ 1267349.034566706512123, 5542081.343784033320844 ], [ 1267249.034566706512123, 5542081.343784033320844 ], [ 1267249.034566706512123, 5542181.343784033320844 ] ] ] ] } },
{ "type": "Feature", "properties": { "id": 21901, "street_cells": 451.28774762153631, "yard_cells": 4348.6233609674673, "utility": 4.7663103610566386, "benefit_3": 0.034285714285714287, "benefit_30": 0.016154892456444549, "benefit_300": 0.39189189189189189, "benefit_330300": 0.1474441662113502, "base_benefit": 0.46204506159818393, "contribution_330300": 0.1474441662113502, "num_areas": 0.0 }, "geometry": { "type": "MultiPolygon", "coordinates": [ [ [ [ 1267249.034566706512123, 5539781.343784033320844 ], [ 1267349.034566706512123, 5539781.343784033320844 ], [ 1267349.034566706512123, 5539681.343784033320844 ], [ 1267249.034566706512123, 5539681.343784033320844 ], [ 1267249.034566706512123, 5539781.343784033320844 ] ] ] ] } },
{ "type": "Feature", "properties": { "id": 21904, "street_cells": 453.98959315903488, "yard_cells": 4209.1956651906748, "utility": 5.9405387280924522, "benefit_3": 0.032, "benefit_30": 0.015694719058091541, "benefit_300": 0.58151260504201685, "benefit_330300": 0.2097357747000361, "base_benefit": 0.44930985770213072, "contribution_330300": 0.2097357747000361, "num_areas": 0.0 }, "geometry": { "type": "MultiPolygon", "coordinates": [ [ [ [ 1267249.034566706512123, 5539481.343784033320844 ], [ 1267349.034566706512123, 5539481.343784033320844 ], [ 1267349.034566706512123, 5539381.343784033320844 ], [ 1267249.034566706512123, 5539381.343784033320844 ], [ 1267249.034566706512123, 5539481.343784033320844 ] ] ] ] } },
{ "type": "Feature", "properties": { "id": 21907, "street_cells": 421.37787138968707, "yard_cells": 4340.0818873234093, "utility": 7.4687128136802361, "benefit_3": 0.14171428571428571, "benefit_30": 0.016025478096887171, "benefit_300": 0.47058823529411759, "benefit_330300": 0.2094426663684302, "base_benefit": 0.45762333407227251, "contribution_330300": 0.2094426663684302, "num_areas": 0.0 }, "geometry": { "type": "MultiPolygon", "coordinates": [ [ [ [ 1267249.034566706512123, 5539181.343784033320844 ], [ 1267349.034566706512123, 5539181.343784033320844 ], [ 1267349.034566706512123, 5539081.343784033320844 ], [ 1267249.034566706512123, 5539081.343784033320844 ], [ 1267249.034566706512123, 5539181.343784033320844 ] ] ] ] } },
{ "type": "Feature", "properties": { "id": 22033, "street_cells": 126.0680740647018, "yard_cells": 4893.7524954681276, "utility": 5.1910172973567246, "benefit_3": 0.018154311649016638, "benefit_30": -0.0, "benefit_300": 0.19306930693069299, "benefit_330300": 0.070407872859903228, "base_benefit": 0.47373782583950119, "contribution_330300": 0.070407872859903228, "num_areas": 0.0 }, "geometry": { "type": "MultiPolygon", "coordinates": [ [ [ [ 1267349.034566706512123, 5542481.343784033320844 ], [ 1267449.034566706512123, 5542481.343784033320844 ], [ 1267449.034566706512123, 5542381.343784033320844 ], [ 1267349.034566706512123, 5542381.343784033320844 ], [ 1267349.034566706512123, 5542481.343784033320844 ] ] ] ] } },
{ "type": "Feature", "properties": { "id": 22225, "street_cells": 291.13715378623459, "yard_cells": 4391.4821345142554, "utility": 4.7153259363331674, "benefit_3": 0.12, "benefit_30": 0.01576012749102864, "benefit_300": 0.3825503355704698, "benefit_330300": 0.17277015435383281, "base_benefit": 0.44666912139644832, "contribution_330300": 0.17277015435383281, "num_areas": 1.0 }, "geometry": { "type": "MultiPolygon", "coordinates": [ [ [ [ 1267449.034566706512123, 5539181.343784033320844 ], [ 1267549.034566706512123, 5539181.343784033320844 ], [ 1267549.034566706512123, 5539081.343784033320844 ], [ 1267449.034566706512123, 5539081.343784033320844 ], [ 1267449.034566706512123, 5539181.343784033320844 ] ] ] ] } },
{ "type": "Feature", "properties": { "id": 22226, "street_cells": 278.40787494089449, "yard_cells": 4820.1514186765999, "utility": 6.9690823809333784, "benefit_3": 0.078857142857142848, "benefit_30": 0.017160042177407998, "benefit_300": 0.35570469798657722, "benefit_330300": 0.15057396100704271, "base_benefit": 0.48528792153887701, "contribution_330300": 0.15057396100704271, "num_areas": 0.0 }, "geometry": { "type": "MultiPolygon", "coordinates": [ [ [ [ 1267449.034566706512123, 5539081.343784033320844 ], [ 1267549.034566706512123, 5539081.343784033320844 ], [ 1267549.034566706512123, 5538981.343784033320844 ], [ 1267449.034566706512123, 5538981.343784033320844 ], [ 1267449.034566706512123, 5539081.343784033320844 ] ] ] ] } },
{ "type": "Feature", "properties": { "id": 25055, "street_cells": 405.65131325200201, "yard_cells": 5699.9746062643826, "utility": 4.7999686901547323, "benefit_3": -0.0, "benefit_30": -0.0, "benefit_300": 0.042635658914728682, "benefit_330300": 0.014211886304909559, "base_benefit": 0.58312130374625248, "contribution_330300": 0.014211886304909559, "num_areas": 0.0 }, "geometry": { "type": "MultiPolygon", "coordinates": [ [ [ [ 1269249.034566706512123, 5542381.343784033320844 ], [ 1269349.034566706512123, 5542381.343784033320844 ], [ 1269349.034566706512123, 5542281.343784033320844 ], [ 1269249.034566706512123, 5542281.343784033320844 ], [ 1269249.034566706512123, 5542381.343784033320844 ] ] ] ] } },
{ "type": "Feature", "properties": { "id": 25703, "street_cells": 135.3512080207467, "yard_cells": 5217.9668658589944, "utility": 6.5829176999036587, "benefit_3": 0.083591331269349839, "benefit_30": -0.0, "benefit_300": 0.27659574468085102, "benefit_330300": 0.12006235865006699, "base_benefit": 0.50523600429453486, "contribution_330300": 0.12006235865006699, "num_areas": 0.0 }, "geometry": { "type": "MultiPolygon", "coordinates": [ [ [ [ 1269722.840282435528934, 5541154.313003056682646 ], [ 1269745.01568117341958, 5541146.159186707809567 ], [ 1269749.034566706512123, 5541144.455984814092517 ], [ 1269749.034566706512123, 5541081.343784033320844 ], [ 1269649.034566706512123, 5541081.343784033320844 ], [ 1269649.034566706512123, 5541181.343784033320844 ], [ 1269657.656470290385187, 5541181.343784033320844 ], [ 1269722.840282435528934, 5541154.313003056682646 ] ] ] ] } },
{ "type": "Feature", "properties": { "id": 26659, "street_cells": 194.83976573720579, "yard_cells": 5121.5098157626053, "utility": 6.166425022271012, "benefit_3": 0.16513761467889909, "benefit_30": -0.0, "benefit_300": 0.28368794326241131, "benefit_330300": 0.14960851931377009, "base_benefit": 0.50340231267148827, "contribution_330300": 0.14960851931377009, "num_areas": 0.0 }, "geometry": { "type": "MultiPolygon", "coordinates": [ [ [ [ 1270302.317869324004278, 5540892.808076760731637 ], [ 1270308.040328935720026, 5540890.271688754670322 ], [ 1270328.023470380343497, 5540881.343784033320844 ], [ 1270249.034566706512123, 5540881.343784033320844 ], [ 1270249.034566706512123, 5540981.343784033320844 ], [ 1270346.481167370453477, 5540981.343784033320844 ], [ 1270302.317869324004278, 5540892.808076760731637 ] ] ] ] } },
{ "type": "Feature", "properties": { "id": 26660, "street_cells": 37.529903423693042, "yard_cells": 3462.7183418422942, "utility": 6.5182915369249592, "benefit_3": 0.23394495412844041, "benefit_30": -0.0, "benefit_300": 0.33333333333333331, "benefit_330300": 0.1890927624872579, "base_benefit": 0.32895046835174929, "contribution_330300": 0.1890927624872579, "num_areas": 0.0 }, "geometry": { "type": "MultiPolygon", "coordinates": [ [ [ [ 1270349.034566706512123, 5540871.956618025898933 ], [ 1270349.034566706512123, 5540781.343784033320844 ], [ 1270249.034566706512123, 5540781.343784033320844 ], [ 1270249.034566706512123, 5540881.343784033320844 ], [ 1270328.023470380343497, 5540881.343784033320844 ], [ 1270349.034566706512123, 5540871.956618025898933 ] ] ] ] } },
{ "type": "Feature", "properties": { "id": 26661, "street_cells": 0.0, "yard_cells": 2955.0510063618422, "utility": 11.204994364213899, "benefit_3": 0.11009174311926601, "benefit_30": -0.0, "benefit_300": 0.32624113475177302, "benefit_330300": 0.14544429262367969, "base_benefit": 0.27684527178700769, "contribution_330300": 0.14544429262367969, "num_areas": 0.0 }, "geometry": { "type": "MultiPolygon", "coordinates": [ [ [ [ 1270249.034566706512123, 5540711.852784902788699 ], [ 1270249.034566706512123, 5540781.343784033320844 ], [ 1270349.034566706512123, 5540781.343784033320844 ], [ 1270349.034566706512123, 5540681.343784033320844 ], [ 1270314.085003803484142, 5540681.343784033320844 ], [ 1270249.034566706512123, 5540711.852784902788699 ] ] ] ] } },
{ "type": "Feature", "properties": { "id": 26819, "street_cells": 119.9642244094284, "yard_cells": 5315.4781482988037, "utility": 5.3594347543002812, "benefit_3": 0.1238532110091743, "benefit_30": -0.0, "benefit_300": 0.19148936170212769, "benefit_330300": 0.10511419090376729, "base_benefit": 0.51250832193913298, "contribution_330300": 0.10511419090376729, "num_areas": 0.0 }, "geometry": { "type": "MultiPolygon", "coordinates": [ [ [ [ 1270436.532205266179517, 5540832.865137711167336 ], [ 1270436.580200990429148, 5540832.844700532965362 ], [ 1270438.931611831532791, 5540831.793484089896083 ], [ 1270449.034566706512123, 5540827.487463670782745 ], [ 1270449.034566706512123, 5540781.343784033320844 ], [ 1270349.034566706512123, 5540781.343784033320844 ], [ 1270349.034566706512123, 5540871.956618025898933 ], [ 1270436.532205266179517, 5540832.865137711167336 ] ] ] ] } },
{ "type": "Feature", "properties": { "id": 26820, "street_cells": 0.0, "yard_cells": 6424.2059857100248, "utility": 20.898943848698561, "benefit_3": 0.11009174311926601, "benefit_30": -0.0, "benefit_300": 0.21276595744680851, "benefit_330300": 0.10761923352202479, "base_benefit": 0.60185460362637055, "contribution_330300": 0.10761923352202479, "num_areas": 0.0 }, "geometry": { "type": "MultiPolygon", "coordinates": [ [ [ [ 1270349.034566706512123, 5540781.343784033320844 ], [ 1270449.034566706512123, 5540781.343784033320844 ], [ 1270449.034566706512123, 5540681.343784033320844 ], [ 1270349.034566706512123, 5540681.343784033320844 ], [ 1270349.034566706512123, 5540781.343784033320844 ] ] ] ] } }
]
}
